{
  "type": "FeatureCollection",
  "features": [
    {
      "type": "Feature",
      "id": 1,
      "properties": {
        "building_id": "city-mall",
        "floor": 1,
        "id": 1,
        "metadata": {
          "category": "Elevator"
        },
        "name": "Elevator",
        "type": "amenity"
      },
      "geometry": {
        "type": "Point",
        "coordinates": [-8.424755224588498, 43.35208768553206]
      }
    },
    {
      "type": "Feature",
      "id": 2,
      "properties": {
        "building_id": "city-mall",
        "floor": -1,
        "id": 2,
        "metadata": {
          "category": "Elevator"
        },
        "name": "Stairs",
        "type": "amenity"
      },
      "geometry": {
        "type": "Point",
        "coordinates": [-8.425902273443342, 43.35223740331557]
      }
    },
    {
      "type": "Feature",
      "id": 3,
      "properties": {
        "building_id": "city-mall",
        "floor": 1,
        "id": 3,
        "metadata": {
          "category": "WC"
        },
        "name": "WC",
        "type": "amenity"
      },
      "geometry": {
        "type": "Point",
        "coordinates": [-8.425927897560456, 43.352218932410864]
      }
    },
    {
      "type": "Feature",
      "id": 4,
      "properties": {
        "building_id": "city-mall",
        "floor": 1,
        "id": 4,
        "metadata": {
          "category": "Vending machine"
        },
        "name": "Cinema ticket machine",
        "type": "amenity"
      },
      "geometry": {
        "type": "Point",
        "coordinates": [-8.424212263326154, 43.35222926277177]
      }
    },
    {
      "type": "Feature",
      "id": 5,
      "properties": {
        "building_id": "city-mall",
        "floor": 0,
        "id": 5,
        "metadata": {
          "category": "Top promos"
        },
        "name": "New Nike Phantom",
        "type": "store"
      },
      "geometry": {
        "type": "Point",
        "coordinates": [-8.425162938144126, 43.3520880675666]
      }
    },
    {
      "type": "Feature",
      "id": 6,
      "properties": {
        "building_id": "city-mall",
        "floor": 1,
        "id": 6,
        "metadata": {
          "category": "ATM"
        },
        "name": "ATM",
        "type": "amenity"
      },
      "geometry": {
        "type": "Point",
        "coordinates": [-8.424725378049175, 43.352139112266286]
      }
    },
    {
      "type": "Feature",
      "id": 7,
      "properties": {
        "building_id": "city-mall",
        "floor": 1,
        "id": 7,
        "metadata": {
          "category": "Shops"
        },
        "name": "Sfera",
        "type": "store"
      },
      "geometry": {
        "type": "Point",
        "coordinates": [-8.42549397472766, 43.35191115016902]
      }
    },
    {
      "type": "Feature",
      "id": 8,
      "properties": {
        "building_id": "city-mall",
        "floor": -1,
        "id": 8,
        "metadata": {
          "category": "Parking"
        },
        "name": "Parking E4",
        "type": "amenity"
      },
      "geometry": {
        "type": "Point",
        "coordinates": [-8.4240995711626, 43.35187619049998]
      }
    },
    {
      "type": "Feature",
      "id": 9,
      "properties": {
        "building_id": "city-mall",
        "floor": 0,
        "id": 9,
        "metadata": {
          "category": "Cafe"
        },
        "name": "Winter Festival Cafe",
        "type": "restaurant"
      },
      "geometry": {
        "type": "Point",
        "coordinates": [-8.425697439220954, 43.35232537703476]
      }
    },
    {
      "type": "Feature",
      "id": 10,
      "properties": {
        "building_id": "city-mall",
        "floor": 1,
        "id": 10,
        "metadata": {
          "category": "Elevator"
        },
        "name": "Elevator",
        "type": "amenity"
      },
      "geometry": {
        "type": "Point",
        "coordinates": [-8.42587134368, 43.35229557856087]
      }
    },
    {
      "type": "Feature",
      "id": 11,
      "properties": {
        "building_id": "city-mall",
        "floor": 0,
        "id": 11,
        "metadata": {
          "category": "Elevator"
        },
        "name": "Elevator",
        "type": "amenity"
      },
      "geometry": {
        "type": "Point",
        "coordinates": [-8.425908272482022, 43.35229212515063]
      }
    },
    {
      "type": "Feature",
      "id": 12,
      "properties": {
        "building_id": "city-mall",
        "floor": 0,
        "id": 12,
        "metadata": {
          "category": "Stairs"
        },
        "name": "Stairs",
        "type": "amenity"
      },
      "geometry": {
        "type": "Point",
        "coordinates": [-8.42592413865998, 43.352254487756596]
      }
    },
    {
      "type": "Feature",
      "id": 13,
      "properties": {
        "building_id": "city-mall",
        "floor": 1,
        "id": 13,
        "metadata": {
          "category": "Stairs"
        },
        "name": "Stairs",
        "type": "amenity"
      },
      "geometry": {
        "type": "Point",
        "coordinates": [-8.425880244611648, 43.35225659591532]
      }
    },
    {
      "type": "Feature",
      "id": 14,
      "properties": {
        "building_id": "city-mall",
        "floor": 0,
        "id": 14,
        "metadata": {
          "category": "Scalator"
        },
        "name": "Scalator",
        "type": "amenity"
      },
      "geometry": {
        "type": "Point",
        "coordinates": [-8.42446462029285, 43.35212688887365]
      }
    },
    {
      "type": "Feature",
      "id": 15,
      "properties": {
        "building_id": "city-mall",
        "floor": 0,
        "id": 15,
        "metadata": {
          "category": "Shops"
        },
        "name": "Primark",
        "type": "store"
      },
      "geometry": {
        "type": "Point",
        "coordinates": [-8.424068768982181, 43.35148182227465]
      }
    },
    {
      "type": "Feature",
      "id": 16,
      "properties": {
        "building_id": "city-mall",
        "floor": 1,
        "id": 16,
        "metadata": {
          "category": "Shops"
        },
        "name": "Jack & Jones",
        "type": "store"
      },
      "geometry": {
        "type": "Point",
        "coordinates": [-8.423881376268573, 43.35189428475158]
      }
    },
    {
      "type": "Feature",
      "id": 17,
      "properties": {
        "building_id": "city-mall",
        "floor": 1,
        "id": 17,
        "metadata": {
          "category": "Shops"
        },
        "name": "Zara Home",
        "type": "store"
      },
      "geometry": {
        "type": "Point",
        "coordinates": [-8.423849189760395, 43.35201081935237]
      }
    },
    {
      "type": "Feature",
      "id": 18,
      "properties": {
        "building_id": "city-mall",
        "floor": 0,
        "id": 18,
        "metadata": {
          "category": "Taxi"
        },
        "name": "Taxi",
        "type": "amenity"
      },
      "geometry": {
        "type": "Point",
        "coordinates": [-8.424977799253261, 43.35154613999524]
      }
    },
    {
      "type": "Feature",
      "id": 19,
      "properties": {
        "building_id": "city-mall",
        "floor": 0,
        "id": 19,
        "metadata": {
          "category": "Shops"
        },
        "name": "Adidas",
        "type": "store"
      },
      "geometry": {
        "type": "Point",
        "coordinates": [-8.424979749234609, 43.352064418444115]
      }
    },
    {
      "type": "Feature",
      "id": 20,
      "properties": {
        "building_id": "city-mall",
        "floor": 0,
        "id": 20,
        "metadata": {
          "category": "Shops"
        },
        "name": "Orange",
        "type": "store"
      },
      "geometry": {
        "type": "Point",
        "coordinates": [-8.425501604949115, 43.35189616440024]
      }
    },
    {
      "type": "Feature",
      "id": 21,
      "properties": {
        "building_id": "city-mall",
        "floor": 1,
        "id": 21,
        "metadata": {
          "category": "Scalator"
        },
        "name": "Scalator",
        "type": "amenity"
      },
      "geometry": {
        "type": "Point",
        "coordinates": [-8.424466887119397, 43.35212474246607]
      }
    },
    {
      "type": "Feature",
      "id": 22,
      "properties": {
        "building_id": "city-mall",
        "floor": -1,
        "id": 22,
        "metadata": {
          "category": "Parking"
        },
        "name": "Parking C2",
        "type": "amenity"
      },
      "geometry": {
        "type": "Point",
        "coordinates": [-8.42540577620002, 43.35216791292226]
      }
    },
    {
      "type": "Feature",
      "id": 23,
      "properties": {
        "building_id": "city-mall",
        "floor": -1,
        "id": 23,
        "metadata": {
          "category": "Parking"
        },
        "name": "Parking B4",
        "type": "amenity"
      },
      "geometry": {
        "type": "Point",
        "coordinates": [-8.425337006673374, 43.35226283966378]
      }
    },
    {
      "type": "Feature",
      "id": 24,
      "properties": {
        "building_id": "city-mall",
        "floor": -1,
        "id": 24,
        "metadata": {
          "category": "Parking"
        },
        "name": "Parking A3",
        "type": "amenity"
      },
      "geometry": {
        "type": "Point",
        "coordinates": [-8.425909743781006, 43.35238620691749]
      }
    },
    {
      "type": "Feature",
      "id": 25,
      "properties": {
        "building_id": "city-mall",
        "floor": -1,
        "id": 25,
        "metadata": {
          "category": "Parking"
        },
        "name": "Parking A2",
        "type": "amenity"
      },
      "geometry": {
        "type": "Point",
        "coordinates": [-8.425885322592507, 43.352452213571524]
      }
    },
    {
      "type": "Feature",
      "id": 26,
      "properties": {
        "building_id": "city-mall",
        "floor": -1,
        "id": 26,
        "metadata": {
          "category": "Parking"
        },
        "name": "Parking F2",
        "type": "amenity"
      },
      "geometry": {
        "type": "Point",
        "coordinates": [-8.42391303781801, 43.351741164489]
      }
    },
    {
      "type": "Feature",
      "id": 27,
      "properties": {
        "building_id": "city-mall",
        "floor": -1,
        "id": 27,
        "metadata": {
          "category": "Scalator"
        },
        "name": "Stairs",
        "type": "amenity"
      },
      "geometry": {
        "type": "Point",
        "coordinates": [-8.425419892188074, 43.35238768127812]
      }
    },
    {
      "type": "Feature",
      "id": 28,
      "properties": {
        "building_id": "city-mall",
        "floor": 1,
        "id": 28,
        "metadata": {
          "category": "Scalator"
        },
        "name": "Scalator",
        "type": "amenity"
      },
      "geometry": {
        "type": "Point",
        "coordinates": [-8.425376155975446, 43.352382190014815]
      }
    },
    {
      "type": "Feature",
      "id": 29,
      "properties": {
        "building_id": "city-mall",
        "floor": 0,
        "id": 29,
        "metadata": {
          "category": "Leisure"
        },
        "name": "Winter Festival",
        "type": "amenity"
      },
      "geometry": {
        "type": "Point",
        "coordinates": [-8.425479956905292, 43.352104098424576]
      }
    },
    {
      "type": "Feature",
      "id": 30,
      "properties": {
        "building_id": "city-mall",
        "floor": 0,
        "id": 30,
        "metadata": {
          "category": "No category"
        },
        "name": "AT&T",
        "type": "amenity"
      },
      "geometry": {
        "type": "Point",
        "coordinates": [-8.425732218946337, 43.351925641379665]
      }
    },
    {
      "type": "Feature",
      "id": 31,
      "properties": {
        "building_id": "city-mall",
        "floor": 0,
        "id": 31,
        "metadata": {
          "category": "Shops"
        },
        "name": "Nike",
        "type": "store"
      },
      "geometry": {
        "type": "Point",
        "coordinates": [-8.42513989474117, 43.352090193183386]
      }
    },
    {
      "type": "Feature",
      "id": 32,
      "properties": {
        "building_id": "city-mall",
        "floor": 0,
        "id": 32,
        "metadata": {
          "category": "Shops"
        },
        "name": "Sony",
        "type": "store"
      },
      "geometry": {
        "type": "Point",
        "coordinates": [-8.425826588621447, 43.35251465935917]
      }
    },
    {
      "type": "Feature",
      "id": 33,
      "properties": {
        "building_id": "city-mall",
        "floor": 0,
        "id": 33,
        "metadata": {
          "category": "Scalator"
        },
        "name": "Scalator",
        "type": "amenity"
      },
      "geometry": {
        "type": "Point",
        "coordinates": [-8.425371313307059, 43.352390889057936]
      }
    },
    {
      "type": "Feature",
      "id": 34,
      "properties": {
        "building_id": "city-mall",
        "floor": 1,
        "id": 34,
        "metadata": {
          "category": "Scalator"
        },
        "name": "Scalator",
        "type": "amenity"
      },
      "geometry": {
        "type": "Point",
        "coordinates": [-8.424795457723722, 43.35197163867114]
      }
    },
    {
      "type": "Feature",
      "id": 35,
      "properties": {
        "building_id": "city-mall",
        "floor": -1,
        "id": 35,
        "metadata": {
          "category": "Parking"
        },
        "name": "Parking A1",
        "type": "amenity"
      },
      "geometry": {
        "type": "Point",
        "coordinates": [-8.425856925418515, 43.35254186050764]
      }
    },
    {
      "type": "Feature",
      "id": 36,
      "properties": {
        "building_id": "city-mall",
        "floor": 0,
        "id": 36,
        "metadata": {
          "category": "Shops"
        },
        "name": "Lottery",
        "type": "store"
      },
      "geometry": {
        "type": "Point",
        "coordinates": [-8.42431349627654, 43.35249908099823]
      }
    },
    {
      "type": "Feature",
      "id": 37,
      "properties": {
        "building_id": "city-mall",
        "floor": 1,
        "id": 37,
        "metadata": {
          "category": "Shops"
        },
        "name": "Calzedonia",
        "type": "store"
      },
      "geometry": {
        "type": "Point",
        "coordinates": [-8.424439946295925, 43.351609529806545]
      }
    },
    {
      "type": "Feature",
      "id": 38,
      "properties": {
        "building_id": "city-mall",
        "floor": 1,
        "id": 38,
        "metadata": {
          "category": "Shops"
        },
        "name": "Worten",
        "type": "store"
      },
      "geometry": {
        "type": "Point",
        "coordinates": [-8.425905326515013, 43.3525281522635]
      }
    },
    {
      "type": "Feature",
      "id": 39,
      "properties": {
        "building_id": "city-mall",
        "floor": 1,
        "id": 39,
        "metadata": {
          "category": "Shops"
        },
        "name": "Deichmann",
        "type": "store"
      },
      "geometry": {
        "type": "Point",
        "coordinates": [-8.425169060140425, 43.351861128422584]
      }
    },
    {
      "type": "Feature",
      "id": 40,
      "properties": {
        "building_id": "city-mall",
        "floor": 0,
        "id": 40,
        "metadata": {
          "category": "Shops"
        },
        "name": "Mango",
        "type": "store"
      },
      "geometry": {
        "type": "Point",
        "coordinates": [-8.423865448817452, 43.35187632822516]
      }
    },
    {
      "type": "Feature",
      "id": 41,
      "properties": {
        "building_id": "city-mall",
        "floor": 1,
        "id": 41,
        "metadata": {
          "category": "Restaurants"
        },
        "name": "Golden Fork",
        "type": "restaurant"
      },
      "geometry": {
        "type": "Point",
        "coordinates": [-8.42448560353776, 43.35181058260281]
      }
    },
    {
      "type": "Feature",
      "id": 42,
      "properties": {
        "building_id": "city-mall",
        "floor": 1,
        "id": 42,
        "metadata": {
          "category": "Cafe"
        },
        "name": "Lavazza",
        "type": "restaurant"
      },
      "geometry": {
        "type": "Point",
        "coordinates": [-8.424327787795448, 43.352003605306066]
      }
    },
    {
      "type": "Feature",
      "id": 43,
      "properties": {
        "building_id": "city-mall",
        "floor": 1,
        "id": 43,
        "metadata": {
          "category": "Shops"
        },
        "name": "H&M",
        "type": "store"
      },
      "geometry": {
        "type": "Point",
        "coordinates": [-8.42447191242465, 43.35225170192351]
      }
    },
    {
      "type": "Feature",
      "id": 44,
      "properties": {
        "building_id": "city-mall",
        "floor": 1,
        "id": 44,
        "metadata": {
          "category": "Shops"
        },
        "name": "O2",
        "type": "store"
      },
      "geometry": {
        "type": "Point",
        "coordinates": [-8.425540546088987, 43.35255740752731]
      }
    },
    {
      "type": "Feature",
      "id": 45,
      "properties": {
        "building_id": "city-mall",
        "floor": 1,
        "id": 45,
        "metadata": {
          "category": "Shops"
        },
        "name": "Deutsche Telekom",
        "type": "store"
      },
      "geometry": {
        "type": "Point",
        "coordinates": [-8.425710866361433, 43.351945969581216]
      }
    },
    {
      "type": "Feature",
      "id": 46,
      "properties": {
        "building_id": "city-mall",
        "floor": 1,
        "id": 46,
        "metadata": {
          "category": "Scalator"
        },
        "name": "Scalator",
        "type": "amenity"
      },
      "geometry": {
        "type": "Point",
        "coordinates": [-8.424112436142368, 43.35156472905194]
      }
    },
    {
      "type": "Feature",
      "id": 47,
      "properties": {
        "building_id": "city-mall",
        "floor": 0,
        "id": 47,
        "metadata": {
          "category": "Shops"
        },
        "name": "Pull&Bear",
        "type": "store"
      },
      "geometry": {
        "type": "Point",
        "coordinates": [-8.424677584609583, 43.35250138111826]
      }
    },
    {
      "type": "Feature",
      "id": 48,
      "properties": {
        "building_id": "city-mall",
        "floor": 1,
        "id": 48,
        "metadata": {
          "category": "Upcoming events"
        },
        "name": "Winter Festival Workshops for Kids",
        "type": "amenity"
      },
      "geometry": {
        "type": "Point",
        "coordinates": [-8.42568244664514, 43.35232869947279]
      }
    },
    {
      "type": "Feature",
      "id": 49,
      "properties": {
        "building_id": "city-mall",
        "floor": 1,
        "id": 49,
        "metadata": {
          "category": "Upcoming events"
        },
        "name": "Winter Festival Music Stage",
        "type": "amenity"
      },
      "geometry": {
        "type": "Point",
        "coordinates": [-8.425459559056208, 43.35227196114815]
      }
    },
    {
      "type": "Feature",
      "id": 50,
      "properties": {
        "building_id": "city-mall",
        "floor": 1,
        "id": 50,
        "metadata": {
          "category": "Upcoming events"
        },
        "name": "Winter Festival Store",
        "type": "amenity"
      },
      "geometry": {
        "type": "Point",
        "coordinates": [-8.425256051413584, 43.352490178918174]
      }
    },
    {
      "type": "Feature",
      "id": 51,
      "properties": {
        "building_id": "city-mall",
        "floor": 0,
        "id": 51,
        "metadata": {
          "category": "Scalator"
        },
        "name": "Scalator",
        "type": "amenity"
      },
      "geometry": {
        "type": "Point",
        "coordinates": [-8.424018703044124, 43.35198548729821]
      }
    },
    {
      "type": "Feature",
      "id": 52,
      "properties": {
        "building_id": "city-mall",
        "floor": 0,
        "id": 52,
        "metadata": {
          "category": "Shops"
        },
        "name": "Swatch",
        "type": "store"
      },
      "geometry": {
        "type": "Point",
        "coordinates": [-8.42458759987445, 43.351657997866376]
      }
    },
    {
      "type": "Feature",
      "id": 53,
      "properties": {
        "building_id": "city-mall",
        "floor": 0,
        "id": 53,
        "metadata": {
          "category": "Leisure"
        },
        "name": "Playground",
        "type": "amenity"
      },
      "geometry": {
        "type": "Point",
        "coordinates": [-8.425951917519162, 43.35277037013167]
      }
    },
    {
      "type": "Feature",
      "id": 54,
      "properties": {
        "building_id": "city-mall",
        "floor": 0,
        "id": 54,
        "metadata": {
          "category": "Shops"
        },
        "name": "Apple Store",
        "type": "store"
      },
      "geometry": {
        "type": "Point",
        "coordinates": [-8.425565779214255, 43.352623406986524]
      }
    },
    {
      "type": "Feature",
      "id": 55,
      "properties": {
        "building_id": "city-mall",
        "floor": 0,
        "id": 55,
        "metadata": {
          "category": "ATM"
        },
        "name": "ATM",
        "type": "amenity"
      },
      "geometry": {
        "type": "Point",
        "coordinates": [-8.424696160454772, 43.35197458921846]
      }
    },
    {
      "type": "Feature",
      "id": 56,
      "properties": {
        "building_id": "city-mall",
        "floor": -1,
        "id": 56,
        "metadata": {
          "category": "Parking"
        },
        "name": "Parking C1",
        "type": "amenity"
      },
      "geometry": {
        "type": "Point",
        "coordinates": [-8.425912983888082, 43.351912362699494]
      }
    },
    {
      "type": "Feature",
      "id": 57,
      "properties": {
        "building_id": "city-mall",
        "floor": 0,
        "id": 57,
        "metadata": {
          "category": "Cafe"
        },
        "name": "Juan Valdez",
        "type": "restaurant"
      },
      "geometry": {
        "type": "Point",
        "coordinates": [-8.424508752101298, 43.35177145667743]
      }
    },
    {
      "type": "Feature",
      "id": 58,
      "properties": {
        "building_id": "city-mall",
        "floor": 1,
        "id": 58,
        "metadata": {
          "category": "Shops"
        },
        "name": "Rosseman",
        "type": "store"
      },
      "geometry": {
        "type": "Point",
        "coordinates": [-8.42508548593429, 43.35241252009814]
      }
    },
    {
      "type": "Feature",
      "id": 59,
      "properties": {
        "building_id": "city-mall",
        "floor": -1,
        "id": 59,
        "metadata": {
          "category": "Parking"
        },
        "name": "Parking F1",
        "type": "amenity"
      },
      "geometry": {
        "type": "Point",
        "coordinates": [-8.42376824346124, 43.352147236741445]
      }
    },
    {
      "type": "Feature",
      "id": 60,
      "properties": {
        "building_id": "city-mall",
        "floor": -1,
        "id": 60,
        "metadata": {
          "category": "Parking"
        },
        "name": "Parking D4",
        "type": "amenity"
      },
      "geometry": {
        "type": "Point",
        "coordinates": [-8.425372999265392, 43.35180880819374]
      }
    },
    {
      "type": "Feature",
      "id": 61,
      "properties": {
        "building_id": "city-mall",
        "floor": -1,
        "id": 61,
        "metadata": {
          "category": "Parking"
        },
        "name": "Parking F3",
        "type": "amenity"
      },
      "geometry": {
        "type": "Point",
        "coordinates": [-8.424258017893095, 43.35152541358579]
      }
    },
    {
      "type": "Feature",
      "id": 62,
      "properties": {
        "building_id": "city-mall",
        "floor": -1,
        "id": 62,
        "metadata": {
          "category": "Parking"
        },
        "name": "Parking A4",
        "type": "amenity"
      },
      "geometry": {
        "type": "Point",
        "coordinates": [-8.425904909328494, 43.352078051302556]
      }
    },
    {
      "type": "Feature",
      "id": 63,
      "properties": {
        "building_id": "city-mall",
        "floor": -1,
        "id": 63,
        "metadata": {
          "category": "Parking"
        },
        "name": "Parking B1",
        "type": "amenity"
      },
      "geometry": {
        "type": "Point",
        "coordinates": [-8.425533711127258, 43.352652439572324]
      }
    },
    {
      "type": "Feature",
      "id": 64,
      "properties": {
        "building_id": "city-mall",
        "floor": -1,
        "id": 64,
        "metadata": {
          "category": "Parking"
        },
        "name": "Parking E2",
        "type": "amenity"
      },
      "geometry": {
        "type": "Point",
        "coordinates": [-8.42476778293181, 43.35163931511818]
      }
    },
    {
      "type": "Feature",
      "id": 65,
      "properties": {
        "building_id": "city-mall",
        "floor": -1,
        "id": 65,
        "metadata": {
          "category": "Parking"
        },
        "name": "Parking E1",
        "type": "amenity"
      },
      "geometry": {
        "type": "Point",
        "coordinates": [-8.424643154808678, 43.352295470618]
      }
    },
    {
      "type": "Feature",
      "id": 66,
      "properties": {
        "building_id": "city-mall",
        "floor": -1,
        "id": 66,
        "metadata": {
          "category": "Parking"
        },
        "name": "Parking B3",
        "type": "amenity"
      },
      "geometry": {
        "type": "Point",
        "coordinates": [-8.425087871151732, 43.352578632145594]
      }
    },
    {
      "type": "Feature",
      "id": 67,
      "properties": {
        "building_id": "city-mall",
        "floor": -1,
        "id": 67,
        "metadata": {
          "category": "Parking"
        },
        "name": "Parking E3",
        "type": "amenity"
      },
      "geometry": {
        "type": "Point",
        "coordinates": [-8.424487103349293, 43.35174470052186]
      }
    },
    {
      "type": "Feature",
      "id": 68,
      "properties": {
        "building_id": "city-mall",
        "floor": -1,
        "id": 68,
        "metadata": {
          "category": "Parking"
        },
        "name": "Parking C4",
        "type": "amenity"
      },
      "geometry": {
        "type": "Point",
        "coordinates": [-8.425487832359636, 43.35200893906776]
      }
    },
    {
      "type": "Feature",
      "id": 69,
      "properties": {
        "building_id": "city-mall",
        "floor": -1,
        "id": 69,
        "metadata": {
          "category": "Parking"
        },
        "name": "Parking D1",
        "type": "amenity"
      },
      "geometry": {
        "type": "Point",
        "coordinates": [-8.424316102549795, 43.352511612473165]
      }
    },
    {
      "type": "Feature",
      "id": 70,
      "properties": {
        "building_id": "city-mall",
        "floor": -1,
        "id": 70,
        "metadata": {
          "category": "Parking"
        },
        "name": "Parking D2",
        "type": "amenity"
      },
      "geometry": {
        "type": "Point",
        "coordinates": [-8.42406610406988, 43.35227446604401]
      }
    },
    {
      "type": "Feature",
      "id": 71,
      "properties": {
        "building_id": "city-mall",
        "floor": -1,
        "id": 71,
        "metadata": {
          "category": "Parking"
        },
        "name": "Parking B2",
        "type": "amenity"
      },
      "geometry": {
        "type": "Point",
        "coordinates": [-8.425313430825923, 43.352617336919195]
      }
    },
    {
      "type": "Feature",
      "id": 72,
      "properties": {
        "building_id": "city-mall",
        "floor": 1,
        "id": 72,
        "metadata": {
          "category": "Cafe"
        },
        "name": "Ben & Jerry's",
        "type": "restaurant"
      },
      "geometry": {
        "type": "Point",
        "coordinates": [-8.424183049875808, 43.351767525963226]
      }
    },
    {
      "type": "Feature",
      "id": 73,
      "properties": {
        "building_id": "city-mall",
        "floor": 0,
        "id": 73,
        "metadata": {
          "category": "Restaurants"
        },
        "name": "Winter Festival Restaurant",
        "type": "restaurant"
      },
      "geometry": {
        "type": "Point",
        "coordinates": [-8.425312334778019, 43.35222194632286]
      }
    },
    {
      "type": "Feature",
      "id": 74,
      "properties": {
        "building_id": "city-mall",
        "floor": 0,
        "id": 74,
        "metadata": {
          "category": "Scalator"
        },
        "name": "Scalator",
        "type": "amenity"
      },
      "geometry": {
        "type": "Point",
        "coordinates": [-8.424134708584019, 43.35162125482632]
      }
    },
    {
      "type": "Feature",
      "id": 75,
      "properties": {
        "building_id": "city-mall",
        "floor": 0,
        "id": 75,
        "metadata": {
          "category": "Information"
        },
        "name": "Kiosk",
        "type": "amenity"
      },
      "geometry": {
        "type": "Point",
        "coordinates": [-8.425671527241311, 43.35268222982774]
      }
    },
    {
      "type": "Feature",
      "id": 76,
      "properties": {
        "building_id": "city-mall",
        "floor": 1,
        "id": 76,
        "metadata": {
          "category": "Shops"
        },
        "name": "Lacoste",
        "type": "store"
      },
      "geometry": {
        "type": "Point",
        "coordinates": [-8.42499485575285, 43.352067518408795]
      }
    },
    {
      "type": "Feature",
      "id": 77,
      "properties": {
        "building_id": "city-mall",
        "floor": 0,
        "id": 77,
        "metadata": {
          "category": "Shops"
        },
        "name": "Winter Festival Shop",
        "type": "store"
      },
      "geometry": {
        "type": "Point",
        "coordinates": [-8.425349814073996, 43.352255486521955]
      }
    },
    {
      "type": "Feature",
      "id": 78,
      "properties": {
        "building_id": "city-mall",
        "floor": 1,
        "id": 78,
        "metadata": {
          "category": "Pharmacy"
        },
        "name": "Pharmacy",
        "type": "store"
      },
      "geometry": {
        "type": "Point",
        "coordinates": [-8.423976014506849, 43.351776970466176]
      }
    },
    {
      "type": "Feature",
      "id": 79,
      "properties": {
        "building_id": "city-mall",
        "floor": 0,
        "id": 79,
        "metadata": {
          "category": "Shops"
        },
        "name": "Mi Store",
        "type": "store"
      },
      "geometry": {
        "type": "Point",
        "coordinates": [-8.425239739738604, 43.352553665201675]
      }
    },
    {
      "type": "Feature",
      "id": 80,
      "properties": {
        "building_id": "city-mall",
        "floor": 0,
        "id": 80,
        "metadata": {
          "category": "Entrance"
        },
        "name": "Entrance (south)",
        "type": "amenity"
      },
      "geometry": {
        "type": "Point",
        "coordinates": [-8.424745847726939, 43.35154253610463]
      }
    },
    {
      "type": "Feature",
      "id": 81,
      "properties": {
        "building_id": "city-mall",
        "floor": 0,
        "id": 81,
        "metadata": {
          "category": "Shops"
        },
        "name": "MediaMarkt",
        "type": "store"
      },
      "geometry": {
        "type": "Point",
        "coordinates": [-8.426044880648817, 43.35198399131954]
      }
    },
    {
      "type": "Feature",
      "id": 82,
      "properties": {
        "building_id": "city-mall",
        "floor": 0,
        "id": 82,
        "metadata": {
          "category": "Shops"
        },
        "name": "Victoria's secret",
        "type": "store"
      },
      "geometry": {
        "type": "Point",
        "coordinates": [-8.423904252819824, 43.351737863339025]
      }
    },
    {
      "type": "Feature",
      "id": 83,
      "properties": {
        "building_id": "city-mall",
        "floor": 1,
        "id": 83,
        "metadata": {
          "category": "Food & beverage"
        },
        "name": "Domino's Pizza",
        "type": "amenity"
      },
      "geometry": {
        "type": "Point",
        "coordinates": [-8.425550775776781, 43.35213834375199]
      }
    },
    {
      "type": "Feature",
      "id": 84,
      "properties": {
        "building_id": "city-mall",
        "floor": -1,
        "id": 84,
        "metadata": {
          "category": "Scalator"
        },
        "name": "Scalator",
        "type": "amenity"
      },
      "geometry": {
        "type": "Point",
        "coordinates": [-8.423975371387172, 43.35204665802189]
      }
    },
    {
      "type": "Feature",
      "id": 85,
      "properties": {
        "building_id": "city-mall",
        "floor": 0,
        "id": 85,
        "metadata": {
          "category": "WC"
        },
        "name": "WC",
        "type": "amenity"
      },
      "geometry": {
        "type": "Point",
        "coordinates": [-8.425931506353834, 43.35221759506149]
      }
    },
    {
      "type": "Feature",
      "id": 86,
      "properties": {
        "building_id": "city-mall",
        "floor": 0,
        "id": 86,
        "metadata": {
          "category": "Shops"
        },
        "name": "Vodafone",
        "type": "store"
      },
      "geometry": {
        "type": "Point",
        "coordinates": [-8.425885949794662, 43.35238038627156]
      }
    },
    {
      "type": "Feature",
      "id": 87,
      "properties": {
        "building_id": "city-mall",
        "floor": 1,
        "id": 87,
        "metadata": {
          "category": "Shops"
        },
        "name": "Oysho",
        "type": "store"
      },
      "geometry": {
        "type": "Point",
        "coordinates": [-8.424236806806107, 43.35161165447275]
      }
    },
    {
      "type": "Feature",
      "id": 88,
      "properties": {
        "building_id": "city-mall",
        "floor": 1,
        "id": 88,
        "metadata": {
          "category": "Shops"
        },
        "name": "GAP",
        "type": "store"
      },
      "geometry": {
        "type": "Point",
        "coordinates": [-8.424622127082529, 43.3516589459318]
      }
    },
    {
      "type": "Feature",
      "id": 89,
      "properties": {
        "building_id": "city-mall",
        "floor": 1,
        "id": 89,
        "metadata": {
          "category": "Shops"
        },
        "name": "Decathlon",
        "type": "store"
      },
      "geometry": {
        "type": "Point",
        "coordinates": [-8.424780397317221, 43.35226045794184]
      }
    },
    {
      "type": "Feature",
      "id": 90,
      "properties": {
        "building_id": "city-mall",
        "floor": 1,
        "id": 90,
        "metadata": {
          "category": "Shops"
        },
        "name": "Tous",
        "type": "store"
      },
      "geometry": {
        "type": "Point",
        "coordinates": [-8.424908611071743, 43.3517556022116]
      }
    },
    {
      "type": "Feature",
      "id": 91,
      "properties": {
        "building_id": "city-mall",
        "floor": 1,
        "id": 91,
        "metadata": {
          "category": "Shops"
        },
        "name": "AT&T",
        "type": "store"
      },
      "geometry": {
        "type": "Point",
        "coordinates": [-8.425886949576864, 43.352105460658265]
      }
    },
    {
      "type": "Feature",
      "id": 92,
      "properties": {
        "building_id": "city-mall",
        "floor": 1,
        "id": 92,
        "metadata": {
          "category": "Shops"
        },
        "name": "C&A",
        "type": "store"
      },
      "geometry": {
        "type": "Point",
        "coordinates": [-8.424055845284755, 43.351609930809445]
      }
    },
    {
      "type": "Feature",
      "id": 93,
      "properties": {
        "building_id": "city-mall",
        "floor": 0,
        "id": 93,
        "metadata": {
          "category": "Facility and services"
        },
        "name": "Extinguisher",
        "type": "amenity"
      },
      "geometry": {
        "type": "Point",
        "coordinates": [-8.424732892133306, 43.352145493538046]
      }
    },
    {
      "type": "Feature",
      "id": 94,
      "properties": {
        "building_id": "city-mall",
        "floor": 0,
        "id": 94,
        "metadata": {
          "category": "Restaurants"
        },
        "name": "McCafe",
        "type": "restaurant"
      },
      "geometry": {
        "type": "Point",
        "coordinates": [-8.424466965331614, 43.352013136412815]
      }
    },
    {
      "type": "Feature",
      "id": 95,
      "properties": {
        "building_id": "city-mall",
        "floor": 0,
        "id": 95,
        "metadata": {
          "category": "Shops"
        },
        "name": "Carrefour",
        "type": "store"
      },
      "geometry": {
        "type": "Point",
        "coordinates": [-8.423897721881737, 43.3522783313426]
      }
    },
    {
      "type": "Feature",
      "id": 96,
      "properties": {
        "building_id": "city-mall",
        "floor": 0,
        "id": 96,
        "metadata": {
          "category": "Shops"
        },
        "name": "Women's secret",
        "type": "store"
      },
      "geometry": {
        "type": "Point",
        "coordinates": [-8.423945560009571, 43.351583211336816]
      }
    },
    {
      "type": "Feature",
      "id": 97,
      "properties": {
        "building_id": "city-mall",
        "floor": 0,
        "id": 97,
        "metadata": {
          "category": "Shops"
        },
        "name": "Swarovski",
        "type": "store"
      },
      "geometry": {
        "type": "Point",
        "coordinates": [-8.424416706920653, 43.35163079399135]
      }
    },
    {
      "type": "Feature",
      "id": 98,
      "properties": {
        "building_id": "city-mall",
        "floor": 0,
        "id": 98,
        "metadata": {
          "category": "Shops"
        },
        "name": "Levi's",
        "type": "store"
      },
      "geometry": {
        "type": "Point",
        "coordinates": [-8.424234475654885, 43.3515733180534]
      }
    },
    {
      "type": "Feature",
      "id": 99,
      "properties": {
        "building_id": "city-mall",
        "floor": 0,
        "id": 99,
        "metadata": {
          "category": "Shops"
        },
        "name": "ING",
        "type": "store"
      },
      "geometry": {
        "type": "Point",
        "coordinates": [-8.424552595182064, 43.35254322423623]
      }
    },
    {
      "type": "Feature",
      "id": 100,
      "properties": {
        "building_id": "city-mall",
        "floor": 0,
        "id": 100,
        "metadata": {
          "category": "Cafe"
        },
        "name": "Mc Cafe",
        "type": "restaurant"
      },
      "geometry": {
        "type": "Point",
        "coordinates": [-8.424599036129232, 43.3519267180832]
      }
    },
    {
      "type": "Feature",
      "id": 101,
      "properties": {
        "building_id": "city-mall",
        "floor": 0,
        "id": 101,
        "metadata": {
          "category": "Top promos"
        },
        "name": "Starbucks Happy Hour!",
        "type": "store"
      },
      "geometry": {
        "type": "Point",
        "coordinates": [-8.424278244144116, 43.35168975023899]
      }
    },
    {
      "type": "Feature",
      "id": 102,
      "properties": {
        "building_id": "city-mall",
        "floor": 0,
        "id": 102,
        "metadata": {
          "category": "Food & beverage"
        },
        "name": "Pizza Hut",
        "type": "amenity"
      },
      "geometry": {
        "type": "Point",
        "coordinates": [-8.424184014542536, 43.35195253196949]
      }
    },
    {
      "type": "Feature",
      "id": 103,
      "properties": {
        "building_id": "city-mall",
        "floor": 1,
        "id": 103,
        "metadata": {
          "category": "Shops"
        },
        "name": "Generic Shop",
        "type": "store"
      },
      "geometry": {
        "type": "Point",
        "coordinates": [-8.425180600310398, 43.35207978376653]
      }
    },
    {
      "type": "Feature",
      "id": 104,
      "properties": {
        "building_id": "city-mall",
        "floor": 1,
        "id": 104,
        "metadata": {
          "category": "Shops"
        },
        "name": "Maisons du Monde",
        "type": "store"
      },
      "geometry": {
        "type": "Point",
        "coordinates": [-8.424806877255719, 43.35239604028496]
      }
    },
    {
      "type": "Feature",
      "id": 105,
      "properties": {
        "building_id": "city-mall",
        "floor": 0,
        "id": 105,
        "metadata": {
          "category": "Shops"
        },
        "name": "Zara Man",
        "type": "store"
      },
      "geometry": {
        "type": "Point",
        "coordinates": [-8.425312849101422, 43.351862528711194]
      }
    },
    {
      "type": "Feature",
      "id": 106,
      "properties": {
        "building_id": "city-mall",
        "floor": 0,
        "id": 106,
        "metadata": {
          "category": "Information"
        },
        "name": "Information",
        "type": "amenity"
      },
      "geometry": {
        "type": "Point",
        "coordinates": [-8.424816395050854, 43.351939793497486]
      }
    },
    {
      "type": "Feature",
      "id": 107,
      "properties": {
        "building_id": "city-mall",
        "floor": 0,
        "id": 107,
        "metadata": {
          "category": "Information"
        },
        "name": "Kiosk",
        "type": "amenity"
      },
      "geometry": {
        "type": "Point",
        "coordinates": [-8.424738505699139, 43.35193721170654]
      }
    },
    {
      "type": "Feature",
      "id": 108,
      "properties": {
        "building_id": "city-mall",
        "floor": 0,
        "id": 108,
        "metadata": {
          "category": "Shops"
        },
        "name": "Bershka",
        "type": "store"
      },
      "geometry": {
        "type": "Point",
        "coordinates": [-8.424783988273106, 43.352255868940176]
      }
    },
    {
      "type": "Feature",
      "id": 109,
      "properties": {
        "building_id": "city-mall",
        "floor": 0,
        "id": 109,
        "metadata": {
          "category": "Shops"
        },
        "name": "Nespresso",
        "type": "store"
      },
      "geometry": {
        "type": "Point",
        "coordinates": [-8.424504676237984, 43.35190189806136]
      }
    },
    {
      "type": "Feature",
      "id": 110,
      "properties": {
        "building_id": "city-mall",
        "floor": 0,
        "id": 110,
        "metadata": {
          "category": "Shops"
        },
        "name": "Amazon 4 Star",
        "type": "store"
      },
      "geometry": {
        "type": "Point",
        "coordinates": [-8.423831750220122, 43.35201586687606]
      }
    },
    {
      "type": "Feature",
      "id": 111,
      "properties": {
        "building_id": "city-mall",
        "floor": 0,
        "id": 111,
        "metadata": {
          "category": "Shops"
        },
        "name": "Zara",
        "type": "store"
      },
      "geometry": {
        "type": "Point",
        "coordinates": [-8.424554982229203, 43.352246697887]
      }
    },
    {
      "type": "Feature",
      "id": 112,
      "properties": {
        "building_id": "city-mall",
        "floor": 0,
        "id": 112,
        "metadata": {
          "category": "Bus"
        },
        "name": "Bus Stop",
        "type": "amenity"
      },
      "geometry": {
        "type": "Point",
        "coordinates": [-8.425493371795758, 43.35166006805941]
      }
    },
    {
      "type": "Feature",
      "id": 113,
      "properties": {
        "building_id": "city-mall",
        "floor": 0,
        "id": 113,
        "metadata": {
          "category": "Entrance and Exit"
        },
        "name": "Entrance (north)",
        "type": "amenity"
      },
      "geometry": {
        "type": "Point",
        "coordinates": [-8.425369548071352, 43.35279043504535]
      }
    },
    {
      "type": "Feature",
      "id": 114,
      "properties": {
        "building_id": "city-mall",
        "floor": 0,
        "id": 114,
        "metadata": {
          "category": "Elevator"
        },
        "name": "Elevator",
        "type": "amenity"
      },
      "geometry": {
        "type": "Point",
        "coordinates": [-8.424647679424904, 43.35206184373381]
      }
    },
    {
      "type": "Feature",
      "id": 115,
      "properties": {
        "building_id": "city-mall",
        "floor": 0,
        "id": 115,
        "metadata": {
          "category": "Shops"
        },
        "name": "Hollister",
        "type": "store"
      },
      "geometry": {
        "type": "Point",
        "coordinates": [-8.42516214246729, 43.351844351263196]
      }
    },
    {
      "type": "Feature",
      "id": 116,
      "properties": {
        "building_id": "city-mall",
        "floor": 0,
        "id": 116,
        "metadata": {
          "category": "Pharmacy"
        },
        "name": "Pharmacy",
        "type": "store"
      },
      "geometry": {
        "type": "Point",
        "coordinates": [-8.424886630588054, 43.351718132077394]
      }
    },
    {
      "type": "Feature",
      "id": 117,
      "properties": {
        "building_id": "city-mall",
        "floor": 0,
        "id": 117,
        "metadata": {
          "category": "No category"
        },
        "name": "Digital Stand",
        "type": "amenity"
      },
      "geometry": {
        "type": "Point",
        "coordinates": [-8.425627170804463, 43.35243130739143]
      }
    },
    {
      "type": "Feature",
      "id": 118,
      "properties": {
        "building_id": "city-mall",
        "floor": 0,
        "id": 118,
        "metadata": {
          "category": "Leisure"
        },
        "name": "Gym & Wealth",
        "type": "amenity"
      },
      "geometry": {
        "type": "Point",
        "coordinates": [-8.425100946366967, 43.35235323174845]
      }
    },
    {
      "type": "Feature",
      "id": 119,
      "properties": {
        "building_id": "city-mall",
        "floor": 0,
        "id": 119,
        "metadata": {
          "category": "Cafe"
        },
        "name": "Starbucks",
        "type": "restaurant"
      },
      "geometry": {
        "type": "Point",
        "coordinates": [-8.424171968708984, 43.351727300659824]
      }
    },
    {
      "type": "Feature",
      "id": 120,
      "properties": {
        "building_id": "city-mall",
        "floor": 1,
        "id": 120,
        "metadata": {
          "category": "Leisure"
        },
        "name": "Cinema",
        "type": "amenity"
      },
      "geometry": {
        "type": "Point",
        "coordinates": [-8.424258216147791, 43.35231602288661]
      }
    }
  ]
}
