{
  "type": "FeatureCollection",
  "features": [
    {
      "type": "Feature",
      "id": 2110,
      "properties": {
        "name": "11-130",
        "alt_name": "Storage",
        "category": "Storage",
        "restriction": null,
        "accessibility": null,
        "display_point": "[-122.81469884447324,53.89134534802857]",
        "feature_type": "unit",
        "level_id": 1,
        "floor": 1,
        "show": "true",
        "area": 6.732079782523215e-9,
        "campus_id": "unbc-prince-george",
        "building_id": "unbc-11-efl",
        "building_code": "11",
        "building_name": "Enhanced Forestry Laboratory",
        "building_source": "room_number",
        "room_number": "11-130",
        "raw_room_number": "11-130",
        "room_use": "Storage",
        "floor_source": "room_number",
        "layout_name": null,
        "layout_zone": null,
        "source_layout_floor": null,
        "source_layout_floor_candidates": [],
        "source_layer": "1_Wall_Exist",
        "source_block": "room_data",
        "source_entity": "LWPOLYLINE",
        "basement_series": null,
        "match_mode": null
      },
      "geometry": {
        "type": "Polygon",
        "coordinates": [
          [
            [
              -122.81475430605893,
              53.89130962629312
            ],
            [
              -122.81464335781395,
              53.89130962629312
            ],
            [
              -122.81464335781395,
              53.89137031623719
            ],
            [
              -122.81475430605893,
              53.89137031623719
            ],
            [
              -122.81475430605893,
              53.89130962629312
            ]
          ]
        ]
      }
    },
    {
      "type": "Feature",
      "id": 2199,
      "properties": {
        "level_id": 0,
        "source_layer": "1_Wall_Exist",
        "source_entity": "INSERT",
        "feature_type": "door",
        "name": "Y_DOR1_0"
      },
      "geometry": {
        "type": "Point",
        "coordinates": [
          -122.81279142155388,
          53.893319845744806
        ]
      }
    },
    {
      "type": "Feature",
      "id": 2200,
      "properties": {
        "level_id": 0,
        "source_layer": "1_Wall_Exist",
        "source_entity": "INSERT",
        "feature_type": "door",
        "name": "Y_DOR1_0"
      },
      "geometry": {
        "type": "Point",
        "coordinates": [
          -122.81487559203195,
          53.89327246744486
        ]
      }
    },
    {
      "type": "Feature",
      "id": 2201,
      "properties": {
        "level_id": 0,
        "source_layer": "1_Wall_Exist",
        "source_entity": "INSERT",
        "feature_type": "door",
        "name": "Y_DOR1_0"
      },
      "geometry": {
        "type": "Point",
        "coordinates": [
          -122.81500760242531,
          53.8932303194933
        ]
      }
    },
    {
      "type": "Feature",
      "id": 2202,
      "properties": {
        "level_id": 0,
        "source_layer": "1_Wall_Exist",
        "source_entity": "INSERT",
        "feature_type": "door",
        "name": "Y_DOR1_1"
      },
      "geometry": {
        "type": "Point",
        "coordinates": [
          -122.81500760242531,
          53.89323410514803
        ]
      }
    },
    {
      "type": "Feature",
      "id": 2203,
      "properties": {
        "level_id": 0,
        "source_layer": "1_Wall_Exist",
        "source_entity": "INSERT",
        "feature_type": "door",
        "name": "Y_DOR1_0"
      },
      "geometry": {
        "type": "Point",
        "coordinates": [
          -122.81490484334746,
          53.893286818585665
        ]
      }
    },
    {
      "type": "Feature",
      "id": 2204,
      "properties": {
        "level_id": 0,
        "source_layer": "1_Wall_Exist",
        "source_entity": "INSERT",
        "feature_type": "door",
        "name": "Y_DOR1_0"
      },
      "geometry": {
        "type": "Point",
        "coordinates": [
          -122.81502177398879,
          53.893272706381644
        ]
      }
    },
    {
      "type": "Feature",
      "id": 2205,
      "properties": {
        "level_id": 0,
        "source_layer": "1_Wall_Exist",
        "source_entity": "INSERT",
        "feature_type": "door",
        "name": "Y_DOR1_0"
      },
      "geometry": {
        "type": "Point",
        "coordinates": [
          -122.81496125567398,
          53.89328653484824
        ]
      }
    },
    {
      "type": "Feature",
      "id": 2206,
      "properties": {
        "level_id": 0,
        "source_layer": "1_Wall_Exist",
        "source_entity": "INSERT",
        "feature_type": "window",
        "name": "WIN-MULLION"
      },
      "geometry": {
        "type": "Point",
        "coordinates": [
          -122.8124505869437,
          53.893232670155605
        ]
      }
    },
    {
      "type": "Feature",
      "id": 2207,
      "properties": {
        "level_id": 0,
        "source_layer": "1_Wall_Exist",
        "source_entity": "INSERT",
        "feature_type": "window",
        "name": "WIN-MULLION"
      },
      "geometry": {
        "type": "Point",
        "coordinates": [
          -122.8124505869437,
          53.89322356069057
        ]
      }
    },
    {
      "type": "Feature",
      "id": 2208,
      "properties": {
        "level_id": 0,
        "source_layer": "1_Wall_Exist",
        "source_entity": "INSERT",
        "feature_type": "window",
        "name": "WIN-MULLION"
      },
      "geometry": {
        "type": "Point",
        "coordinates": [
          -122.81247754139757,
          53.89323269504485
        ]
      }
    },
    {
      "type": "Feature",
      "id": 2209,
      "properties": {
        "level_id": 0,
        "source_layer": "1_Wall_Exist",
        "source_entity": "INSERT",
        "feature_type": "window",
        "name": "WIN-MULLION"
      },
      "geometry": {
        "type": "Point",
        "coordinates": [
          -122.81247754139757,
          53.893223585579825
        ]
      }
    },
    {
      "type": "Feature",
      "id": 2210,
      "properties": {
        "level_id": 0,
        "source_layer": "1_Wall_Exist",
        "source_entity": "INSERT",
        "feature_type": "window",
        "name": "WIN-MULLION"
      },
      "geometry": {
        "type": "Point",
        "coordinates": [
          -122.81247754139757,
          53.893252281888024
        ]
      }
    },
    {
      "type": "Feature",
      "id": 2211,
      "properties": {
        "level_id": 0,
        "source_layer": "1_Wall_Exist",
        "source_entity": "INSERT",
        "feature_type": "window",
        "name": "WIN-MULLION"
      },
      "geometry": {
        "type": "Point",
        "coordinates": [
          -122.81245054144327,
          53.89321776149562
        ]
      }
    },
    {
      "type": "Feature",
      "id": 2212,
      "properties": {
        "level_id": 0,
        "source_layer": "1_Wall_Exist",
        "source_entity": "INSERT",
        "feature_type": "window",
        "name": "WIN-MULLION"
      },
      "geometry": {
        "type": "Point",
        "coordinates": [
          -122.81245054144327,
          53.893208652030594
        ]
      }
    },
    {
      "type": "Feature",
      "id": 2213,
      "properties": {
        "level_id": 0,
        "source_layer": "1_Wall_Exist",
        "source_entity": "INSERT",
        "feature_type": "window",
        "name": "WIN-MULLION"
      },
      "geometry": {
        "type": "Point",
        "coordinates": [
          -122.81245054144327,
          53.893202827946396
        ]
      }
    },
    {
      "type": "Feature",
      "id": 2214,
      "properties": {
        "level_id": 0,
        "source_layer": "1_Wall_Exist",
        "source_entity": "INSERT",
        "feature_type": "window",
        "name": "WIN-MULLION"
      },
      "geometry": {
        "type": "Point",
        "coordinates": [
          -122.81245054144327,
          53.89319371848136
        ]
      }
    },
    {
      "type": "Feature",
      "id": 2215,
      "properties": {
        "level_id": 0,
        "source_layer": "1_Wall_Exist",
        "source_entity": "INSERT",
        "feature_type": "window",
        "name": "WIN-MULLION"
      },
      "geometry": {
        "type": "Point",
        "coordinates": [
          -122.81245054144327,
          53.893187894397165
        ]
      }
    },
    {
      "type": "Feature",
      "id": 2216,
      "properties": {
        "level_id": 0,
        "source_layer": "1_Wall_Exist",
        "source_entity": "INSERT",
        "feature_type": "window",
        "name": "WIN-MULLION"
      },
      "geometry": {
        "type": "Point",
        "coordinates": [
          -122.81245054144327,
          53.89317878493213
        ]
      }
    },
    {
      "type": "Feature",
      "id": 2217,
      "properties": {
        "level_id": 0,
        "source_layer": "1_Wall_Exist",
        "source_entity": "INSERT",
        "feature_type": "window",
        "name": "WIN-MULLION"
      },
      "geometry": {
        "type": "Point",
        "coordinates": [
          -122.81245054144327,
          53.893172960847934
        ]
      }
    },
    {
      "type": "Feature",
      "id": 2218,
      "properties": {
        "level_id": 0,
        "source_layer": "1_Wall_Exist",
        "source_entity": "INSERT",
        "feature_type": "window",
        "name": "WIN-MULLION"
      },
      "geometry": {
        "type": "Point",
        "coordinates": [
          -122.81245054144327,
          53.893167792346546
        ]
      }
    },
    {
      "type": "Feature",
      "id": 2219,
      "properties": {
        "level_id": 0,
        "source_layer": "1_Wall_Exist",
        "source_entity": "INSERT",
        "feature_type": "window",
        "name": "WIN-MULLION"
      },
      "geometry": {
        "type": "Point",
        "coordinates": [
          -122.81245054144327,
          53.89324762859408
        ]
      }
    },
    {
      "type": "Feature",
      "id": 2220,
      "properties": {
        "level_id": 0,
        "source_layer": "1_Wall_Exist",
        "source_entity": "INSERT",
        "feature_type": "window",
        "name": "WIN-MULLION"
      },
      "geometry": {
        "type": "Point",
        "coordinates": [
          -122.81245054144327,
          53.89323851912905
        ]
      }
    },
    {
      "type": "Feature",
      "id": 2221,
      "properties": {
        "level_id": 0,
        "source_layer": "1_Wall_Exist",
        "source_entity": "INSERT",
        "feature_type": "window",
        "name": "WIN-MULLION"
      },
      "geometry": {
        "type": "Point",
        "coordinates": [
          -122.81245054144327,
          53.893252281888024
        ]
      }
    },
    {
      "type": "Feature",
      "id": 2222,
      "properties": {
        "level_id": 0,
        "source_layer": "1_Wall_Exist",
        "source_entity": "INSERT",
        "feature_type": "window",
        "name": "WIN-MULLION"
      },
      "geometry": {
        "type": "Point",
        "coordinates": [
          -122.81247754139757,
          53.89324762859408
        ]
      }
    },
    {
      "type": "Feature",
      "id": 2223,
      "properties": {
        "level_id": 0,
        "source_layer": "1_Wall_Exist",
        "source_entity": "INSERT",
        "feature_type": "window",
        "name": "WIN-MULLION"
      },
      "geometry": {
        "type": "Point",
        "coordinates": [
          -122.81247754139757,
          53.89323851912905
        ]
      }
    },
    {
      "type": "Feature",
      "id": 2224,
      "properties": {
        "level_id": 0,
        "source_layer": "1_Wall_Exist",
        "source_entity": "INSERT",
        "feature_type": "window",
        "name": "WIN-MULLION"
      },
      "geometry": {
        "type": "Point",
        "coordinates": [
          -122.81247754139757,
          53.89321776149562
        ]
      }
    },
    {
      "type": "Feature",
      "id": 2225,
      "properties": {
        "level_id": 0,
        "source_layer": "1_Wall_Exist",
        "source_entity": "INSERT",
        "feature_type": "window",
        "name": "WIN-MULLION"
      },
      "geometry": {
        "type": "Point",
        "coordinates": [
          -122.81247754139757,
          53.893208652030594
        ]
      }
    },
    {
      "type": "Feature",
      "id": 2226,
      "properties": {
        "level_id": 0,
        "source_layer": "1_Wall_Exist",
        "source_entity": "INSERT",
        "feature_type": "window",
        "name": "WIN-MULLION"
      },
      "geometry": {
        "type": "Point",
        "coordinates": [
          -122.81247754139757,
          53.893202827946396
        ]
      }
    },
    {
      "type": "Feature",
      "id": 2227,
      "properties": {
        "level_id": 0,
        "source_layer": "1_Wall_Exist",
        "source_entity": "INSERT",
        "feature_type": "window",
        "name": "WIN-MULLION"
      },
      "geometry": {
        "type": "Point",
        "coordinates": [
          -122.81247754139757,
          53.89319371848136
        ]
      }
    },
    {
      "type": "Feature",
      "id": 2228,
      "properties": {
        "level_id": 0,
        "source_layer": "1_Wall_Exist",
        "source_entity": "INSERT",
        "feature_type": "window",
        "name": "WIN-MULLION"
      },
      "geometry": {
        "type": "Point",
        "coordinates": [
          -122.81247754139757,
          53.893187894397165
        ]
      }
    },
    {
      "type": "Feature",
      "id": 2229,
      "properties": {
        "level_id": 0,
        "source_layer": "1_Wall_Exist",
        "source_entity": "INSERT",
        "feature_type": "window",
        "name": "WIN-MULLION"
      },
      "geometry": {
        "type": "Point",
        "coordinates": [
          -122.81247754139757,
          53.89317878493213
        ]
      }
    },
    {
      "type": "Feature",
      "id": 2230,
      "properties": {
        "level_id": 0,
        "source_layer": "1_Wall_Exist",
        "source_entity": "INSERT",
        "feature_type": "window",
        "name": "WIN-MULLION"
      },
      "geometry": {
        "type": "Point",
        "coordinates": [
          -122.81247754139757,
          53.893172960847934
        ]
      }
    },
    {
      "type": "Feature",
      "id": 2231,
      "properties": {
        "level_id": 0,
        "source_layer": "1_Wall_Exist",
        "source_entity": "INSERT",
        "feature_type": "window",
        "name": "WIN-MULLION"
      },
      "geometry": {
        "type": "Point",
        "coordinates": [
          -122.81247754139757,
          53.89316385138291
        ]
      }
    },
    {
      "type": "Feature",
      "id": 2232,
      "properties": {
        "level_id": 0,
        "source_layer": "1_Wall_Exist",
        "source_entity": "INSERT",
        "feature_type": "window",
        "name": "WIN-MULLION"
      },
      "geometry": {
        "type": "Point",
        "coordinates": [
          -122.81247754139757,
          53.8931580272987
        ]
      }
    },
    {
      "type": "Feature",
      "id": 2233,
      "properties": {
        "level_id": 0,
        "source_layer": "1_Wall_Exist",
        "source_entity": "INSERT",
        "feature_type": "window",
        "name": "WIN-MULLION"
      },
      "geometry": {
        "type": "Point",
        "coordinates": [
          -122.81247754139757,
          53.89314891783368
        ]
      }
    },
    {
      "type": "Feature",
      "id": 2234,
      "properties": {
        "level_id": 0,
        "source_layer": "1_Wall_Exist",
        "source_entity": "INSERT",
        "feature_type": "window",
        "name": "WIN-MULLION"
      },
      "geometry": {
        "type": "Point",
        "coordinates": [
          -122.81247754139757,
          53.89314309374948
        ]
      }
    },
    {
      "type": "Feature",
      "id": 2235,
      "properties": {
        "level_id": 0,
        "source_layer": "1_Wall_Exist",
        "source_entity": "INSERT",
        "feature_type": "window",
        "name": "WIN-MULLION"
      },
      "geometry": {
        "type": "Point",
        "coordinates": [
          -122.81245384477438,
          53.893134538319124
        ]
      }
    },
    {
      "type": "Feature",
      "id": 2236,
      "properties": {
        "level_id": 0,
        "source_layer": "1_Wall_Exist",
        "source_entity": "INSERT",
        "feature_type": "door",
        "name": "1200-DOOR"
      },
      "geometry": {
        "type": "Point",
        "coordinates": [
          -122.81244996176781,
          53.89314040123055
        ]
      }
    },
    {
      "type": "Feature",
      "id": 2237,
      "properties": {
        "level_id": 0,
        "source_layer": "1_Wall_Exist",
        "source_entity": "INSERT",
        "feature_type": "window",
        "name": "WIN-MULLION"
      },
      "geometry": {
        "type": "Point",
        "coordinates": [
          -122.8136100830304,
          53.893228938383245
        ]
      }
    },
    {
      "type": "Feature",
      "id": 2238,
      "properties": {
        "level_id": 0,
        "source_layer": "1_Wall_Exist",
        "source_entity": "INSERT",
        "feature_type": "window",
        "name": "WIN-MULLION"
      },
      "geometry": {
        "type": "Point",
        "coordinates": [
          -122.8135830830761,
          53.89319441799085
        ]
      }
    },
    {
      "type": "Feature",
      "id": 2239,
      "properties": {
        "level_id": 0,
        "source_layer": "1_Wall_Exist",
        "source_entity": "INSERT",
        "feature_type": "window",
        "name": "WIN-MULLION"
      },
      "geometry": {
        "type": "Point",
        "coordinates": [
          -122.8135830830761,
          53.893185308525815
        ]
      }
    },
    {
      "type": "Feature",
      "id": 2240,
      "properties": {
        "level_id": 0,
        "source_layer": "1_Wall_Exist",
        "source_entity": "INSERT",
        "feature_type": "window",
        "name": "WIN-MULLION"
      },
      "geometry": {
        "type": "Point",
        "coordinates": [
          -122.8135830830761,
          53.89317948444162
        ]
      }
    },
    {
      "type": "Feature",
      "id": 2241,
      "properties": {
        "level_id": 0,
        "source_layer": "1_Wall_Exist",
        "source_entity": "INSERT",
        "feature_type": "window",
        "name": "WIN-MULLION"
      },
      "geometry": {
        "type": "Point",
        "coordinates": [
          -122.8135830830761,
          53.893170374976584
        ]
      }
    },
    {
      "type": "Feature",
      "id": 2242,
      "properties": {
        "level_id": 0,
        "source_layer": "1_Wall_Exist",
        "source_entity": "INSERT",
        "feature_type": "window",
        "name": "WIN-MULLION"
      },
      "geometry": {
        "type": "Point",
        "coordinates": [
          -122.8135830830761,
          53.893164550892386
        ]
      }
    },
    {
      "type": "Feature",
      "id": 2243,
      "properties": {
        "level_id": 0,
        "source_layer": "1_Wall_Exist",
        "source_entity": "INSERT",
        "feature_type": "window",
        "name": "WIN-MULLION"
      },
      "geometry": {
        "type": "Point",
        "coordinates": [
          -122.8135830830761,
          53.89315544142735
        ]
      }
    },
    {
      "type": "Feature",
      "id": 2244,
      "properties": {
        "level_id": 0,
        "source_layer": "1_Wall_Exist",
        "source_entity": "INSERT",
        "feature_type": "window",
        "name": "WIN-MULLION"
      },
      "geometry": {
        "type": "Point",
        "coordinates": [
          -122.8135830830761,
          53.893149617343155
        ]
      }
    },
    {
      "type": "Feature",
      "id": 2245,
      "properties": {
        "level_id": 0,
        "source_layer": "1_Wall_Exist",
        "source_entity": "INSERT",
        "feature_type": "window",
        "name": "WIN-MULLION"
      },
      "geometry": {
        "type": "Point",
        "coordinates": [
          -122.8135830830761,
          53.89314444884177
        ]
      }
    },
    {
      "type": "Feature",
      "id": 2246,
      "properties": {
        "level_id": 0,
        "source_layer": "1_Wall_Exist",
        "source_entity": "INSERT",
        "feature_type": "window",
        "name": "WIN-MULLION"
      },
      "geometry": {
        "type": "Point",
        "coordinates": [
          -122.8135830830761,
          53.8932242850893
        ]
      }
    },
    {
      "type": "Feature",
      "id": 2247,
      "properties": {
        "level_id": 0,
        "source_layer": "1_Wall_Exist",
        "source_entity": "INSERT",
        "feature_type": "window",
        "name": "WIN-MULLION"
      },
      "geometry": {
        "type": "Point",
        "coordinates": [
          -122.8135830830761,
          53.89321517562428
        ]
      }
    },
    {
      "type": "Feature",
      "id": 2248,
      "properties": {
        "level_id": 0,
        "source_layer": "1_Wall_Exist",
        "source_entity": "INSERT",
        "feature_type": "window",
        "name": "WIN-MULLION"
      },
      "geometry": {
        "type": "Point",
        "coordinates": [
          -122.8135830830761,
          53.893228938383245
        ]
      }
    },
    {
      "type": "Feature",
      "id": 2249,
      "properties": {
        "level_id": 0,
        "source_layer": "1_Wall_Exist",
        "source_entity": "INSERT",
        "feature_type": "window",
        "name": "WIN-MULLION"
      },
      "geometry": {
        "type": "Point",
        "coordinates": [
          -122.8136100830304,
          53.8932242850893
        ]
      }
    },
    {
      "type": "Feature",
      "id": 2250,
      "properties": {
        "level_id": 0,
        "source_layer": "1_Wall_Exist",
        "source_entity": "INSERT",
        "feature_type": "window",
        "name": "WIN-MULLION"
      },
      "geometry": {
        "type": "Point",
        "coordinates": [
          -122.8136100830304,
          53.89321517562428
        ]
      }
    },
    {
      "type": "Feature",
      "id": 2251,
      "properties": {
        "level_id": 0,
        "source_layer": "1_Wall_Exist",
        "source_entity": "INSERT",
        "feature_type": "window",
        "name": "WIN-MULLION"
      },
      "geometry": {
        "type": "Point",
        "coordinates": [
          -122.8136100830304,
          53.89319441799085
        ]
      }
    },
    {
      "type": "Feature",
      "id": 2252,
      "properties": {
        "level_id": 0,
        "source_layer": "1_Wall_Exist",
        "source_entity": "INSERT",
        "feature_type": "window",
        "name": "WIN-MULLION"
      },
      "geometry": {
        "type": "Point",
        "coordinates": [
          -122.8136100830304,
          53.893185308525815
        ]
      }
    },
    {
      "type": "Feature",
      "id": 2253,
      "properties": {
        "level_id": 0,
        "source_layer": "1_Wall_Exist",
        "source_entity": "INSERT",
        "feature_type": "window",
        "name": "WIN-MULLION"
      },
      "geometry": {
        "type": "Point",
        "coordinates": [
          -122.8136100830304,
          53.89317948444162
        ]
      }
    },
    {
      "type": "Feature",
      "id": 2254,
      "properties": {
        "level_id": 0,
        "source_layer": "1_Wall_Exist",
        "source_entity": "INSERT",
        "feature_type": "window",
        "name": "WIN-MULLION"
      },
      "geometry": {
        "type": "Point",
        "coordinates": [
          -122.8136100830304,
          53.893170374976584
        ]
      }
    },
    {
      "type": "Feature",
      "id": 2255,
      "properties": {
        "level_id": 0,
        "source_layer": "1_Wall_Exist",
        "source_entity": "INSERT",
        "feature_type": "window",
        "name": "WIN-MULLION"
      },
      "geometry": {
        "type": "Point",
        "coordinates": [
          -122.8136100830304,
          53.893164550892386
        ]
      }
    },
    {
      "type": "Feature",
      "id": 2256,
      "properties": {
        "level_id": 0,
        "source_layer": "1_Wall_Exist",
        "source_entity": "INSERT",
        "feature_type": "window",
        "name": "WIN-MULLION"
      },
      "geometry": {
        "type": "Point",
        "coordinates": [
          -122.8136100830304,
          53.89315544142736
        ]
      }
    },
    {
      "type": "Feature",
      "id": 2257,
      "properties": {
        "level_id": 0,
        "source_layer": "1_Wall_Exist",
        "source_entity": "INSERT",
        "feature_type": "window",
        "name": "WIN-MULLION"
      },
      "geometry": {
        "type": "Point",
        "coordinates": [
          -122.8136100830304,
          53.893149617343155
        ]
      }
    },
    {
      "type": "Feature",
      "id": 2258,
      "properties": {
        "level_id": 0,
        "source_layer": "1_Wall_Exist",
        "source_entity": "INSERT",
        "feature_type": "window",
        "name": "WIN-MULLION"
      },
      "geometry": {
        "type": "Point",
        "coordinates": [
          -122.8136100830304,
          53.89314050787813
        ]
      }
    },
    {
      "type": "Feature",
      "id": 2259,
      "properties": {
        "level_id": 0,
        "source_layer": "1_Wall_Exist",
        "source_entity": "INSERT",
        "feature_type": "window",
        "name": "WIN-MULLION"
      },
      "geometry": {
        "type": "Point",
        "coordinates": [
          -122.8136100830304,
          53.89313468379393
        ]
      }
    },
    {
      "type": "Feature",
      "id": 2260,
      "properties": {
        "level_id": 0,
        "source_layer": "1_Wall_Exist",
        "source_entity": "INSERT",
        "feature_type": "window",
        "name": "WIN-MULLION"
      },
      "geometry": {
        "type": "Point",
        "coordinates": [
          -122.8136100830304,
          53.8931255743289
        ]
      }
    },
    {
      "type": "Feature",
      "id": 2261,
      "properties": {
        "level_id": 0,
        "source_layer": "1_Wall_Exist",
        "source_entity": "INSERT",
        "feature_type": "window",
        "name": "WIN-MULLION"
      },
      "geometry": {
        "type": "Point",
        "coordinates": [
          -122.8136100830304,
          53.8931197502447
        ]
      }
    },
    {
      "type": "Feature",
      "id": 2262,
      "properties": {
        "level_id": 0,
        "source_layer": "1_Wall_Exist",
        "source_entity": "INSERT",
        "feature_type": "window",
        "name": "WIN-MULLION"
      },
      "geometry": {
        "type": "Point",
        "coordinates": [
          -122.81358638640721,
          53.893111194814345
        ]
      }
    },
    {
      "type": "Feature",
      "id": 2263,
      "properties": {
        "level_id": 0,
        "source_layer": "1_Wall_Exist",
        "source_entity": "INSERT",
        "feature_type": "door",
        "name": "1200-DOOR"
      },
      "geometry": {
        "type": "Point",
        "coordinates": [
          -122.81358250340064,
          53.893117057725775
        ]
      }
    },
    {
      "type": "Feature",
      "id": 2264,
      "properties": {
        "level_id": 0,
        "source_layer": "1_Wall_Exist",
        "source_entity": "INSERT",
        "feature_type": "door",
        "name": "914-DOOR"
      },
      "geometry": {
        "type": "Point",
        "coordinates": [
          -122.81361109313991,
          53.89320495311204
        ]
      }
    },
    {
      "type": "Feature",
      "id": 2265,
      "properties": {
        "level_id": 0,
        "source_layer": "1_Wall_Exist",
        "source_entity": "INSERT",
        "feature_type": "door",
        "name": "914-DOOR_3"
      },
      "geometry": {
        "type": "Point",
        "coordinates": [
          -122.81361109313991,
          53.89320495510318
        ]
      }
    },
    {
      "type": "Feature",
      "id": 2266,
      "properties": {
        "level_id": 0,
        "source_layer": "1_Wall_Exist",
        "source_entity": "INSERT",
        "feature_type": "door",
        "name": "914-DOOR_4"
      },
      "geometry": {
        "type": "Point",
        "coordinates": [
          -122.81358207296658,
          53.89320495311204
        ]
      }
    },
    {
      "type": "Feature",
      "id": 2267,
      "properties": {
        "level_id": 0,
        "source_layer": "1_Wall_Exist",
        "source_entity": "INSERT",
        "feature_type": "door",
        "name": "914-DOOR"
      },
      "geometry": {
        "type": "Point",
        "coordinates": [
          -122.81358207296658,
          53.89320495510318
        ]
      }
    },
    {
      "type": "Feature",
      "id": 2268,
      "properties": {
        "level_id": 0,
        "source_layer": "1_Wall_Exist",
        "source_entity": "INSERT",
        "feature_type": "door",
        "name": "2-door"
      },
      "geometry": {
        "type": "Point",
        "coordinates": [
          -122.81478504589703,
          53.89272252334782
        ]
      }
    },
    {
      "type": "Feature",
      "id": 2269,
      "properties": {
        "level_id": 0,
        "source_layer": "1_Wall_Exist",
        "source_entity": "INSERT",
        "feature_type": "window",
        "name": "4-CURTAIN-WALL"
      },
      "geometry": {
        "type": "Point",
        "coordinates": [
          -122.81478654739661,
          53.89273003630509
        ]
      }
    },
    {
      "type": "Feature",
      "id": 2270,
      "properties": {
        "level_id": 0,
        "source_layer": "1_Wall_Exist",
        "source_entity": "INSERT",
        "feature_type": "window",
        "name": "4-CURTAIN-WALL"
      },
      "geometry": {
        "type": "Point",
        "coordinates": [
          -122.81478654739661,
          53.89271750729208
        ]
      }
    },
    {
      "type": "Feature",
      "id": 2271,
      "properties": {
        "level_id": 0,
        "source_layer": "1_Wall_Exist",
        "source_entity": "INSERT",
        "feature_type": "window",
        "name": "4-CURTAIN-WALL"
      },
      "geometry": {
        "type": "Point",
        "coordinates": [
          -122.81478654739661,
          53.89271501039055
        ]
      }
    },
    {
      "type": "Feature",
      "id": 2272,
      "properties": {
        "level_id": 0,
        "source_layer": "1_Wall_Exist",
        "source_entity": "INSERT",
        "feature_type": "window",
        "name": "4-CURTAIN-WALL"
      },
      "geometry": {
        "type": "Point",
        "coordinates": [
          -122.81478654739661,
          53.89272753940356
        ]
      }
    },
    {
      "type": "Feature",
      "id": 2273,
      "properties": {
        "level_id": 0,
        "source_layer": "1_Wall_Exist",
        "source_entity": "INSERT",
        "feature_type": "window",
        "name": "4-CURTAIN-WALL"
      },
      "geometry": {
        "type": "Point",
        "coordinates": [
          -122.81478654739661,
          53.89270944434592
        ]
      }
    },
    {
      "type": "Feature",
      "id": 2274,
      "properties": {
        "level_id": 0,
        "source_layer": "1_Wall_Exist",
        "source_entity": "INSERT",
        "feature_type": "door",
        "name": "2-door"
      },
      "geometry": {
        "type": "Point",
        "coordinates": [
          -122.8151592366904,
          53.89470014705355
        ]
      }
    },
    {
      "type": "Feature",
      "id": 2275,
      "properties": {
        "level_id": 0,
        "source_layer": "1_Wall_Exist",
        "source_entity": "INSERT",
        "feature_type": "window",
        "name": "4-CURTAIN-WALL"
      },
      "geometry": {
        "type": "Point",
        "coordinates": [
          -122.81516073818997,
          53.894707660010816
        ]
      }
    },
    {
      "type": "Feature",
      "id": 2276,
      "properties": {
        "level_id": 0,
        "source_layer": "1_Wall_Exist",
        "source_entity": "INSERT",
        "feature_type": "window",
        "name": "4-CURTAIN-WALL"
      },
      "geometry": {
        "type": "Point",
        "coordinates": [
          -122.81516073818997,
          53.89469513099781
        ]
      }
    },
    {
      "type": "Feature",
      "id": 2277,
      "properties": {
        "level_id": 0,
        "source_layer": "1_Wall_Exist",
        "source_entity": "INSERT",
        "feature_type": "window",
        "name": "4-CURTAIN-WALL"
      },
      "geometry": {
        "type": "Point",
        "coordinates": [
          -122.81516073818997,
          53.89469263409628
        ]
      }
    },
    {
      "type": "Feature",
      "id": 2278,
      "properties": {
        "level_id": 0,
        "source_layer": "1_Wall_Exist",
        "source_entity": "INSERT",
        "feature_type": "window",
        "name": "4-CURTAIN-WALL"
      },
      "geometry": {
        "type": "Point",
        "coordinates": [
          -122.81516073818997,
          53.894705163109286
        ]
      }
    },
    {
      "type": "Feature",
      "id": 2279,
      "properties": {
        "level_id": 0,
        "source_layer": "1_Wall_Exist",
        "source_entity": "INSERT",
        "feature_type": "window",
        "name": "4-CURTAIN-WALL"
      },
      "geometry": {
        "type": "Point",
        "coordinates": [
          -122.81516073818997,
          53.89468706805164
        ]
      }
    }
  ]
}