{"type":"FeatureCollection","features":[{"type":"Feature","id":96001,"geometry":{"type":"Polygon","coordinates":[[[-122.814816662426,53.8928014398115],[-122.814775272423,53.892719045029],[-122.814750419763,53.8927233928744],[-122.814728970582,53.8926807112739],[-122.814756016136,53.8926759713402],[-122.814713525279,53.8925913817412],[-122.814747408272,53.8925854479568],[-122.814706109081,53.8925032420373],[-122.81485303158,53.8924774841193],[-122.81483328685,53.8924382026635],[-122.81503889865,53.8924021627586],[-122.815205335405,53.892733468512],[-122.814816662426,53.8928014398115]]]},"properties":{"OBJECTID":96001,"Name":"","Description":null,"BuildingType":4,"FloorCount":null,"Shape__Area":950.198974609375}},{"type":"Feature","id":106844,"geometry":{"type":"Polygon","coordinates":[[[-122.817408000628,53.8915730961533],[-122.817494568974,53.8915408167098],[-122.817445810191,53.8914933753208],[-122.81754749145,53.8914567955439],[-122.817595494044,53.891503193124],[-122.817626905483,53.8914914754268],[-122.817718413646,53.8915163136797],[-122.817799866241,53.8914251991681],[-122.817843994039,53.89143893702],[-122.817860646093,53.891420141213],[-122.817815241964,53.891405987978],[-122.817997961763,53.8912016960657],[-122.818022076735,53.8912092556558],[-122.818050425977,53.8911773099917],[-122.818002241364,53.8911622717795],[-122.818201441961,53.8909395429846],[-122.818420528616,53.8910079323956],[-122.81832230459,53.891117878979],[-122.818288646559,53.8911074198272],[-122.818266368433,53.8911324179521],[-122.818300846032,53.8911433637075],[-122.818214089252,53.8912404386261],[-122.818188728121,53.8912325086757],[-122.818166052343,53.8912579465959],[-122.8182118364,53.891272199143],[-122.818031427329,53.8914736456541],[-122.817982831824,53.8914585438956],[-122.817966379219,53.8914769715099],[-122.818009671027,53.8914905282714],[-122.817911185061,53.8916007167926],[-122.81783195548,53.8915760051755],[-122.817777368603,53.8916369784642],[-122.817646930161,53.8915962800634],[-122.817586899276,53.8915760375618],[-122.817504840623,53.8916104990456],[-122.817490794924,53.8916317255505],[-122.817524753714,53.8916395608583],[-122.817456913953,53.8917422186161],[-122.817405823546,53.8917304564026],[-122.817390659341,53.8917534338727],[-122.817443740929,53.8917656934654],[-122.817301627211,53.8919806882203],[-122.817259398812,53.8919709527635],[-122.817242947809,53.8919958696839],[-122.817265916511,53.8920011716681],[-122.817199316477,53.8921018987217],[-122.817163609193,53.8920936741719],[-122.817146085886,53.8921202073024],[-122.81718363255,53.8921288481106],[-122.817106539423,53.8922454860346],[-122.816870786131,53.8921911082251],[-122.817026474107,53.8919555789025],[-122.817078613421,53.8919676125177],[-122.817101237837,53.8919332675255],[-122.817076217089,53.8919274860141],[-122.81721738211,53.8917139281743],[-122.817251690493,53.8917218539724],[-122.817265614144,53.8917007351671],[-122.81722458693,53.8916912711684],[-122.817294678716,53.8915852284562],[-122.817331221612,53.8915936519775],[-122.817353186508,53.8915604114681],[-122.817408000628,53.8915730961533]]]},"properties":{"OBJECTID":106844,"Name":null,"Description":null,"BuildingType":1,"FloorCount":null,"Shape__Area":2583.174072265625}},{"type":"Feature","id":96004,"geometry":{"type":"Polygon","coordinates":[[[-122.815530857452,53.8935053811481],[-122.815578177276,53.8933992775105],[-122.815619538671,53.8934057135942],[-122.815608089105,53.8934313929661],[-122.8156260783,53.8934341889251],[-122.815606529551,53.8934780207931],[-122.815588114587,53.8934751522725],[-122.815571793193,53.8935117446894],[-122.815530857452,53.8935053811481]]]},"properties":{"OBJECTID":96004,"Name":null,"Description":null,"BuildingType":4,"FloorCount":null,"Shape__Area":40.357177734375}},{"type":"Feature","id":96002,"geometry":{"type":"Polygon","coordinates":[[[-122.809305242757,53.8931222260811],[-122.809340025285,53.8932064368417],[-122.809202893286,53.8932261995271],[-122.809168111017,53.8931419887273],[-122.809305242757,53.8931222260811]]]},"properties":{"OBJECTID":96002,"Name":"","Description":null,"BuildingType":4,"FloorCount":null,"Shape__Area":89.46044921875}},{"type":"Feature","id":96008,"geometry":{"type":"Polygon","coordinates":[[[-122.815757938321,53.8937199160617],[-122.815576992322,53.8936926110619],[-122.815622910636,53.8935868827569],[-122.815803627602,53.8936142682298],[-122.815757938321,53.8937199160617]]]},"properties":{"OBJECTID":96008,"Name":"","Description":null,"BuildingType":4,"FloorCount":null,"Shape__Area":148.89404296875}},{"type":"Feature","id":96000,"geometry":{"type":"Polygon","coordinates":[[[-122.81539454467,53.892580081168],[-122.81528632935,53.8925997604378],[-122.81526585361,53.892560513882],[-122.815373901379,53.8925408523492],[-122.81539454467,53.892580081168]]]},"properties":{"OBJECTID":96000,"Name":"","Description":null,"BuildingType":4,"FloorCount":null,"Shape__Area":33.9794921875}},{"type":"Feature","id":96003,"geometry":{"type":"Polygon","coordinates":[[[-122.815990891635,53.8934087550367],[-122.815589323906,53.8933490871483],[-122.815680163176,53.8931358133723],[-122.816179067875,53.8932099390713],[-122.81614253635,53.8932957284043],[-122.81619402675,53.8933033842053],[-122.81615426641,53.8933967455592],[-122.816005421412,53.8933746315422],[-122.815990891635,53.8934087550367]]]},"properties":{"OBJECTID":96003,"Name":"","Description":null,"BuildingType":4,"FloorCount":null,"Shape__Area":838.78466796875}},{"type":"Feature","id":95974,"geometry":{"type":"Polygon","coordinates":[[[-122.812969631766,53.8894466730174],[-122.812080378292,53.8896074476729],[-122.811832190439,53.8891283887434],[-122.811547113747,53.8891799197728],[-122.811426862245,53.8889478200117],[-122.811711693902,53.8888963248349],[-122.811575257132,53.8886329571906],[-122.811978022777,53.8885601468831],[-122.811964205412,53.8885334935019],[-122.812053529297,53.8885173469343],[-122.812067044954,53.8885434335826],[-122.812471681891,53.8884702740125],[-122.812533665082,53.8885899125461],[-122.81273143774,53.8885678678006],[-122.812732654941,53.8885065978214],[-122.812693899183,53.8885072833746],[-122.812691076877,53.8884511123337],[-122.813060237173,53.8884446500444],[-122.813065057448,53.8885407762917],[-122.813137715005,53.8885394962475],[-122.813147301546,53.8887303015627],[-122.81316446552,53.8887300047036],[-122.813173786264,53.8889156234635],[-122.813163226118,53.8889158047679],[-122.81316853544,53.8890217467687],[-122.813089653583,53.8890231249991],[-122.813086845687,53.8889670079238],[-122.812802588268,53.888971984855],[-122.812733818834,53.8889848654099],[-122.812969631766,53.8894466730174]]]},"properties":{"OBJECTID":95974,"Name":"","Description":null,"BuildingType":4,"FloorCount":null,"Shape__Area":9418.926513671875}},{"type":"Feature","id":95997,"geometry":{"type":"Polygon","coordinates":[[[-122.815380286098,53.8924697573586],[-122.815281870208,53.8924860452054],[-122.815253180817,53.89242537637],[-122.815351642621,53.8924089987363],[-122.815380286098,53.8924697573586]]]},"properties":{"OBJECTID":95997,"Name":"","Description":null,"BuildingType":4,"FloorCount":null,"Shape__Area":47.122802734375}},{"type":"Feature","id":106886,"geometry":{"type":"Polygon","coordinates":[[[-122.816864003248,53.890979035321],[-122.816703210176,53.8912099997111],[-122.816647779336,53.8911993181063],[-122.816622571624,53.8912328860954],[-122.816649187756,53.8912390835911],[-122.816496301366,53.8914500073302],[-122.8164458753,53.8914395669726],[-122.816427298351,53.8914634379143],[-122.816476536686,53.8914740831903],[-122.816402524791,53.8915749333028],[-122.816367475949,53.8915659005934],[-122.816350760143,53.8915886598457],[-122.816371492658,53.8916458198881],[-122.816576280939,53.8916924126327],[-122.816533717281,53.8917558574741],[-122.816618332451,53.8917737382337],[-122.816545700717,53.891889474822],[-122.816496393333,53.8918805821484],[-122.816482529256,53.8918984203008],[-122.816533051611,53.8919113235268],[-122.816391037141,53.8921233243186],[-122.816368599081,53.8921184723833],[-122.816343484574,53.8921548986657],[-122.816394257509,53.8921662384043],[-122.816240633632,53.8924019947634],[-122.816012101868,53.8923491003692],[-122.81609432253,53.8922332889186],[-122.816124763202,53.8922384228042],[-122.816143566241,53.8922116940444],[-122.816102759765,53.8922038838108],[-122.816169731442,53.8920919228166],[-122.816200684522,53.8920981630034],[-122.816210073434,53.892084191902],[-122.816169018129,53.8920776306548],[-122.816306604008,53.891862531443],[-122.816350556229,53.8918711913009],[-122.816364760821,53.8918520504107],[-122.81632207006,53.8918437340355],[-122.816384101513,53.8917407714286],[-122.816301458691,53.8917242417357],[-122.816296310424,53.8916837874323],[-122.816228197856,53.8916918443836],[-122.816211334722,53.8916406403589],[-122.816228779005,53.891635678669],[-122.816202715846,53.891569297644],[-122.816188243176,53.8915524407852],[-122.816206486416,53.8915283716318],[-122.816161966245,53.8915139944224],[-122.816237275516,53.8914158069187],[-122.816295110982,53.8914298898919],[-122.816310891915,53.8914051787998],[-122.816273646813,53.8913973560952],[-122.816434289056,53.8911806831266],[-122.816466124317,53.8911903310833],[-122.81648623399,53.891167361287],[-122.816464722672,53.8911629512018],[-122.816539743394,53.8910712794318],[-122.816569750857,53.8910778686157],[-122.816596177386,53.8910474123798],[-122.816555262356,53.8910368337984],[-122.816638620188,53.8909244841069],[-122.816864003248,53.890979035321]]]},"properties":{"OBJECTID":106886,"Name":null,"Description":null,"BuildingType":1,"FloorCount":null,"Shape__Area":2542.965087890625}},{"type":"Feature","id":96018,"geometry":{"type":"Polygon","coordinates":[[[-122.814082206212,53.8926087414949],[-122.814160582479,53.8925925045069],[-122.814153909709,53.8925702845985],[-122.814288887714,53.8925685789958],[-122.814304621841,53.8925994145176],[-122.814281275947,53.8926036926917],[-122.814286691616,53.8926177404711],[-122.814306929099,53.8926178526662],[-122.814338709496,53.8926777804948],[-122.81432042351,53.892680241918],[-122.814338497725,53.8927221274206],[-122.814360983632,53.892723069988],[-122.814390391406,53.8927793359792],[-122.814370684351,53.8927831254509],[-122.814390600972,53.8928247621269],[-122.814412259584,53.8928235462633],[-122.81444402507,53.8928834740387],[-122.814426160285,53.8928870147001],[-122.814441364116,53.8929139485501],[-122.814416754207,53.8929149890833],[-122.814405894351,53.8929516796687],[-122.814427520258,53.8929578609524],[-122.814444477048,53.8929669381702],[-122.81446311899,53.8929803322743],[-122.814470783156,53.8929952104238],[-122.814515755229,53.8929971044931],[-122.814516150249,53.8929731877878],[-122.814709733757,53.8929738192603],[-122.814708996704,53.8930716445265],[-122.814661900609,53.8930717426075],[-122.814648775093,53.8931149820359],[-122.814607738676,53.8931108560588],[-122.81461537022,53.8931331223606],[-122.814634359294,53.8931299968592],[-122.814746200117,53.8933575412595],[-122.814730568312,53.8933619213041],[-122.814767922993,53.8934313220737],[-122.814792690374,53.8934257067723],[-122.814808268055,53.8934611079327],[-122.814610021927,53.8934957656596],[-122.814621026131,53.8935192865121],[-122.814549832312,53.8935317149544],[-122.814553578269,53.8935414368681],[-122.814202386849,53.8936035139466],[-122.814204815422,53.8936083263342],[-122.814190287208,53.8936108744453],[-122.814209067179,53.8936480872451],[-122.814224158904,53.8936454321465],[-122.814233073745,53.8936630985532],[-122.814220098824,53.8936653794285],[-122.814238622352,53.8937020974814],[-122.814251932332,53.8936997542058],[-122.814259700721,53.8937151628256],[-122.8142468476,53.8937174259161],[-122.814265612452,53.8937546386828],[-122.81427976005,53.8937521439024],[-122.814288131833,53.8937687488697],[-122.81427145624,53.8937716891452],[-122.814290191023,53.8938088299565],[-122.814304688866,53.8938062817863],[-122.814312789275,53.8938223200823],[-122.814301717931,53.893824262363],[-122.814319246092,53.8938589924945],[-122.814348531166,53.8938538426643],[-122.814448994038,53.894052994315],[-122.814371813861,53.8940665728634],[-122.814388105064,53.8940988922624],[-122.814301589411,53.8941141191299],[-122.814354380808,53.894219792866],[-122.814375689118,53.8942222436083],[-122.814439769503,53.8942322924801],[-122.814416255474,53.8942846207553],[-122.814498568648,53.8942975290257],[-122.814345849261,53.8946374652458],[-122.81410401736,53.8945995657792],[-122.814080994641,53.8946507712353],[-122.814028273058,53.8946425104216],[-122.814049958938,53.8945942330227],[-122.813964710409,53.8945808704929],[-122.813992943602,53.8945180155771],[-122.813939649993,53.8945152455615],[-122.813938081826,53.8945359786568],[-122.813840911773,53.8945343719626],[-122.813840371119,53.894515639943],[-122.81376323398,53.8945158798398],[-122.813820510338,53.8946291377213],[-122.81373743502,53.8946437942789],[-122.813764527099,53.8946973513972],[-122.81370612297,53.8947076600108],[-122.813679227143,53.8946544716956],[-122.813454245677,53.8946941642909],[-122.813282405179,53.8943543540647],[-122.813351134249,53.8943422281378],[-122.813325008245,53.8942905958761],[-122.81337993964,53.894280902228],[-122.813405884542,53.894332210625],[-122.813647463789,53.8942895957883],[-122.813678673437,53.8943513294951],[-122.813779292139,53.8943335723337],[-122.813753844504,53.8942832624672],[-122.813909363777,53.8942558202927],[-122.813932926062,53.8943023881586],[-122.814044920638,53.8942826260832],[-122.814092965375,53.8942953826825],[-122.814122181563,53.8942303900899],[-122.81428254979,53.8942555262845],[-122.814291187111,53.8942362871534],[-122.814233812831,53.8942272911969],[-122.814161725965,53.8940805748819],[-122.814043838632,53.8941013166298],[-122.814016988653,53.8940480745274],[-122.814000328188,53.8940510058005],[-122.813990342421,53.8940312075408],[-122.814013490402,53.8940271358432],[-122.813998813358,53.8939980546064],[-122.813972360684,53.8940027143949],[-122.813961771574,53.8939817197816],[-122.813987066792,53.8939772739164],[-122.813969433297,53.8939423278595],[-122.813942965478,53.8939469786299],[-122.813932979723,53.8939271893532],[-122.813958396766,53.8939227167185],[-122.813941411974,53.8938890479713],[-122.81391220295,53.8938941888321],[-122.813902880815,53.8938757398069],[-122.813932485785,53.8938705276573],[-122.813914792152,53.893835437689],[-122.813887258295,53.893840293521],[-122.813877875994,53.8938216916029],[-122.813908668763,53.8938162745744],[-122.813890929801,53.8937811216153],[-122.813860761426,53.8937864317502],[-122.813851348995,53.8937677668664],[-122.813879278685,53.8937628577276],[-122.81386321414,53.8937310149776],[-122.813834720967,53.8937360310961],[-122.813824207438,53.8937151803963],[-122.813853431604,53.8937100305923],[-122.813835843663,53.8936751564894],[-122.813813183157,53.8936791480159],[-122.813723855948,53.8935020968385],[-122.8138062131,53.8934876009611],[-122.813799666688,53.8934746209913],[-122.813521902051,53.8935250984488],[-122.813568010149,53.8936171811551],[-122.813588669344,53.8936183816849],[-122.813605220164,53.8936263798187],[-122.813609684059,53.8936354377576],[-122.813613008537,53.8936440804753],[-122.813606915755,53.8936556926197],[-122.813599559158,53.8936640670886],[-122.81359051503,53.8936755128645],[-122.813560672022,53.8936829446189],[-122.813594890754,53.8937317401742],[-122.813512560973,53.8937502176738],[-122.813528921623,53.8937701786731],[-122.812895421545,53.8939208312009],[-122.812836227727,53.8938322152214],[-122.812878454885,53.8938219806879],[-122.812849015404,53.8937731024975],[-122.812765718416,53.8937865895864],[-122.812748439532,53.893754259436],[-122.812809795634,53.8937437311876],[-122.812797089583,53.8937232814433],[-122.812711262585,53.893737681335],[-122.812672538228,53.8936622108275],[-122.812752868446,53.8936485573906],[-122.812740426338,53.8936337525735],[-122.813381066488,53.8935190643272],[-122.813394211723,53.893533205052],[-122.813413622334,53.89353115897],[-122.813406255331,53.8935145375261],[-122.8134259476,53.8935107481898],[-122.813416580961,53.8934989412566],[-122.813466262977,53.8934581585868],[-122.813433282788,53.8933876047448],[-122.813482520888,53.8933781358925],[-122.813473748025,53.893362842506],[-122.813632876575,53.8933340221288],[-122.813638010502,53.8933498042005],[-122.813673755813,53.8933427231341],[-122.813715242892,53.8934303135569],[-122.814087546735,53.893363129407],[-122.813903061711,53.8930095666064],[-122.813762205539,53.8930359259858],[-122.813775285061,53.893064842993],[-122.813792868327,53.8930630456819],[-122.813786877817,53.8931098733435],[-122.813809206634,53.8931153907097],[-122.813739339226,53.8932060530894],[-122.813683850394,53.8931669317052],[-122.813638544671,53.8932639417801],[-122.813665282234,53.8933182893357],[-122.813513759098,53.893344380201],[-122.813406405888,53.8933304346603],[-122.813390733722,53.8933745867778],[-122.813262366414,53.8934083531929],[-122.813301283419,53.8933247076091],[-122.813220492031,53.8933122862386],[-122.813213820582,53.8933273938316],[-122.813193534593,53.8933346695894],[-122.813176669338,53.8933358028112],[-122.813164600218,53.8933294743892],[-122.813150627829,53.8933131752091],[-122.813182982708,53.8932474506948],[-122.813059218864,53.8932283291297],[-122.813056904546,53.8932422750464],[-122.813043553956,53.8932400971157],[-122.813025567111,53.8932981951021],[-122.812738457213,53.8932470907455],[-122.812449961768,53.893247305548],[-122.812580059984,53.8929661544257],[-122.812568684108,53.8929341660188],[-122.812624647668,53.8928124287529],[-122.812662458504,53.8927857481786],[-122.812684894054,53.8927366992045],[-122.812831563325,53.8927578612136],[-122.812839813244,53.8927368599115],[-122.812900606199,53.8927498705554],[-122.812967302219,53.8927222102527],[-122.813040463668,53.8927085274786],[-122.813066090676,53.8926739092931],[-122.813187878863,53.8926682206414],[-122.813213858065,53.8926023603581],[-122.813501129277,53.8926437117552],[-122.813806154078,53.8925868411463],[-122.813783547558,53.8925274756781],[-122.813750411893,53.8925124680913],[-122.813774955805,53.8924919953334],[-122.813819936269,53.8924781784888],[-122.813855879218,53.8924709628528],[-122.813891358594,53.8925269867159],[-122.813926974004,53.8925215771579],[-122.813868103188,53.8924047395519],[-122.813784719116,53.8924145420951],[-122.813741238406,53.8923237847788],[-122.813822041651,53.8923091786215],[-122.813787035559,53.892239169995],[-122.813692358331,53.8922256757936],[-122.813662340527,53.8922418527189],[-122.813627733097,53.8922567372147],[-122.81358593122,53.8922641234476],[-122.813541155254,53.8922593801079],[-122.813498740185,53.8922404392299],[-122.813476507701,53.8922202354083],[-122.813280961566,53.8922510482346],[-122.813313082936,53.8923433340091],[-122.813227373901,53.8923592534422],[-122.81322788329,53.8923815177438],[-122.813109682998,53.8923676449399],[-122.812989318973,53.8923374193057],[-122.812978979524,53.8923288734987],[-122.812948886637,53.8923345250703],[-122.812859944597,53.8922702654029],[-122.812878219288,53.8922634988873],[-122.812866235242,53.8922382056873],[-122.812793847959,53.8922422633137],[-122.812756352314,53.8921577077657],[-122.812717998095,53.8920814378888],[-122.812720968071,53.8920706028794],[-122.81295437133,53.8920297113786],[-122.812941576627,53.8920019541843],[-122.812920652391,53.8920057684862],[-122.812902019635,53.8919700836788],[-122.812876191784,53.8919747891407],[-122.812828440971,53.8918833057824],[-122.812863786656,53.891876871476],[-122.812817439032,53.8917880867274],[-122.812923810895,53.8917687124038],[-122.812743445476,53.8914231984794],[-122.812828999132,53.8914076117079],[-122.812812011243,53.8913750662925],[-122.813171265549,53.8913096262931],[-122.813179487974,53.8913253952199],[-122.813241132598,53.891314175115],[-122.813249883121,53.8913309515252],[-122.813276228316,53.8913261479183],[-122.81334187305,53.8914519035722],[-122.81335962944,53.8914486684984],[-122.813514668087,53.8917456423944],[-122.813416961609,53.8917634398156],[-122.813449007453,53.8918248333617],[-122.813494482562,53.8919116750811],[-122.813608364569,53.8919006437816],[-122.81369890878,53.8919058176495],[-122.813826706886,53.8919271109487],[-122.814000460406,53.891749164313],[-122.814049019549,53.8917653551866],[-122.814063138201,53.8917520926487],[-122.814085283111,53.8917371797406],[-122.814100650319,53.8917271548459],[-122.814073327983,53.8917086689661],[-122.814104732443,53.8916953522983],[-122.814142460553,53.8916834475545],[-122.814178907247,53.8916757023036],[-122.81423165528,53.8916703011944],[-122.8142357567,53.8916958876589],[-122.814257117896,53.8916964150537],[-122.814283678532,53.8916979571544],[-122.814314454183,53.8917029032681],[-122.814327968161,53.8916681222643],[-122.81455442349,53.8917041010725],[-122.814548034388,53.8917174654889],[-122.814573595379,53.8917214058026],[-122.814595870967,53.8916769221698],[-122.81516073819,53.8917673145724],[-122.815111842583,53.8918824217181],[-122.814958727014,53.8918570281506],[-122.814932138751,53.8919202633548],[-122.81488170413,53.891911718816],[-122.81487773578,53.8919213479346],[-122.814836436391,53.891911568117],[-122.814823673556,53.8919382880141],[-122.814500562735,53.8918886243461],[-122.814482721599,53.8919041012425],[-122.814462435344,53.8919185137624],[-122.814439917554,53.8919317364014],[-122.814415336122,53.8919436525726],[-122.814388934987,53.8919541547947],[-122.814360958087,53.8919631355865],[-122.814331664418,53.8919705234427],[-122.81430129776,53.8919762468346],[-122.814270162679,53.8919802523041],[-122.814238517974,53.8919825132866],[-122.814206668132,53.8919829943006],[-122.814174887008,53.8919817047579],[-122.814143494147,53.8919786451532],[-122.814112748069,53.8919738518394],[-122.814082937724,53.8919673612168],[-122.81406006533,53.8919610251416],[-122.814028743878,53.8919521682963],[-122.81393734508,53.8920468690603],[-122.813857036556,53.8921454518291],[-122.813881102221,53.8922085855608],[-122.813962149772,53.8921937280212],[-122.813975332589,53.8922301951701],[-122.813894353304,53.8922433720507],[-122.813907980585,53.8922791118601],[-122.814274087623,53.8922172564492],[-122.814278517608,53.8922305297291],[-122.814348741309,53.8922202121485],[-122.814399751208,53.8923187735626],[-122.814341671769,53.8923287054889],[-122.814345437248,53.8923442876787],[-122.813976718907,53.8924080087841],[-122.813990281134,53.8924310123531],[-122.814072349929,53.8924158507264],[-122.814089411764,53.8924594783911],[-122.814014158495,53.8924715227309],[-122.814047157892,53.8925275247299],[-122.814082206212,53.8926087414949]]]},"properties":{"OBJECTID":96018,"Name":"University of Northern British Columbia","Description":null,"BuildingType":4,"FloorCount":null,"Shape__Area":25221.426025390625}},{"type":"Feature","id":106576,"geometry":{"type":"Polygon","coordinates":[[[-122.817540353603,53.8910553853539],[-122.817392768236,53.8910706744225],[-122.817359994732,53.8909935067103],[-122.817382413924,53.8909711604555],[-122.817312224708,53.8909463094449],[-122.817401147374,53.8908588467407],[-122.81747037982,53.8908832558285],[-122.817500974188,53.8908529225748],[-122.817437348288,53.8908303825658],[-122.817528365417,53.8907405321174],[-122.817592826766,53.8907633789431],[-122.817617384601,53.8907390405357],[-122.817553833911,53.8907167254046],[-122.817642130098,53.8906296390673],[-122.817709615002,53.8906534701258],[-122.817728273907,53.8906349919653],[-122.817819975312,53.8906674613324],[-122.817780595321,53.8907062750847],[-122.817864108415,53.8907357928821],[-122.817540353603,53.8910553853539]]]},"properties":{"OBJECTID":106576,"Name":null,"Description":null,"BuildingType":1,"FloorCount":null,"Shape__Area":823.102783203125}}]}