{
  "type": "FeatureCollection",
  "features": [
    {
      "type": "Feature",
      "id": 96018,
      "geometry": {
        "type": "Polygon",
        "coordinates": [
          [
            [-122.814082206212, 53.8926087414949],
            [-122.814160582479, 53.8925925045069],
            [-122.814153909709, 53.8925702845985],
            [-122.814288887714, 53.8925685789958],
            [-122.814304621841, 53.8925994145176],
            [-122.814281275947, 53.8926036926917],
            [-122.814286691616, 53.8926177404711],
            [-122.814306929099, 53.8926178526662],
            [-122.814338709496, 53.8926777804948],
            [-122.81432042351, 53.892680241918],
            [-122.814338497725, 53.8927221274206],
            [-122.814360983632, 53.892723069988],
            [-122.814390391406, 53.8927793359792],
            [-122.814370684351, 53.8927831254509],
            [-122.814390600972, 53.8928247621269],
            [-122.814412259584, 53.8928235462633],
            [-122.81444402507, 53.8928834740387],
            [-122.814426160285, 53.8928870147001],
            [-122.814441364116, 53.8929139485501],
            [-122.814416754207, 53.8929149890833],
            [-122.814405894351, 53.8929516796687],
            [-122.814427520258, 53.8929578609524],
            [-122.814444477048, 53.8929669381702],
            [-122.81446311899, 53.8929803322743],
            [-122.814470783156, 53.8929952104238],
            [-122.814515755229, 53.8929971044931],
            [-122.814516150249, 53.8929731877878],
            [-122.814709733757, 53.8929738192603],
            [-122.814708996704, 53.8930716445265],
            [-122.814661900609, 53.8930717426075],
            [-122.814648775093, 53.8931149820359],
            [-122.814607738676, 53.8931108560588],
            [-122.81461537022, 53.8931331223606],
            [-122.814634359294, 53.8931299968592],
            [-122.814746200117, 53.8933575412595],
            [-122.814730568312, 53.8933619213041],
            [-122.814767922993, 53.8934313220737],
            [-122.814792690374, 53.8934257067723],
            [-122.814808268055, 53.8934611079327],
            [-122.814610021927, 53.8934957656596],
            [-122.814621026131, 53.8935192865121],
            [-122.814549832312, 53.8935317149544],
            [-122.814553578269, 53.8935414368681],
            [-122.814202386849, 53.8936035139466],
            [-122.814204815422, 53.8936083263342],
            [-122.814190287208, 53.8936108744453],
            [-122.814209067179, 53.8936480872451],
            [-122.814224158904, 53.8936454321465],
            [-122.814233073745, 53.8936630985532],
            [-122.814220098824, 53.8936653794285],
            [-122.814238622352, 53.8937020974814],
            [-122.814251932332, 53.8936997542058],
            [-122.814259700721, 53.8937151628256],
            [-122.8142468476, 53.8937174259161],
            [-122.814265612452, 53.8937546386828],
            [-122.81427976005, 53.8937521439024],
            [-122.814288131833, 53.8937687488697],
            [-122.81427145624, 53.8937716891452],
            [-122.814290191023, 53.8938088299565],
            [-122.814304688866, 53.8938062817863],
            [-122.814312789275, 53.8938223200823],
            [-122.814301717931, 53.893824262363],
            [-122.814319246092, 53.8938589924945],
            [-122.814348531166, 53.8938538426643],
            [-122.814448994038, 53.894052994315],
            [-122.814371813861, 53.8940665728634],
            [-122.814388105064, 53.8940988922624],
            [-122.814301589411, 53.8941141191299],
            [-122.814354380808, 53.894219792866],
            [-122.814375689118, 53.8942222436083],
            [-122.814439769503, 53.8942322924801],
            [-122.814416255474, 53.8942846207553],
            [-122.814498568648, 53.8942975290257],
            [-122.814345849261, 53.8946374652458],
            [-122.81410401736, 53.8945995657792],
            [-122.814080994641, 53.8946507712353],
            [-122.814028273058, 53.8946425104216],
            [-122.814049958938, 53.8945942330227],
            [-122.813964710409, 53.8945808704929],
            [-122.813992943602, 53.8945180155771],
            [-122.813939649993, 53.8945152455615],
            [-122.813938081826, 53.8945359786568],
            [-122.813840911773, 53.8945343719626],
            [-122.813840371119, 53.894515639943],
            [-122.81376323398, 53.8945158798398],
            [-122.813820510338, 53.8946291377213],
            [-122.81373743502, 53.8946437942789],
            [-122.813764527099, 53.8946973513972],
            [-122.81370612297, 53.8947076600108],
            [-122.813679227143, 53.8946544716956],
            [-122.813454245677, 53.8946941642909],
            [-122.813282405179, 53.8943543540647],
            [-122.813351134249, 53.8943422281378],
            [-122.813325008245, 53.8942905958761],
            [-122.81337993964, 53.894280902228],
            [-122.813405884542, 53.894332210625],
            [-122.813647463789, 53.8942895957883],
            [-122.813678673437, 53.8943513294951],
            [-122.813779292139, 53.8943335723337],
            [-122.813753844504, 53.8942832624672],
            [-122.813909363777, 53.8942558202927],
            [-122.813932926062, 53.8943023881586],
            [-122.814044920638, 53.8942826260832],
            [-122.814092965375, 53.8942953826825],
            [-122.814122181563, 53.8942303900899],
            [-122.81428254979, 53.8942555262845],
            [-122.814291187111, 53.8942362871534],
            [-122.814233812831, 53.8942272911969],
            [-122.814161725965, 53.8940805748819],
            [-122.814043838632, 53.8941013166298],
            [-122.814016988653, 53.8940480745274],
            [-122.814000328188, 53.8940510058005],
            [-122.813990342421, 53.8940312075408],
            [-122.814013490402, 53.8940271358432],
            [-122.813998813358, 53.8939980546064],
            [-122.813972360684, 53.8940027143949],
            [-122.813961771574, 53.8939817197816],
            [-122.813987066792, 53.8939772739164],
            [-122.813969433297, 53.8939423278595],
            [-122.813942965478, 53.8939469786299],
            [-122.813932979723, 53.8939271893532],
            [-122.813958396766, 53.8939227167185],
            [-122.813941411974, 53.8938890479713],
            [-122.81391220295, 53.8938941888321],
            [-122.813902880815, 53.8938757398069],
            [-122.813932485785, 53.8938705276573],
            [-122.813914792152, 53.893835437689],
            [-122.813887258295, 53.893840293521],
            [-122.813877875994, 53.8938216916029],
            [-122.813908668763, 53.8938162745744],
            [-122.813890929801, 53.8937811216153],
            [-122.813860761426, 53.8937864317502],
            [-122.813851348995, 53.8937677668664],
            [-122.813879278685, 53.8937628577276],
            [-122.81386321414, 53.8937310149776],
            [-122.813834720967, 53.8937360310961],
            [-122.813824207438, 53.8937151803963],
            [-122.813853431604, 53.8937100305923],
            [-122.813835843663, 53.8936751564894],
            [-122.813813183157, 53.8936791480159],
            [-122.813723855948, 53.8935020968385],
            [-122.8138062131, 53.8934876009611],
            [-122.813799666688, 53.8934746209913],
            [-122.813521902051, 53.8935250984488],
            [-122.813568010149, 53.8936171811551],
            [-122.813588669344, 53.8936183816849],
            [-122.813605220164, 53.8936263798187],
            [-122.813609684059, 53.8936354377576],
            [-122.813613008537, 53.8936440804753],
            [-122.813606915755, 53.8936556926197],
            [-122.813599559158, 53.8936640670886],
            [-122.81359051503, 53.8936755128645],
            [-122.813560672022, 53.8936829446189],
            [-122.813594890754, 53.8937317401742],
            [-122.813512560973, 53.8937502176738],
            [-122.813528921623, 53.8937701786731],
            [-122.812895421545, 53.8939208312009],
            [-122.812836227727, 53.8938322152214],
            [-122.812878454885, 53.8938219806879],
            [-122.812849015404, 53.8937731024975],
            [-122.812765718416, 53.8937865895864],
            [-122.812748439532, 53.893754259436],
            [-122.812809795634, 53.8937437311876],
            [-122.812797089583, 53.8937232814433],
            [-122.812711262585, 53.893737681335],
            [-122.812672538228, 53.8936622108275],
            [-122.812752868446, 53.8936485573906],
            [-122.812740426338, 53.8936337525735],
            [-122.813381066488, 53.8935190643272],
            [-122.813394211723, 53.893533205052],
            [-122.813413622334, 53.89353115897],
            [-122.813406255331, 53.8935145375261],
            [-122.8134259476, 53.8935107481898],
            [-122.813416580961, 53.8934989412566],
            [-122.813466262977, 53.8934581585868],
            [-122.813433282788, 53.8933876047448],
            [-122.813482520888, 53.8933781358925],
            [-122.813473748025, 53.893362842506],
            [-122.813632876575, 53.8933340221288],
            [-122.813638010502, 53.8933498042005],
            [-122.813673755813, 53.8933427231341],
            [-122.813715242892, 53.8934303135569],
            [-122.814087546735, 53.893363129407],
            [-122.813903061711, 53.8930095666064],
            [-122.813762205539, 53.8930359259858],
            [-122.813775285061, 53.893064842993],
            [-122.813792868327, 53.8930630456819],
            [-122.813786877817, 53.8931098733435],
            [-122.813809206634, 53.8931153907097],
            [-122.813739339226, 53.8932060530894],
            [-122.813683850394, 53.8931669317052],
            [-122.813638544671, 53.8932639417801],
            [-122.813665282234, 53.8933182893357],
            [-122.813513759098, 53.893344380201],
            [-122.813406405888, 53.8933304346603],
            [-122.813390733722, 53.8933745867778],
            [-122.813262366414, 53.8934083531929],
            [-122.813301283419, 53.8933247076091],
            [-122.813220492031, 53.8933122862386],
            [-122.813213820582, 53.8933273938316],
            [-122.813193534593, 53.8933346695894],
            [-122.813176669338, 53.8933358028112],
            [-122.813164600218, 53.8933294743892],
            [-122.813150627829, 53.8933131752091],
            [-122.813182982708, 53.8932474506948],
            [-122.813059218864, 53.8932283291297],
            [-122.813056904546, 53.8932422750464],
            [-122.813043553956, 53.8932400971157],
            [-122.813025567111, 53.8932981951021],
            [-122.812738457213, 53.8932470907455],
            [-122.812449961768, 53.893247305548],
            [-122.812580059984, 53.8929661544257],
            [-122.812568684108, 53.8929341660188],
            [-122.812624647668, 53.8928124287529],
            [-122.812662458504, 53.8927857481786],
            [-122.812684894054, 53.8927366992045],
            [-122.812831563325, 53.8927578612136],
            [-122.812839813244, 53.8927368599115],
            [-122.812900606199, 53.8927498705554],
            [-122.812967302219, 53.8927222102527],
            [-122.813040463668, 53.8927085274786],
            [-122.813066090676, 53.8926739092931],
            [-122.813187878863, 53.8926682206414],
            [-122.813213858065, 53.8926023603581],
            [-122.813501129277, 53.8926437117552],
            [-122.813806154078, 53.8925868411463],
            [-122.813783547558, 53.8925274756781],
            [-122.813750411893, 53.8925124680913],
            [-122.813774955805, 53.8924919953334],
            [-122.813819936269, 53.8924781784888],
            [-122.813855879218, 53.8924709628528],
            [-122.813891358594, 53.8925269867159],
            [-122.813926974004, 53.8925215771579],
            [-122.813868103188, 53.8924047395519],
            [-122.813784719116, 53.8924145420951],
            [-122.813741238406, 53.8923237847788],
            [-122.813822041651, 53.8923091786215],
            [-122.813787035559, 53.892239169995],
            [-122.813692358331, 53.8922256757936],
            [-122.813662340527, 53.8922418527189],
            [-122.813627733097, 53.8922567372147],
            [-122.81358593122, 53.8922641234476],
            [-122.813541155254, 53.8922593801079],
            [-122.813498740185, 53.8922404392299],
            [-122.813476507701, 53.8922202354083],
            [-122.813280961566, 53.8922510482346],
            [-122.813313082936, 53.8923433340091],
            [-122.813227373901, 53.8923592534422],
            [-122.81322788329, 53.8923815177438],
            [-122.813109682998, 53.8923676449399],
            [-122.812989318973, 53.8923374193057],
            [-122.812978979524, 53.8923288734987],
            [-122.812948886637, 53.8923345250703],
            [-122.812859944597, 53.8922702654029],
            [-122.812878219288, 53.8922634988873],
            [-122.812866235242, 53.8922382056873],
            [-122.812793847959, 53.8922422633137],
            [-122.812756352314, 53.8921577077657],
            [-122.812717998095, 53.8920814378888],
            [-122.812720968071, 53.8920706028794],
            [-122.81295437133, 53.8920297113786],
            [-122.812941576627, 53.8920019541843],
            [-122.812920652391, 53.8920057684862],
            [-122.812902019635, 53.8919700836788],
            [-122.812876191784, 53.8919747891407],
            [-122.812828440971, 53.8918833057824],
            [-122.812863786656, 53.891876871476],
            [-122.812817439032, 53.8917880867274],
            [-122.812923810895, 53.8917687124038],
            [-122.812743445476, 53.8914231984794],
            [-122.812828999132, 53.8914076117079],
            [-122.812812011243, 53.8913750662925],
            [-122.813171265549, 53.8913096262931],
            [-122.813179487974, 53.8913253952199],
            [-122.813241132598, 53.891314175115],
            [-122.813249883121, 53.8913309515252],
            [-122.813276228316, 53.8913261479183],
            [-122.81334187305, 53.8914519035722],
            [-122.81335962944, 53.8914486684984],
            [-122.813514668087, 53.8917456423944],
            [-122.813416961609, 53.8917634398156],
            [-122.813449007453, 53.8918248333617],
            [-122.813494482562, 53.8919116750811],
            [-122.813608364569, 53.8919006437816],
            [-122.81369890878, 53.8919058176495],
            [-122.813826706886, 53.8919271109487],
            [-122.814000460406, 53.891749164313],
            [-122.814049019549, 53.8917653551866],
            [-122.814063138201, 53.8917520926487],
            [-122.814085283111, 53.8917371797406],
            [-122.814100650319, 53.8917271548459],
            [-122.814073327983, 53.8917086689661],
            [-122.814104732443, 53.8916953522983],
            [-122.814142460553, 53.8916834475545],
            [-122.814178907247, 53.8916757023036],
            [-122.81423165528, 53.8916703011944],
            [-122.8142357567, 53.8916958876589],
            [-122.814257117896, 53.8916964150537],
            [-122.814283678532, 53.8916979571544],
            [-122.814314454183, 53.8917029032681],
            [-122.814327968161, 53.8916681222643],
            [-122.81455442349, 53.8917041010725],
            [-122.814548034388, 53.8917174654889],
            [-122.814573595379, 53.8917214058026],
            [-122.814595870967, 53.8916769221698],
            [-122.81516073819, 53.8917673145724],
            [-122.815111842583, 53.8918824217181],
            [-122.814958727014, 53.8918570281506],
            [-122.814932138751, 53.8919202633548],
            [-122.81488170413, 53.891911718816],
            [-122.81487773578, 53.8919213479346],
            [-122.814836436391, 53.891911568117],
            [-122.814823673556, 53.8919382880141],
            [-122.814500562735, 53.8918886243461],
            [-122.814482721599, 53.8919041012425],
            [-122.814462435344, 53.8919185137624],
            [-122.814439917554, 53.8919317364014],
            [-122.814415336122, 53.8919436525726],
            [-122.814388934987, 53.8919541547947],
            [-122.814360958087, 53.8919631355865],
            [-122.814331664418, 53.8919705234427],
            [-122.81430129776, 53.8919762468346],
            [-122.814270162679, 53.8919802523041],
            [-122.814238517974, 53.8919825132866],
            [-122.814206668132, 53.8919829943006],
            [-122.814174887008, 53.8919817047579],
            [-122.814143494147, 53.8919786451532],
            [-122.814112748069, 53.8919738518394],
            [-122.814082937724, 53.8919673612168],
            [-122.81406006533, 53.8919610251416],
            [-122.814028743878, 53.8919521682963],
            [-122.81393734508, 53.8920468690603],
            [-122.813857036556, 53.8921454518291],
            [-122.813881102221, 53.8922085855608],
            [-122.813962149772, 53.8921937280212],
            [-122.813975332589, 53.8922301951701],
            [-122.813894353304, 53.8922433720507],
            [-122.813907980585, 53.8922791118601],
            [-122.814274087623, 53.8922172564492],
            [-122.814278517608, 53.8922305297291],
            [-122.814348741309, 53.8922202121485],
            [-122.814399751208, 53.8923187735626],
            [-122.814341671769, 53.8923287054889],
            [-122.814345437248, 53.8923442876787],
            [-122.813976718907, 53.8924080087841],
            [-122.813990281134, 53.8924310123531],
            [-122.814072349929, 53.8924158507264],
            [-122.814089411764, 53.8924594783911],
            [-122.814014158495, 53.8924715227309],
            [-122.814047157892, 53.8925275247299],
            [-122.814082206212, 53.8926087414949]
          ]
        ]
      },
      "properties": {
        "OBJECTID": 96018,
        "Name": "University of Northern British Columbia",
        "Description": null,
        "BuildingType": 4,
        "FloorCount": null,
        "Shape__Area": 25221.426025390625
      }
    }
  ]
}
