{
  "type": "FeatureCollection",
  "features": [
    {
      "type": "Feature",
      "properties": {
        "access_type": "public",
        "from_level_id": null,
        "is_accessible": true,
        "level_id": 0,
        "network_type": "corridor",
        "to_level_id": null,
        "vertical_connection_id": null
      },
      "geometry": {
        "type": "LineString",
        "coordinates": [
          [-0.1274557, 51.5074246],
          [-0.1273113, 51.5074246],
          [-0.1270588, 51.5074246],
          [-0.1268784, 51.5074246],
          [-0.1268062, 51.5074246],
          [-0.1263732, 51.5074246],
          [-0.1263011, 51.5074246]
        ]
      }
    },
    {
      "type": "Feature",
      "properties": {
        "access_type": "public",
        "from_level_id": null,
        "is_accessible": true,
        "level_id": 0,
        "network_type": "corridor",
        "to_level_id": null,
        "vertical_connection_id": null
      },
      "geometry": {
        "type": "LineString",
        "coordinates": [
          [-0.1273113, 51.5074246],
          [-0.1273113, 51.5073797],
          [-0.1273113, 51.5072898]
        ]
      }
    },
    {
      "type": "Feature",
      "properties": {
        "access_type": "public",
        "from_level_id": null,
        "is_accessible": true,
        "level_id": 0,
        "network_type": "corridor",
        "to_level_id": null,
        "vertical_connection_id": null
      },
      "geometry": {
        "type": "LineString",
        "coordinates": [
          [-0.1273113, 51.5074246],
          [-0.1273113, 51.5074695],
          [-0.1273113, 51.5075593]
        ]
      }
    },
    {
      "type": "Feature",
      "properties": {
        "access_type": "public",
        "from_level_id": null,
        "is_accessible": true,
        "level_id": 0,
        "network_type": "corridor",
        "to_level_id": null,
        "vertical_connection_id": null
      },
      "geometry": {
        "type": "LineString",
        "coordinates": [
          [-0.1268062, 51.5074246],
          [-0.1268062, 51.5073797],
          [-0.1268062, 51.5072898]
        ]
      }
    },
    {
      "type": "Feature",
      "properties": {
        "access_type": "public",
        "from_level_id": null,
        "is_accessible": true,
        "level_id": 0,
        "network_type": "corridor",
        "to_level_id": null,
        "vertical_connection_id": null
      },
      "geometry": {
        "type": "LineString",
        "coordinates": [
          [-0.1268062, 51.5074246],
          [-0.1268062, 51.5074695],
          [-0.1268062, 51.5075593]
        ]
      }
    },
    {
      "type": "Feature",
      "properties": {
        "access_type": "public",
        "from_level_id": null,
        "is_accessible": true,
        "level_id": 0,
        "network_type": "corridor",
        "to_level_id": null,
        "vertical_connection_id": null
      },
      "geometry": {
        "type": "LineString",
        "coordinates": [
          [-0.1263732, 51.5074246],
          [-0.1263732, 51.5073797],
          [-0.1263732, 51.5072898]
        ]
      }
    },
    {
      "type": "Feature",
      "properties": {
        "access_type": "public",
        "from_level_id": null,
        "is_accessible": true,
        "level_id": 0,
        "network_type": "corridor",
        "to_level_id": null,
        "vertical_connection_id": null
      },
      "geometry": {
        "type": "LineString",
        "coordinates": [
          [-0.1263732, 51.5074246],
          [-0.1263732, 51.5074695],
          [-0.1263732, 51.5075593]
        ]
      }
    },
    {
      "type": "Feature",
      "properties": {
        "access_type": "public",
        "from_level_id": null,
        "is_accessible": true,
        "level_id": 0,
        "network_type": "corridor",
        "to_level_id": null,
        "vertical_connection_id": null
      },
      "geometry": {
        "type": "LineString",
        "coordinates": [
          [-0.1270588, 51.5074246],
          [-0.1270588, 51.5073797],
          [-0.1270588, 51.5072]
        ]
      }
    },
    {
      "type": "Feature",
      "properties": {
        "access_type": "public",
        "from_level_id": null,
        "is_accessible": true,
        "level_id": 1,
        "network_type": "corridor",
        "to_level_id": null,
        "vertical_connection_id": null
      },
      "geometry": {
        "type": "LineString",
        "coordinates": [
          [-0.1273979, 51.5074246],
          [-0.1272392, 51.5074246],
          [-0.1268206, 51.5074246],
          [-0.1265608, 51.5074246],
          [-0.1262578, 51.5074246]
        ]
      }
    },
    {
      "type": "Feature",
      "properties": {
        "access_type": "public",
        "from_level_id": null,
        "is_accessible": true,
        "level_id": 1,
        "network_type": "corridor",
        "to_level_id": null,
        "vertical_connection_id": null
      },
      "geometry": {
        "type": "LineString",
        "coordinates": [
          [-0.1272392, 51.5074246],
          [-0.1272392, 51.5073797],
          [-0.1272392, 51.5072898]
        ]
      }
    },
    {
      "type": "Feature",
      "properties": {
        "access_type": "public",
        "from_level_id": null,
        "is_accessible": true,
        "level_id": 1,
        "network_type": "corridor",
        "to_level_id": null,
        "vertical_connection_id": null
      },
      "geometry": {
        "type": "LineString",
        "coordinates": [
          [-0.1272392, 51.5074246],
          [-0.1272392, 51.5074695],
          [-0.1272392, 51.5075593]
        ]
      }
    },
    {
      "type": "Feature",
      "properties": {
        "access_type": "public",
        "from_level_id": null,
        "is_accessible": true,
        "level_id": 1,
        "network_type": "corridor",
        "to_level_id": null,
        "vertical_connection_id": null
      },
      "geometry": {
        "type": "LineString",
        "coordinates": [
          [-0.1265608, 51.5074246],
          [-0.1265608, 51.5073797],
          [-0.1265608, 51.5072898]
        ]
      }
    },
    {
      "type": "Feature",
      "properties": {
        "access_type": "public",
        "from_level_id": null,
        "is_accessible": true,
        "level_id": 1,
        "network_type": "corridor",
        "to_level_id": null,
        "vertical_connection_id": null
      },
      "geometry": {
        "type": "LineString",
        "coordinates": [
          [-0.1265608, 51.5074246],
          [-0.1265608, 51.5074695],
          [-0.1265608, 51.5075593]
        ]
      }
    },
    {
      "type": "Feature",
      "properties": {
        "access_type": "public",
        "from_level_id": 0,
        "is_accessible": false,
        "level_id": null,
        "network_type": "stairs",
        "to_level_id": 1,
        "vertical_connection_id": "stairs-west",
        "cost": 60
      },
      "geometry": {
        "type": "LineString",
        "coordinates": [
          [-0.1274557, 51.5074246],
          [-0.1273979, 51.5074246]
        ]
      }
    },
    {
      "type": "Feature",
      "properties": {
        "access_type": "public",
        "from_level_id": 0,
        "is_accessible": false,
        "level_id": null,
        "network_type": "escalator",
        "to_level_id": 1,
        "vertical_connection_id": "escalator-central",
        "cost": 45,
        "direction": "forward"
      },
      "geometry": {
        "type": "LineString",
        "coordinates": [
          [-0.1268784, 51.5074246],
          [-0.1268206, 51.5074246]
        ]
      }
    },
    {
      "type": "Feature",
      "properties": {
        "access_type": "public",
        "from_level_id": 0,
        "is_accessible": true,
        "level_id": null,
        "network_type": "elevator",
        "to_level_id": 1,
        "vertical_connection_id": "elevator-east",
        "cost": 105
      },
      "geometry": {
        "type": "LineString",
        "coordinates": [
          [-0.1263011, 51.5074246],
          [-0.1262578, 51.5074246]
        ]
      }
    }
  ]
}
