{
  "type": "FeatureCollection",
  "features": [
    {
      "type": "Feature",
      "id": "outline-0",
      "properties": {
        "feature_type": "floor_outline",
        "level_id": 0,
        "name": "Level 0 outline"
      },
      "geometry": {
        "type": "Polygon",
        "coordinates": [
          [
            [-0.1276, 51.5072],
            [-0.1261567, 51.5072],
            [-0.1261567, 51.5076492],
            [-0.1276, 51.5076492],
            [-0.1276, 51.5072]
          ]
        ]
      }
    },
    {
      "type": "Feature",
      "id": "corridor-0",
      "properties": {
        "feature_type": "corridor",
        "level_id": 0,
        "name": "Level 0 corridor"
      },
      "geometry": {
        "type": "Polygon",
        "coordinates": [
          [
            [-0.1275278, 51.5073797],
            [-0.1262289, 51.5073797],
            [-0.1262289, 51.5074695],
            [-0.1275278, 51.5074695],
            [-0.1275278, 51.5073797]
          ]
        ]
      }
    },
    {
      "type": "Feature",
      "id": "outline-1",
      "properties": {
        "feature_type": "floor_outline",
        "level_id": 1,
        "name": "Level 1 outline"
      },
      "geometry": {
        "type": "Polygon",
        "coordinates": [
          [
            [-0.1276, 51.5072],
            [-0.1261567, 51.5072],
            [-0.1261567, 51.5076492],
            [-0.1276, 51.5076492],
            [-0.1276, 51.5072]
          ]
        ]
      }
    },
    {
      "type": "Feature",
      "id": "corridor-1",
      "properties": {
        "feature_type": "corridor",
        "level_id": 1,
        "name": "Level 1 corridor"
      },
      "geometry": {
        "type": "Polygon",
        "coordinates": [
          [
            [-0.1275278, 51.5073797],
            [-0.1262289, 51.5073797],
            [-0.1262289, 51.5074695],
            [-0.1275278, 51.5074695],
            [-0.1275278, 51.5073797]
          ]
        ]
      }
    },
    {
      "type": "Feature",
      "id": 1,
      "properties": {
        "feature_type": "unit",
        "level_id": 0,
        "name": "Lumen Electronics",
        "category": "electronics"
      },
      "geometry": {
        "type": "Polygon",
        "coordinates": [
          [
            [-0.1275278, 51.5072],
            [-0.1270949, 51.5072],
            [-0.1270949, 51.5073797],
            [-0.1275278, 51.5073797],
            [-0.1275278, 51.5072]
          ]
        ]
      }
    },
    {
      "type": "Feature",
      "id": 2,
      "properties": {
        "feature_type": "unit",
        "level_id": 0,
        "name": "Verde Grocer",
        "category": "grocery"
      },
      "geometry": {
        "type": "Polygon",
        "coordinates": [
          [
            [-0.1270227, 51.5072],
            [-0.1265897, 51.5072],
            [-0.1265897, 51.5073797],
            [-0.1270227, 51.5073797],
            [-0.1270227, 51.5072]
          ]
        ]
      }
    },
    {
      "type": "Feature",
      "id": 3,
      "properties": {
        "feature_type": "unit",
        "level_id": 0,
        "name": "Atlas Books",
        "category": "books"
      },
      "geometry": {
        "type": "Polygon",
        "coordinates": [
          [
            [-0.1265176, 51.5072],
            [-0.1262289, 51.5072],
            [-0.1262289, 51.5073797],
            [-0.1265176, 51.5073797],
            [-0.1265176, 51.5072]
          ]
        ]
      }
    },
    {
      "type": "Feature",
      "id": 4,
      "properties": {
        "feature_type": "unit",
        "level_id": 0,
        "name": "Northwind Apparel",
        "category": "clothing"
      },
      "geometry": {
        "type": "Polygon",
        "coordinates": [
          [
            [-0.1275278, 51.5074695],
            [-0.1270949, 51.5074695],
            [-0.1270949, 51.5076492],
            [-0.1275278, 51.5076492],
            [-0.1275278, 51.5074695]
          ]
        ]
      }
    },
    {
      "type": "Feature",
      "id": 5,
      "properties": {
        "feature_type": "unit",
        "level_id": 0,
        "name": "Cafe Aroma",
        "category": "cafe"
      },
      "geometry": {
        "type": "Polygon",
        "coordinates": [
          [
            [-0.1270227, 51.5074695],
            [-0.1265897, 51.5074695],
            [-0.1265897, 51.5076492],
            [-0.1270227, 51.5076492],
            [-0.1270227, 51.5074695]
          ]
        ]
      }
    },
    {
      "type": "Feature",
      "id": 6,
      "properties": {
        "feature_type": "unit",
        "level_id": 0,
        "name": "Restrooms",
        "category": "restrooms"
      },
      "geometry": {
        "type": "Polygon",
        "coordinates": [
          [
            [-0.1265176, 51.5074695],
            [-0.1262289, 51.5074695],
            [-0.1262289, 51.5076492],
            [-0.1265176, 51.5076492],
            [-0.1265176, 51.5074695]
          ]
        ]
      }
    },
    {
      "type": "Feature",
      "id": 7,
      "properties": {
        "feature_type": "unit",
        "level_id": 1,
        "name": "Pixel Toys",
        "category": "toys"
      },
      "geometry": {
        "type": "Polygon",
        "coordinates": [
          [
            [-0.1275278, 51.5072],
            [-0.1269505, 51.5072],
            [-0.1269505, 51.5073797],
            [-0.1275278, 51.5073797],
            [-0.1275278, 51.5072]
          ]
        ]
      }
    },
    {
      "type": "Feature",
      "id": 8,
      "properties": {
        "feature_type": "unit",
        "level_id": 1,
        "name": "Galleria Food Hall",
        "category": "food-court"
      },
      "geometry": {
        "type": "Polygon",
        "coordinates": [
          [
            [-0.1268784, 51.5072],
            [-0.1262289, 51.5072],
            [-0.1262289, 51.5073797],
            [-0.1268784, 51.5073797],
            [-0.1268784, 51.5072]
          ]
        ]
      }
    },
    {
      "type": "Feature",
      "id": 9,
      "properties": {
        "feature_type": "unit",
        "level_id": 1,
        "name": "Orbit Sports",
        "category": "sports"
      },
      "geometry": {
        "type": "Polygon",
        "coordinates": [
          [
            [-0.1275278, 51.5074695],
            [-0.1269505, 51.5074695],
            [-0.1269505, 51.5076492],
            [-0.1275278, 51.5076492],
            [-0.1275278, 51.5074695]
          ]
        ]
      }
    },
    {
      "type": "Feature",
      "id": 10,
      "properties": {
        "feature_type": "unit",
        "level_id": 1,
        "name": "Nova Pharmacy",
        "category": "pharmacy"
      },
      "geometry": {
        "type": "Polygon",
        "coordinates": [
          [
            [-0.1268784, 51.5074695],
            [-0.1262289, 51.5074695],
            [-0.1262289, 51.5076492],
            [-0.1268784, 51.5076492],
            [-0.1268784, 51.5074695]
          ]
        ]
      }
    },
    {
      "type": "Feature",
      "id": "stairs-west-l0",
      "properties": {
        "feature_type": "vertical_connection",
        "level_id": 0,
        "name": "West Staircase",
        "connection_type": "stairs",
        "vertical_connection_id": "stairs-west"
      },
      "geometry": {
        "type": "Polygon",
        "coordinates": [
          [
            [-0.1274557, 51.5073886],
            [-0.1273979, 51.5073886],
            [-0.1273979, 51.5074605],
            [-0.1274557, 51.5074605],
            [-0.1274557, 51.5073886]
          ]
        ]
      }
    },
    {
      "type": "Feature",
      "id": "stairs-west-l1",
      "properties": {
        "feature_type": "vertical_connection",
        "level_id": 1,
        "name": "West Staircase",
        "connection_type": "stairs",
        "vertical_connection_id": "stairs-west"
      },
      "geometry": {
        "type": "Polygon",
        "coordinates": [
          [
            [-0.1274557, 51.5073886],
            [-0.1273979, 51.5073886],
            [-0.1273979, 51.5074605],
            [-0.1274557, 51.5074605],
            [-0.1274557, 51.5073886]
          ]
        ]
      }
    },
    {
      "type": "Feature",
      "id": "escalator-central-l0",
      "properties": {
        "feature_type": "vertical_connection",
        "level_id": 0,
        "name": "Central Escalator",
        "connection_type": "escalator",
        "vertical_connection_id": "escalator-central"
      },
      "geometry": {
        "type": "Polygon",
        "coordinates": [
          [
            [-0.1268784, 51.5073886],
            [-0.1268206, 51.5073886],
            [-0.1268206, 51.5074605],
            [-0.1268784, 51.5074605],
            [-0.1268784, 51.5073886]
          ]
        ]
      }
    },
    {
      "type": "Feature",
      "id": "escalator-central-l1",
      "properties": {
        "feature_type": "vertical_connection",
        "level_id": 1,
        "name": "Central Escalator",
        "connection_type": "escalator",
        "vertical_connection_id": "escalator-central"
      },
      "geometry": {
        "type": "Polygon",
        "coordinates": [
          [
            [-0.1268784, 51.5073886],
            [-0.1268206, 51.5073886],
            [-0.1268206, 51.5074605],
            [-0.1268784, 51.5074605],
            [-0.1268784, 51.5073886]
          ]
        ]
      }
    },
    {
      "type": "Feature",
      "id": "elevator-east-l0",
      "properties": {
        "feature_type": "vertical_connection",
        "level_id": 0,
        "name": "East Elevator",
        "connection_type": "elevator",
        "vertical_connection_id": "elevator-east"
      },
      "geometry": {
        "type": "Polygon",
        "coordinates": [
          [
            [-0.1263011, 51.5073886],
            [-0.1262578, 51.5073886],
            [-0.1262578, 51.5074605],
            [-0.1263011, 51.5074605],
            [-0.1263011, 51.5073886]
          ]
        ]
      }
    },
    {
      "type": "Feature",
      "id": "elevator-east-l1",
      "properties": {
        "feature_type": "vertical_connection",
        "level_id": 1,
        "name": "East Elevator",
        "connection_type": "elevator",
        "vertical_connection_id": "elevator-east"
      },
      "geometry": {
        "type": "Polygon",
        "coordinates": [
          [
            [-0.1263011, 51.5073886],
            [-0.1262578, 51.5073886],
            [-0.1262578, 51.5074605],
            [-0.1263011, 51.5074605],
            [-0.1263011, 51.5073886]
          ]
        ]
      }
    },
    {
      "type": "Feature",
      "properties": {
        "connection_type": "stairs",
        "feature_type": "vertical_detail",
        "level_id": 0,
        "vertical_connection_id": "stairs-west"
      },
      "geometry": {
        "type": "LineString",
        "coordinates": [
          [-0.1274485, 51.5073931],
          [-0.1274485, 51.507456]
        ]
      }
    },
    {
      "type": "Feature",
      "properties": {
        "connection_type": "stairs",
        "feature_type": "vertical_detail",
        "level_id": 0,
        "vertical_connection_id": "stairs-west"
      },
      "geometry": {
        "type": "LineString",
        "coordinates": [
          [-0.1274412, 51.5073931],
          [-0.1274412, 51.507456]
        ]
      }
    },
    {
      "type": "Feature",
      "properties": {
        "connection_type": "stairs",
        "feature_type": "vertical_detail",
        "level_id": 0,
        "vertical_connection_id": "stairs-west"
      },
      "geometry": {
        "type": "LineString",
        "coordinates": [
          [-0.127434, 51.5073931],
          [-0.127434, 51.507456]
        ]
      }
    },
    {
      "type": "Feature",
      "properties": {
        "connection_type": "stairs",
        "feature_type": "vertical_detail",
        "level_id": 0,
        "vertical_connection_id": "stairs-west"
      },
      "geometry": {
        "type": "LineString",
        "coordinates": [
          [-0.1274268, 51.5073931],
          [-0.1274268, 51.507456]
        ]
      }
    },
    {
      "type": "Feature",
      "properties": {
        "connection_type": "stairs",
        "feature_type": "vertical_detail",
        "level_id": 0,
        "vertical_connection_id": "stairs-west"
      },
      "geometry": {
        "type": "LineString",
        "coordinates": [
          [-0.1274196, 51.5073931],
          [-0.1274196, 51.507456]
        ]
      }
    },
    {
      "type": "Feature",
      "properties": {
        "connection_type": "stairs",
        "feature_type": "vertical_detail",
        "level_id": 0,
        "vertical_connection_id": "stairs-west"
      },
      "geometry": {
        "type": "LineString",
        "coordinates": [
          [-0.1274124, 51.5073931],
          [-0.1274124, 51.507456]
        ]
      }
    },
    {
      "type": "Feature",
      "properties": {
        "connection_type": "stairs",
        "feature_type": "vertical_detail",
        "level_id": 0,
        "vertical_connection_id": "stairs-west"
      },
      "geometry": {
        "type": "LineString",
        "coordinates": [
          [-0.1274052, 51.5073931],
          [-0.1274052, 51.507456]
        ]
      }
    },
    {
      "type": "Feature",
      "properties": {
        "connection_type": "stairs",
        "feature_type": "vertical_detail",
        "level_id": 0,
        "vertical_connection_id": "stairs-west"
      },
      "geometry": {
        "type": "LineString",
        "coordinates": [
          [-0.1274499, 51.5074246],
          [-0.1274037, 51.5074246]
        ]
      }
    },
    {
      "type": "Feature",
      "properties": {
        "connection_type": "stairs",
        "feature_type": "vertical_detail",
        "level_id": 1,
        "vertical_connection_id": "stairs-west"
      },
      "geometry": {
        "type": "LineString",
        "coordinates": [
          [-0.1274485, 51.5073931],
          [-0.1274485, 51.507456]
        ]
      }
    },
    {
      "type": "Feature",
      "properties": {
        "connection_type": "stairs",
        "feature_type": "vertical_detail",
        "level_id": 1,
        "vertical_connection_id": "stairs-west"
      },
      "geometry": {
        "type": "LineString",
        "coordinates": [
          [-0.1274412, 51.5073931],
          [-0.1274412, 51.507456]
        ]
      }
    },
    {
      "type": "Feature",
      "properties": {
        "connection_type": "stairs",
        "feature_type": "vertical_detail",
        "level_id": 1,
        "vertical_connection_id": "stairs-west"
      },
      "geometry": {
        "type": "LineString",
        "coordinates": [
          [-0.127434, 51.5073931],
          [-0.127434, 51.507456]
        ]
      }
    },
    {
      "type": "Feature",
      "properties": {
        "connection_type": "stairs",
        "feature_type": "vertical_detail",
        "level_id": 1,
        "vertical_connection_id": "stairs-west"
      },
      "geometry": {
        "type": "LineString",
        "coordinates": [
          [-0.1274268, 51.5073931],
          [-0.1274268, 51.507456]
        ]
      }
    },
    {
      "type": "Feature",
      "properties": {
        "connection_type": "stairs",
        "feature_type": "vertical_detail",
        "level_id": 1,
        "vertical_connection_id": "stairs-west"
      },
      "geometry": {
        "type": "LineString",
        "coordinates": [
          [-0.1274196, 51.5073931],
          [-0.1274196, 51.507456]
        ]
      }
    },
    {
      "type": "Feature",
      "properties": {
        "connection_type": "stairs",
        "feature_type": "vertical_detail",
        "level_id": 1,
        "vertical_connection_id": "stairs-west"
      },
      "geometry": {
        "type": "LineString",
        "coordinates": [
          [-0.1274124, 51.5073931],
          [-0.1274124, 51.507456]
        ]
      }
    },
    {
      "type": "Feature",
      "properties": {
        "connection_type": "stairs",
        "feature_type": "vertical_detail",
        "level_id": 1,
        "vertical_connection_id": "stairs-west"
      },
      "geometry": {
        "type": "LineString",
        "coordinates": [
          [-0.1274052, 51.5073931],
          [-0.1274052, 51.507456]
        ]
      }
    },
    {
      "type": "Feature",
      "properties": {
        "connection_type": "stairs",
        "feature_type": "vertical_detail",
        "level_id": 1,
        "vertical_connection_id": "stairs-west"
      },
      "geometry": {
        "type": "LineString",
        "coordinates": [
          [-0.1274499, 51.5074246],
          [-0.1274037, 51.5074246]
        ]
      }
    },
    {
      "type": "Feature",
      "properties": {
        "connection_type": "escalator",
        "feature_type": "vertical_detail",
        "level_id": 0,
        "vertical_connection_id": "escalator-central"
      },
      "geometry": {
        "type": "LineString",
        "coordinates": [
          [-0.1268726, 51.5074021],
          [-0.1268582, 51.5074246],
          [-0.1268726, 51.507447]
        ]
      }
    },
    {
      "type": "Feature",
      "properties": {
        "connection_type": "escalator",
        "feature_type": "vertical_detail",
        "level_id": 0,
        "vertical_connection_id": "escalator-central"
      },
      "geometry": {
        "type": "LineString",
        "coordinates": [
          [-0.1268582, 51.5074021],
          [-0.1268437, 51.5074246],
          [-0.1268582, 51.507447]
        ]
      }
    },
    {
      "type": "Feature",
      "properties": {
        "connection_type": "escalator",
        "feature_type": "vertical_detail",
        "level_id": 0,
        "vertical_connection_id": "escalator-central"
      },
      "geometry": {
        "type": "LineString",
        "coordinates": [
          [-0.1268437, 51.5074021],
          [-0.1268293, 51.5074246],
          [-0.1268437, 51.507447]
        ]
      }
    },
    {
      "type": "Feature",
      "properties": {
        "connection_type": "escalator",
        "feature_type": "vertical_detail",
        "level_id": 1,
        "vertical_connection_id": "escalator-central"
      },
      "geometry": {
        "type": "LineString",
        "coordinates": [
          [-0.1268726, 51.5074021],
          [-0.1268582, 51.5074246],
          [-0.1268726, 51.507447]
        ]
      }
    },
    {
      "type": "Feature",
      "properties": {
        "connection_type": "escalator",
        "feature_type": "vertical_detail",
        "level_id": 1,
        "vertical_connection_id": "escalator-central"
      },
      "geometry": {
        "type": "LineString",
        "coordinates": [
          [-0.1268582, 51.5074021],
          [-0.1268437, 51.5074246],
          [-0.1268582, 51.507447]
        ]
      }
    },
    {
      "type": "Feature",
      "properties": {
        "connection_type": "escalator",
        "feature_type": "vertical_detail",
        "level_id": 1,
        "vertical_connection_id": "escalator-central"
      },
      "geometry": {
        "type": "LineString",
        "coordinates": [
          [-0.1268437, 51.5074021],
          [-0.1268293, 51.5074246],
          [-0.1268437, 51.507447]
        ]
      }
    },
    {
      "type": "Feature",
      "properties": {
        "connection_type": "elevator",
        "feature_type": "vertical_detail",
        "level_id": 0,
        "vertical_connection_id": "elevator-east"
      },
      "geometry": {
        "type": "LineString",
        "coordinates": [
          [-0.1262953, 51.5073922],
          [-0.1262635, 51.5074569]
        ]
      }
    },
    {
      "type": "Feature",
      "properties": {
        "connection_type": "elevator",
        "feature_type": "vertical_detail",
        "level_id": 0,
        "vertical_connection_id": "elevator-east"
      },
      "geometry": {
        "type": "LineString",
        "coordinates": [
          [-0.1262953, 51.5074569],
          [-0.1262635, 51.5073922]
        ]
      }
    },
    {
      "type": "Feature",
      "properties": {
        "connection_type": "elevator",
        "feature_type": "vertical_detail",
        "level_id": 1,
        "vertical_connection_id": "elevator-east"
      },
      "geometry": {
        "type": "LineString",
        "coordinates": [
          [-0.1262953, 51.5073922],
          [-0.1262635, 51.5074569]
        ]
      }
    },
    {
      "type": "Feature",
      "properties": {
        "connection_type": "elevator",
        "feature_type": "vertical_detail",
        "level_id": 1,
        "vertical_connection_id": "elevator-east"
      },
      "geometry": {
        "type": "LineString",
        "coordinates": [
          [-0.1262953, 51.5074569],
          [-0.1262635, 51.5073922]
        ]
      }
    }
  ]
}
