{
  "type": "FeatureCollection",
  "features": [
    {
      "type": "Feature",
      "properties": {
        "building_id": "galleria",
        "floor": 0,
        "id": 1,
        "metadata": {
          "category": "electronics",
          "openingHours": {
            "mon-sun": "09:00-21:00"
          },
          "keywords": ["lumen electronics", "electronics"]
        },
        "name": "Lumen Electronics",
        "type": "store"
      },
      "geometry": {
        "type": "Point",
        "coordinates": [-0.1273113, 51.5072898]
      }
    },
    {
      "type": "Feature",
      "properties": {
        "building_id": "galleria",
        "floor": 0,
        "id": 2,
        "metadata": {
          "category": "grocery",
          "openingHours": {
            "mon-sun": "09:00-21:00"
          },
          "keywords": ["verde grocer", "grocery"]
        },
        "name": "Verde Grocer",
        "type": "store"
      },
      "geometry": {
        "type": "Point",
        "coordinates": [-0.1268062, 51.5072898]
      }
    },
    {
      "type": "Feature",
      "properties": {
        "building_id": "galleria",
        "floor": 0,
        "id": 3,
        "metadata": {
          "category": "books",
          "openingHours": {
            "mon-sun": "09:00-21:00"
          },
          "keywords": ["atlas books", "books"]
        },
        "name": "Atlas Books",
        "type": "store"
      },
      "geometry": {
        "type": "Point",
        "coordinates": [-0.1263732, 51.5072898]
      }
    },
    {
      "type": "Feature",
      "properties": {
        "building_id": "galleria",
        "floor": 0,
        "id": 4,
        "metadata": {
          "category": "clothing",
          "openingHours": {
            "mon-sun": "09:00-21:00"
          },
          "keywords": ["northwind apparel", "clothing"]
        },
        "name": "Northwind Apparel",
        "type": "store"
      },
      "geometry": {
        "type": "Point",
        "coordinates": [-0.1273113, 51.5075593]
      }
    },
    {
      "type": "Feature",
      "properties": {
        "building_id": "galleria",
        "floor": 0,
        "id": 5,
        "metadata": {
          "category": "cafe",
          "openingHours": {
            "mon-sun": "09:00-21:00"
          },
          "keywords": ["cafe aroma", "cafe"]
        },
        "name": "Cafe Aroma",
        "type": "restaurant"
      },
      "geometry": {
        "type": "Point",
        "coordinates": [-0.1268062, 51.5075593]
      }
    },
    {
      "type": "Feature",
      "properties": {
        "building_id": "galleria",
        "floor": 0,
        "id": 6,
        "metadata": {
          "category": "restrooms"
        },
        "name": "Restrooms",
        "type": "amenity"
      },
      "geometry": {
        "type": "Point",
        "coordinates": [-0.1263732, 51.5075593]
      }
    },
    {
      "type": "Feature",
      "properties": {
        "building_id": "galleria",
        "floor": 0,
        "id": 7,
        "metadata": {
          "category": "entrance-exit"
        },
        "name": "Galleria Main Entrance",
        "type": "entrance"
      },
      "geometry": {
        "type": "Point",
        "coordinates": [-0.1270588, 51.5072]
      }
    },
    {
      "type": "Feature",
      "properties": {
        "building_id": "galleria",
        "floor": 1,
        "id": 8,
        "metadata": {
          "category": "toys",
          "openingHours": {
            "mon-sun": "09:00-21:00"
          },
          "keywords": ["pixel toys", "toys"]
        },
        "name": "Pixel Toys",
        "type": "store"
      },
      "geometry": {
        "type": "Point",
        "coordinates": [-0.1272392, 51.5072898]
      }
    },
    {
      "type": "Feature",
      "properties": {
        "building_id": "galleria",
        "floor": 1,
        "id": 9,
        "metadata": {
          "category": "food-court",
          "openingHours": {
            "mon-sun": "09:00-21:00"
          },
          "keywords": ["galleria food hall", "food-court"]
        },
        "name": "Galleria Food Hall",
        "type": "restaurant"
      },
      "geometry": {
        "type": "Point",
        "coordinates": [-0.1265608, 51.5072898]
      }
    },
    {
      "type": "Feature",
      "properties": {
        "building_id": "galleria",
        "floor": 1,
        "id": 10,
        "metadata": {
          "category": "sports",
          "openingHours": {
            "mon-sun": "09:00-21:00"
          },
          "keywords": ["orbit sports", "sports"]
        },
        "name": "Orbit Sports",
        "type": "store"
      },
      "geometry": {
        "type": "Point",
        "coordinates": [-0.1272392, 51.5075593]
      }
    },
    {
      "type": "Feature",
      "properties": {
        "building_id": "galleria",
        "floor": 1,
        "id": 11,
        "metadata": {
          "category": "pharmacy",
          "openingHours": {
            "mon-sun": "09:00-21:00"
          },
          "keywords": ["nova pharmacy", "pharmacy"]
        },
        "name": "Nova Pharmacy",
        "type": "store"
      },
      "geometry": {
        "type": "Point",
        "coordinates": [-0.1265608, 51.5075593]
      }
    },
    {
      "type": "Feature",
      "properties": {
        "building_id": "galleria",
        "floor": 0,
        "id": 12,
        "metadata": {
          "category": "elevator"
        },
        "name": "East Elevator",
        "type": "amenity"
      },
      "geometry": {
        "type": "Point",
        "coordinates": [-0.1262794, 51.5074246]
      }
    },
    {
      "type": "Feature",
      "properties": {
        "building_id": "galleria",
        "floor": 0,
        "id": 13,
        "metadata": {
          "category": "stairs"
        },
        "name": "West Staircase",
        "type": "amenity"
      },
      "geometry": {
        "type": "Point",
        "coordinates": [-0.1274268, 51.5074246]
      }
    },
    {
      "type": "Feature",
      "properties": {
        "building_id": "galleria",
        "floor": 0,
        "id": 14,
        "metadata": {
          "category": "escalator"
        },
        "name": "Central Escalator",
        "type": "amenity"
      },
      "geometry": {
        "type": "Point",
        "coordinates": [-0.1268495, 51.5074246]
      }
    }
  ]
}
