{
"type": "FeatureCollection",
"name": "limita_magazin",
"crs": { "type": "name", "properties": { "name": "urn:ogc:def:crs:OGC:1.3:CRS84" } },
"features": [
{ "type": "Feature", "properties": { "Id": 0 }, "geometry": { "type": "MultiPolygon", "coordinates": [ [ [ [ 26.140215964765957, 44.420316161471419 ], [ 26.139940928587748, 44.420316259554966 ], [ 26.139940737893994, 44.419717804434185 ], [ 26.139940737893994, 44.419309368746326 ], [ 26.140115031379537, 44.418998861670843 ], [ 26.139833747207376, 44.418839614590979 ], [ 26.139691629652589, 44.419093349890318 ], [ 26.139585985656595, 44.419033046146069 ], [ 26.139585713326596, 44.41912895733185 ], [ 26.139517104926199, 44.419089752078435 ], [ 26.139327938088172, 44.419420790127333 ], [ 26.139326623511806, 44.419420038953831 ], [ 26.139315674088721, 44.419439200300985 ], [ 26.139633892782513, 44.419621041721257 ], [ 26.13963369114208, 44.420105529268767 ], [ 26.139576456444047, 44.420105644359865 ], [ 26.139587521736757, 44.42035822912294 ], [ 26.139633524548117, 44.420358212712017 ], [ 26.139633832663094, 44.421221811597206 ], [ 26.139738127019882, 44.421221774377045 ], [ 26.139738264910193, 44.421608242111688 ], [ 26.140525624659858, 44.421607961186965 ], [ 26.140525436807366, 44.421081486103503 ], [ 26.140225817794999, 44.421081593001873 ], [ 26.140225795648803, 44.421019496905501 ], [ 26.140212416647046, 44.421019501700357 ], [ 26.140212360847727, 44.420863105966419 ], [ 26.140227511516059, 44.42086310056402 ], [ 26.140227433576001, 44.420644589998119 ], [ 26.140188173387287, 44.420644604018889 ], [ 26.140188164235951, 44.420618952233781 ], [ 26.140182475741312, 44.420618954263773 ], [ 26.14018243868486, 44.420515081466874 ], [ 26.140260293263054, 44.420515053690906 ], [ 26.140260227582985, 44.420331005108892 ], [ 26.140215970064673, 44.420331020912272 ], [ 26.140215964765957, 44.420316161471419 ] ] ] ] } },
{ "type": "Feature", "properties": { "Id": 0 }, "geometry": { "type": "MultiPolygon", "coordinates": [ [ [ [ 26.140331884294937, 44.419203479723365 ], [ 26.140209083858281, 44.419203655688762 ], [ 26.140209045011943, 44.419176546525705 ], [ 26.140061714309923, 44.419093847020122 ], [ 26.139940737893994, 44.419309368746326 ], [ 26.139940737893994, 44.419717804434185 ], [ 26.140017542142232, 44.419717804434185 ], [ 26.140017542142232, 44.41970452269743 ], [ 26.140346673064414, 44.41970452269743 ], [ 26.140346615853559, 44.419664615983493 ], [ 26.140326108885347, 44.419664645378361 ], [ 26.140326066808484, 44.419635295671469 ], [ 26.140347348826253, 44.419635265163379 ], [ 26.140347066846516, 44.41943856159196 ], [ 26.140328376661273, 44.419438588385674 ], [ 26.140328339546613, 44.419412700786779 ], [ 26.140347365577327, 44.419412673501938 ], [ 26.140347084183304, 44.419216383721505 ], [ 26.140331902814069, 44.419216405483894 ], [ 26.140331884294937, 44.419203479723365 ] ] ] ] } },
{ "type": "Feature", "properties": { "Id": 0 }, "geometry": { "type": "MultiPolygon", "coordinates": [ [ [ [ 26.140215964765957, 44.420316161471419 ], [ 26.140215944096781, 44.420258198402735 ], [ 26.140255665002769, 44.420258184247359 ], [ 26.140255580605299, 44.420021642778011 ], [ 26.140255127056662, 44.420021647281828 ], [ 26.140221471543555, 44.420021602760244 ], [ 26.140191354596027, 44.420021585192444 ], [ 26.140191369398963, 44.419964122185775 ], [ 26.140221330975692, 44.419964129901928 ], [ 26.140255403786796, 44.419964138680371 ], [ 26.140255560141668, 44.41996423188175 ], [ 26.140255517091646, 44.419843575975392 ], [ 26.140346607560787, 44.419843543488241 ], [ 26.140346815280282, 44.419803727585531 ], [ 26.140346673064414, 44.41970452269743 ], [ 26.140017542142232, 44.41970452269743 ], [ 26.140017542142232, 44.419717804434185 ], [ 26.139940737893994, 44.419717804434185 ], [ 26.139940928587748, 44.420316259554966 ], [ 26.140215964765957, 44.420316161471419 ] ] ] ] } },
{ "type": "Feature", "properties": { "Id": 0 }, "geometry": { "type": "MultiPolygon", "coordinates": [ [ [ [ 26.140331884294937, 44.419203479723365 ], [ 26.140331865701228, 44.419190505072038 ], [ 26.140350014420619, 44.419190479053213 ], [ 26.140350478945038, 44.419190478391101 ], [ 26.14035037882968, 44.419120625636424 ], [ 26.140329887381085, 44.419120500919234 ], [ 26.140115031379537, 44.418998861670843 ], [ 26.140061714309923, 44.419093847020122 ], [ 26.140209045011943, 44.419176546525705 ], [ 26.140209083858281, 44.419203655688762 ], [ 26.140331884294937, 44.419203479723365 ] ] ] ] } }
]
}
