{
"type": "FeatureCollection",
"name": "puncte_rafturi",
"crs": { "type": "name", "properties": { "name": "urn:ogc:def:crs:OGC:1.3:CRS84" } },
"features": [
{ "type": "Feature", "properties": { "Id": 0, "name": "J34", "type": "raft", "floor": 0, "buildng_id": "jucarii", "ORIG_FID": 0 }, "geometry": { "type": "Point", "coordinates": [ 26.139962174241884, 44.419294358949273 ] } },
{ "type": "Feature", "properties": { "Id": 1, "name": "J39", "type": "raft", "floor": 0, "buildng_id": "jucarii", "ORIG_FID": 1 }, "geometry": { "type": "Point", "coordinates": [ 26.140048361218351, 44.419143493631779 ] } },
{ "type": "Feature", "properties": { "Id": 2, "name": "J38", "type": "raft", "floor": 0, "buildng_id": "jucarii", "ORIG_FID": 2 }, "geometry": { "type": "Point", "coordinates": [ 26.140031018561103, 44.419173851012602 ] } },
{ "type": "Feature", "properties": { "Id": 3, "name": "J37", "type": "raft", "floor": 0, "buildng_id": "jucarii", "ORIG_FID": 3 }, "geometry": { "type": "Point", "coordinates": [ 26.140013805963854, 44.419203980417102 ] } },
{ "type": "Feature", "properties": { "Id": 4, "name": "J36", "type": "raft", "floor": 0, "buildng_id": "jucarii", "ORIG_FID": 4 }, "geometry": { "type": "Point", "coordinates": [ 26.139996595211166, 44.419234106937445 ] } },
{ "type": "Feature", "properties": { "Id": 5, "name": "J35", "type": "raft", "floor": 0, "buildng_id": "jucarii", "ORIG_FID": 5 }, "geometry": { "type": "Point", "coordinates": [ 26.139979343857807, 44.419264304821382 ] } },
{ "type": "Feature", "properties": { "Id": 6, "name": "J33", "type": "raft", "floor": 0, "buildng_id": "jucarii", "ORIG_FID": 6 }, "geometry": { "type": "Point", "coordinates": [ 26.139952407696772, 44.419331142624614 ] } },
{ "type": "Feature", "properties": { "Id": 7, "name": "J32", "type": "raft", "floor": 0, "buildng_id": "jucarii", "ORIG_FID": 7 }, "geometry": { "type": "Point", "coordinates": [ 26.139952402750804, 44.419366025155931 ] } },
{ "type": "Feature", "properties": { "Id": 8, "name": "J31", "type": "raft", "floor": 0, "buildng_id": "jucarii", "ORIG_FID": 8 }, "geometry": { "type": "Point", "coordinates": [ 26.139952397804286, 44.419400751577506 ] } },
{ "type": "Feature", "properties": { "Id": 9, "name": "J30", "type": "raft", "floor": 0, "buildng_id": "jucarii", "ORIG_FID": 9 }, "geometry": { "type": "Point", "coordinates": [ 26.139952392858074, 44.419435463980058 ] } },
{ "type": "Feature", "properties": { "Id": 10, "name": "J29", "type": "raft", "floor": 0, "buildng_id": "jucarii", "ORIG_FID": 10 }, "geometry": { "type": "Point", "coordinates": [ 26.139952387942227, 44.41947021858504 ] } },
{ "type": "Feature", "properties": { "Id": 11, "name": "J28", "type": "raft", "floor": 0, "buildng_id": "jucarii", "ORIG_FID": 11 }, "geometry": { "type": "Point", "coordinates": [ 26.139952382965543, 44.419504959541463 ] } },
{ "type": "Feature", "properties": { "Id": 12, "name": "J27", "type": "raft", "floor": 0, "buildng_id": "jucarii", "ORIG_FID": 12 }, "geometry": { "type": "Point", "coordinates": [ 26.139952377794472, 44.419539628221187 ] } },
{ "type": "Feature", "properties": { "Id": 13, "name": "J26", "type": "raft", "floor": 0, "buildng_id": "jucarii", "ORIG_FID": 13 }, "geometry": { "type": "Point", "coordinates": [ 26.139952372817859, 44.4195743544187 ] } },
{ "type": "Feature", "properties": { "Id": 14, "name": "J25", "type": "raft", "floor": 0, "buildng_id": "jucarii", "ORIG_FID": 14 }, "geometry": { "type": "Point", "coordinates": [ 26.139952367902051, 44.419609109393591 ] } },
{ "type": "Feature", "properties": { "Id": 15, "name": "J24", "type": "raft", "floor": 0, "buildng_id": "jucarii", "ORIG_FID": 15 }, "geometry": { "type": "Point", "coordinates": [ 26.13995236295553, 44.419643778258433 ] } },
{ "type": "Feature", "properties": { "Id": 16, "name": "J23", "type": "raft", "floor": 0, "buildng_id": "jucarii", "ORIG_FID": 16 }, "geometry": { "type": "Point", "coordinates": [ 26.139952358009381, 44.419678490290622 ] } },
{ "type": "Feature", "properties": { "Id": 17, "name": "J22", "type": "raft", "floor": 0, "buildng_id": "jucarii", "ORIG_FID": 17 }, "geometry": { "type": "Point", "coordinates": [ 26.139952353962428, 44.41970681084058 ] } },
{ "type": "Feature", "properties": { "Id": 18, "name": "PS4", "type": "raft", "floor": 0, "buildng_id": "puericultura_mare", "ORIG_FID": 18 }, "geometry": { "type": "Point", "coordinates": [ 26.139960030575814, 44.419806393670122 ] } },
{ "type": "Feature", "properties": { "Id": 19, "name": "PS3", "type": "raft", "floor": 0, "buildng_id": "puericultura_mare", "ORIG_FID": 19 }, "geometry": { "type": "Point", "coordinates": [ 26.139960061376602, 44.419781276111451 ] } },
{ "type": "Feature", "properties": { "Id": 20, "name": "PS2", "type": "raft", "floor": 0, "buildng_id": "puericultura_mare", "ORIG_FID": 20 }, "geometry": { "type": "Point", "coordinates": [ 26.139960092503387, 44.419755986387713 ] } },
{ "type": "Feature", "properties": { "Id": 21, "name": "PS1", "type": "raft", "floor": 0, "buildng_id": "puericultura_mare", "ORIG_FID": 21 }, "geometry": { "type": "Point", "coordinates": [ 26.139960122880151, 44.419730848200054 ] } },
{ "type": "Feature", "properties": { "Id": 22, "name": "JC1", "type": "raft", "floor": 0, "buildng_id": "jucarii", "ORIG_FID": 22 }, "geometry": { "type": "Point", "coordinates": [ 26.140086254998483, 44.419614200227755 ] } },
{ "type": "Feature", "properties": { "Id": 23, "name": "JC2", "type": "raft", "floor": 0, "buildng_id": "jucarii", "ORIG_FID": 23 }, "geometry": { "type": "Point", "coordinates": [ 26.140086256120448, 44.41958643988054 ] } },
{ "type": "Feature", "properties": { "Id": 24, "name": "JC3", "type": "raft", "floor": 0, "buildng_id": "jucarii", "ORIG_FID": 24 }, "geometry": { "type": "Point", "coordinates": [ 26.140086257394341, 44.419558640562229 ] } },
{ "type": "Feature", "properties": { "Id": 25, "name": "JC4", "type": "raft", "floor": 0, "buildng_id": "jucarii", "ORIG_FID": 25 }, "geometry": { "type": "Point", "coordinates": [ 26.140086258743317, 44.419530841768278 ] } },
{ "type": "Feature", "properties": { "Id": 26, "name": "JC5", "type": "raft", "floor": 0, "buildng_id": "jucarii", "ORIG_FID": 26 }, "geometry": { "type": "Point", "coordinates": [ 26.140086259867775, 44.419502915048888 ] } },
{ "type": "Feature", "properties": { "Id": 27, "name": "JC6", "type": "raft", "floor": 0, "buildng_id": "jucarii", "ORIG_FID": 27 }, "geometry": { "type": "Point", "coordinates": [ 26.140086260991307, 44.419475064914643 ] } },
{ "type": "Feature", "properties": { "Id": 28, "name": "JC7", "type": "raft", "floor": 0, "buildng_id": "jucarii", "ORIG_FID": 28 }, "geometry": { "type": "Point", "coordinates": [ 26.140086262340599, 44.41944729145424 ] } },
{ "type": "Feature", "properties": { "Id": 29, "name": "JC8", "type": "raft", "floor": 0, "buildng_id": "jucarii", "ORIG_FID": 29 }, "geometry": { "type": "Point", "coordinates": [ 26.140086263388884, 44.419419464329998 ] } },
{ "type": "Feature", "properties": { "Id": 30, "name": "JC9", "type": "raft", "floor": 0, "buildng_id": "jucarii", "ORIG_FID": 30 }, "geometry": { "type": "Point", "coordinates": [ 26.140086265116679, 44.41939179256395 ] } },
{ "type": "Feature", "properties": { "Id": 31, "name": "JC18", "type": "raft", "floor": 0, "buildng_id": "jucarii", "ORIG_FID": 31 }, "geometry": { "type": "Point", "coordinates": [ 26.140114153467717, 44.419391793095471 ] } },
{ "type": "Feature", "properties": { "Id": 32, "name": "JC17", "type": "raft", "floor": 0, "buildng_id": "jucarii", "ORIG_FID": 32 }, "geometry": { "type": "Point", "coordinates": [ 26.140114152039676, 44.419419464557684 ] } },
{ "type": "Feature", "properties": { "Id": 33, "name": "JC15", "type": "raft", "floor": 0, "buildng_id": "jucarii", "ORIG_FID": 33 }, "geometry": { "type": "Point", "coordinates": [ 26.140114149642756, 44.419475063345935 ] } },
{ "type": "Feature", "properties": { "Id": 34, "name": "JC16", "type": "raft", "floor": 0, "buildng_id": "jucarii", "ORIG_FID": 34 }, "geometry": { "type": "Point", "coordinates": [ 26.14011415099176, 44.4194472900313 ] } },
{ "type": "Feature", "properties": { "Id": 35, "name": "JC14", "type": "raft", "floor": 0, "buildng_id": "jucarii", "ORIG_FID": 35 }, "geometry": { "type": "Point", "coordinates": [ 26.140114148518613, 44.41950291347149 ] } },
{ "type": "Feature", "properties": { "Id": 36, "name": "JC13", "type": "raft", "floor": 0, "buildng_id": "jucarii", "ORIG_FID": 36 }, "geometry": { "type": "Point", "coordinates": [ 26.140114147469486, 44.419530840421444 ] } },
{ "type": "Feature", "properties": { "Id": 37, "name": "JC12", "type": "raft", "floor": 0, "buildng_id": "jucarii", "ORIG_FID": 37 }, "geometry": { "type": "Point", "coordinates": [ 26.140114145970344, 44.419558639365796 ] } },
{ "type": "Feature", "properties": { "Id": 38, "name": "JC11", "type": "raft", "floor": 0, "buildng_id": "jucarii", "ORIG_FID": 38 }, "geometry": { "type": "Point", "coordinates": [ 26.140114144696497, 44.419586438533706 ] } },
{ "type": "Feature", "properties": { "Id": 39, "name": "JC10", "type": "raft", "floor": 0, "buildng_id": "jucarii", "ORIG_FID": 39 }, "geometry": { "type": "Point", "coordinates": [ 26.140114143724492, 44.419614201281 ] } },
{ "type": "Feature", "properties": { "Id": 40, "name": "JC34", "type": "raft", "floor": 0, "buildng_id": "jucarii", "ORIG_FID": 40 }, "geometry": { "type": "Point", "coordinates": [ 26.140232811589442, 44.419413488862119 ] } },
{ "type": "Feature", "properties": { "Id": 41, "name": "JC33", "type": "raft", "floor": 0, "buildng_id": "jucarii", "ORIG_FID": 41 }, "geometry": { "type": "Point", "coordinates": [ 26.140232815186721, 44.419439277371566 ] } },
{ "type": "Feature", "properties": { "Id": 42, "name": "JC32", "type": "raft", "floor": 0, "buildng_id": "jucarii", "ORIG_FID": 42 }, "geometry": { "type": "Point", "coordinates": [ 26.140232818784316, 44.419466961201572 ] } },
{ "type": "Feature", "properties": { "Id": 43, "name": "JC31", "type": "raft", "floor": 0, "buildng_id": "jucarii", "ORIG_FID": 43 }, "geometry": { "type": "Point", "coordinates": [ 26.140232822381019, 44.419494760145433 ] } },
{ "type": "Feature", "properties": { "Id": 44, "name": "JC30", "type": "raft", "floor": 0, "buildng_id": "jucarii", "ORIG_FID": 44 }, "geometry": { "type": "Point", "coordinates": [ 26.140232825978917, 44.419522559089273 ] } },
{ "type": "Feature", "properties": { "Id": 45, "name": "JC29", "type": "raft", "floor": 0, "buildng_id": "jucarii", "ORIG_FID": 45 }, "geometry": { "type": "Point", "coordinates": [ 26.140232829575591, 44.419550358033121 ] } },
{ "type": "Feature", "properties": { "Id": 46, "name": "JC28", "type": "raft", "floor": 0, "buildng_id": "jucarii", "ORIG_FID": 46 }, "geometry": { "type": "Point", "coordinates": [ 26.140232833173172, 44.419578182607438 ] } },
{ "type": "Feature", "properties": { "Id": 47, "name": "JC27", "type": "raft", "floor": 0, "buildng_id": "jucarii", "ORIG_FID": 47 }, "geometry": { "type": "Point", "coordinates": [ 26.14023283677076, 44.419605734236939 ] } },
{ "type": "Feature", "properties": { "Id": 48, "name": "JC19", "type": "raft", "floor": 0, "buildng_id": "jucarii", "ORIG_FID": 48 }, "geometry": { "type": "Point", "coordinates": [ 26.140205012196017, 44.41960573783399 ] } },
{ "type": "Feature", "properties": { "Id": 49, "name": "JC20", "type": "raft", "floor": 0, "buildng_id": "jucarii", "ORIG_FID": 49 }, "geometry": { "type": "Point", "coordinates": [ 26.140205008673902, 44.419578186430016 ] } },
{ "type": "Feature", "properties": { "Id": 50, "name": "JC21", "type": "raft", "floor": 0, "buildng_id": "jucarii", "ORIG_FID": 50 }, "geometry": { "type": "Point", "coordinates": [ 26.140205004926255, 44.419550361854839 ] } },
{ "type": "Feature", "properties": { "Id": 51, "name": "JC22", "type": "raft", "floor": 0, "buildng_id": "jucarii", "ORIG_FID": 51 }, "geometry": { "type": "Point", "coordinates": [ 26.140205001479465, 44.419522562910949 ] } },
{ "type": "Feature", "properties": { "Id": 52, "name": "JC23", "type": "raft", "floor": 0, "buildng_id": "jucarii", "ORIG_FID": 52 }, "geometry": { "type": "Point", "coordinates": [ 26.140204997731701, 44.419494763967144 ] } },
{ "type": "Feature", "properties": { "Id": 53, "name": "JC24", "type": "raft", "floor": 0, "buildng_id": "jucarii", "ORIG_FID": 53 }, "geometry": { "type": "Point", "coordinates": [ 26.140204994209281, 44.419466964797728 ] } },
{ "type": "Feature", "properties": { "Id": 54, "name": "JC25", "type": "raft", "floor": 0, "buildng_id": "jucarii", "ORIG_FID": 54 }, "geometry": { "type": "Point", "coordinates": [ 26.14020499061229, 44.419439280967715 ] } },
{ "type": "Feature", "properties": { "Id": 55, "name": "JC26", "type": "raft", "floor": 0, "buildng_id": "jucarii", "ORIG_FID": 55 }, "geometry": { "type": "Point", "coordinates": [ 26.140204987015348, 44.419413492459164 ] } },
{ "type": "Feature", "properties": { "Id": 56, "name": "J3", "type": "raft", "floor": 0, "buildng_id": "jucarii", "ORIG_FID": 56 }, "geometry": { "type": "Point", "coordinates": [ 26.140299274864567, 44.419215546954923 ] } },
{ "type": "Feature", "properties": { "Id": 57, "name": "J2", "type": "raft", "floor": 0, "buildng_id": "jucarii", "ORIG_FID": 57 }, "geometry": { "type": "Point", "coordinates": [ 26.140260228545898, 44.419215629049276 ] } },
{ "type": "Feature", "properties": { "Id": 58, "name": "J1", "type": "raft", "floor": 0, "buildng_id": "jucarii", "ORIG_FID": 58 }, "geometry": { "type": "Point", "coordinates": [ 26.14022542455891, 44.419215702312613 ] } },
{ "type": "Feature", "properties": { "Id": 59, "name": "AG J4", "type": "raft", "floor": 0, "buildng_id": "jucarii", "ORIG_FID": 59 }, "geometry": { "type": "Point", "coordinates": [ 26.140337500769505, 44.419240074839763 ] } },
{ "type": "Feature", "properties": { "Id": 60, "name": "AG J5", "type": "raft", "floor": 0, "buildng_id": "jucarii", "ORIG_FID": 60 }, "geometry": { "type": "Point", "coordinates": [ 26.140337500769505, 44.419274984722506 ] } },
{ "type": "Feature", "properties": { "Id": 61, "name": "AG J6", "type": "raft", "floor": 0, "buildng_id": "jucarii", "ORIG_FID": 61 }, "geometry": { "type": "Point", "coordinates": [ 26.140337500769505, 44.419309720587989 ] } },
{ "type": "Feature", "properties": { "Id": 62, "name": "AG J7", "type": "raft", "floor": 0, "buildng_id": "jucarii", "ORIG_FID": 62 }, "geometry": { "type": "Point", "coordinates": [ 26.140337500769505, 44.419344380010443 ] } },
{ "type": "Feature", "properties": { "Id": 63, "name": "AG J8", "type": "raft", "floor": 0, "buildng_id": "jucarii", "ORIG_FID": 63 }, "geometry": { "type": "Point", "coordinates": [ 26.140337500769505, 44.419385092318407 ] } },
{ "type": "Feature", "properties": { "Id": 64, "name": "J9", "type": "raft", "floor": 0, "buildng_id": "jucarii", "ORIG_FID": 64 }, "geometry": { "type": "Point", "coordinates": [ 26.140333707429107, 44.419462296868005 ] } },
{ "type": "Feature", "properties": { "Id": 65, "name": "J10", "type": "raft", "floor": 0, "buildng_id": "jucarii", "ORIG_FID": 65 }, "geometry": { "type": "Point", "coordinates": [ 26.140333707429107, 44.41949713705435 ] } },
{ "type": "Feature", "properties": { "Id": 66, "name": "J11", "type": "raft", "floor": 0, "buildng_id": "jucarii", "ORIG_FID": 66 }, "geometry": { "type": "Point", "coordinates": [ 26.140333707429107, 44.419531872918014 ] } },
{ "type": "Feature", "properties": { "Id": 67, "name": "J12", "type": "raft", "floor": 0, "buildng_id": "jucarii", "ORIG_FID": 67 }, "geometry": { "type": "Point", "coordinates": [ 26.140333707429107, 44.419566589895112 ] } },
{ "type": "Feature", "properties": { "Id": 68, "name": "J13", "type": "raft", "floor": 0, "buildng_id": "jucarii", "ORIG_FID": 68 }, "geometry": { "type": "Point", "coordinates": [ 26.140333707429107, 44.419608721334953 ] } },
{ "type": "Feature", "properties": { "Id": 69, "name": "J14", "type": "raft", "floor": 0, "buildng_id": "jucarii", "ORIG_FID": 69 }, "geometry": { "type": "Point", "coordinates": [ 26.140309848864916, 44.419660129729891 ] } },
{ "type": "Feature", "properties": { "Id": 70, "name": "J15", "type": "raft", "floor": 0, "buildng_id": "jucarii", "ORIG_FID": 70 }, "geometry": { "type": "Point", "coordinates": [ 26.140289065982074, 44.419694340840579 ] } },
{ "type": "Feature", "properties": { "Id": 71, "name": "J16", "type": "raft", "floor": 0, "buildng_id": "jucarii", "ORIG_FID": 71 }, "geometry": { "type": "Point", "coordinates": [ 26.140258984558955, 44.419694340840579 ] } },
{ "type": "Feature", "properties": { "Id": 72, "name": "J17", "type": "raft", "floor": 0, "buildng_id": "jucarii", "ORIG_FID": 72 }, "geometry": { "type": "Point", "coordinates": [ 26.14022424869458, 44.419694340840579 ] } },
{ "type": "Feature", "properties": { "Id": 73, "name": "J18", "type": "raft", "floor": 0, "buildng_id": "jucarii", "ORIG_FID": 73 }, "geometry": { "type": "Point", "coordinates": [ 26.140189512380573, 44.419694340840579 ] } },
{ "type": "Feature", "properties": { "Id": 74, "name": "J19", "type": "raft", "floor": 0, "buildng_id": "jucarii", "ORIG_FID": 74 }, "geometry": { "type": "Point", "coordinates": [ 26.140154834072803, 44.419694340840579 ] } },
{ "type": "Feature", "properties": { "Id": 75, "name": "J20", "type": "raft", "floor": 0, "buildng_id": "jucarii", "ORIG_FID": 75 }, "geometry": { "type": "Point", "coordinates": [ 26.140120155765032, 44.419694340840579 ] } },
{ "type": "Feature", "properties": { "Id": 76, "name": "J21", "type": "raft", "floor": 0, "buildng_id": "jucarii", "ORIG_FID": 76 }, "geometry": { "type": "Point", "coordinates": [ 26.140085597067127, 44.419694340840579 ] } },
{ "type": "Feature", "properties": { "Id": 77, "name": "CS1", "type": "raft", "floor": 0, "buildng_id": "puericultura_mare", "ORIG_FID": 77 }, "geometry": { "type": "Point", "coordinates": [ 26.14009932117122, 44.41972347437877 ] } },
{ "type": "Feature", "properties": { "Id": 78, "name": "CS2", "type": "raft", "floor": 0, "buildng_id": "puericultura_mare", "ORIG_FID": 78 }, "geometry": { "type": "Point", "coordinates": [ 26.140162463471398, 44.41972347437877 ] } },
{ "type": "Feature", "properties": { "Id": 79, "name": "CS3", "type": "raft", "floor": 0, "buildng_id": "puericultura_mare", "ORIG_FID": 79 }, "geometry": { "type": "Point", "coordinates": [ 26.140225471322935, 44.41972347437877 ] } },
{ "type": "Feature", "properties": { "Id": 80, "name": "CS4", "type": "raft", "floor": 0, "buildng_id": "puericultura_mare", "ORIG_FID": 80 }, "geometry": { "type": "Point", "coordinates": [ 26.140284777564915, 44.41972347437877 ] } },
{ "type": "Feature", "properties": { "Id": 81, "name": "CS5", "type": "raft", "floor": 0, "buildng_id": "puericultura_mare", "ORIG_FID": 81 }, "geometry": { "type": "Point", "coordinates": [ 26.140328318241757, 44.4197733350411 ] } },
{ "type": "Feature", "properties": { "Id": 82, "name": "CS6", "type": "raft", "floor": 0, "buildng_id": "puericultura_mare", "ORIG_FID": 82 }, "geometry": { "type": "Point", "coordinates": [ 26.140285413385065, 44.41982070458198 ] } },
{ "type": "Feature", "properties": { "Id": 83, "name": "CS7", "type": "raft", "floor": 0, "buildng_id": "puericultura_mare", "ORIG_FID": 83 }, "geometry": { "type": "Point", "coordinates": [ 26.140226394476983, 44.419820725715908 ] } },
{ "type": "Feature", "properties": { "Id": 84, "name": "CS8", "type": "raft", "floor": 0, "buildng_id": "puericultura_mare", "ORIG_FID": 84 }, "geometry": { "type": "Point", "coordinates": [ 26.140238381065711, 44.419913245494108 ] } },
{ "type": "Feature", "properties": { "Id": 85, "name": "PC20", "type": "raft", "floor": 0, "buildng_id": "puericultura_mare", "ORIG_FID": 85 }, "geometry": { "type": "Point", "coordinates": [ 26.14012807429566, 44.41988244753702 ] } },
{ "type": "Feature", "properties": { "Id": 86, "name": "PC19", "type": "raft", "floor": 0, "buildng_id": "puericultura_mare", "ORIG_FID": 86 }, "geometry": { "type": "Point", "coordinates": [ 26.140089073846156, 44.41988244753702 ] } },
{ "type": "Feature", "properties": { "Id": 87, "name": "PC18", "type": "raft", "floor": 0, "buildng_id": "puericultura_mare", "ORIG_FID": 87 }, "geometry": { "type": "Point", "coordinates": [ 26.14012807429566, 44.419906075425388 ] } },
{ "type": "Feature", "properties": { "Id": 88, "name": "PC17", "type": "raft", "floor": 0, "buildng_id": "puericultura_mare", "ORIG_FID": 88 }, "geometry": { "type": "Point", "coordinates": [ 26.140089073846156, 44.419906075425388 ] } },
{ "type": "Feature", "properties": { "Id": 89, "name": "PC16", "type": "raft", "floor": 0, "buildng_id": "puericultura_mare", "ORIG_FID": 89 }, "geometry": { "type": "Point", "coordinates": [ 26.14012807429566, 44.419929833715287 ] } },
{ "type": "Feature", "properties": { "Id": 90, "name": "PC15", "type": "raft", "floor": 0, "buildng_id": "puericultura_mare", "ORIG_FID": 90 }, "geometry": { "type": "Point", "coordinates": [ 26.140089073846156, 44.419929833715287 ] } },
{ "type": "Feature", "properties": { "Id": 91, "name": "PC14", "type": "raft", "floor": 0, "buildng_id": "puericultura_mare", "ORIG_FID": 91 }, "geometry": { "type": "Point", "coordinates": [ 26.14012807429566, 44.419953540742426 ] } },
{ "type": "Feature", "properties": { "Id": 92, "name": "PC13", "type": "raft", "floor": 0, "buildng_id": "puericultura_mare", "ORIG_FID": 92 }, "geometry": { "type": "Point", "coordinates": [ 26.140089073846156, 44.419953540742426 ] } },
{ "type": "Feature", "properties": { "Id": 93, "name": "PC12", "type": "raft", "floor": 0, "buildng_id": "puericultura_mare", "ORIG_FID": 93 }, "geometry": { "type": "Point", "coordinates": [ 26.14012807429566, 44.419977273402765 ] } },
{ "type": "Feature", "properties": { "Id": 94, "name": "PC11", "type": "raft", "floor": 0, "buildng_id": "puericultura_mare", "ORIG_FID": 94 }, "geometry": { "type": "Point", "coordinates": [ 26.140089073846156, 44.419977273402765 ] } },
{ "type": "Feature", "properties": { "Id": 95, "name": "PC10", "type": "raft", "floor": 0, "buildng_id": "puericultura_mare", "ORIG_FID": 95 }, "geometry": { "type": "Point", "coordinates": [ 26.14012807429566, 44.420001006063103 ] } },
{ "type": "Feature", "properties": { "Id": 96, "name": "PC9", "type": "raft", "floor": 0, "buildng_id": "puericultura_mare", "ORIG_FID": 96 }, "geometry": { "type": "Point", "coordinates": [ 26.140089073846156, 44.420001006063103 ] } },
{ "type": "Feature", "properties": { "Id": 97, "name": "PC8", "type": "raft", "floor": 0, "buildng_id": "puericultura_mare", "ORIG_FID": 97 }, "geometry": { "type": "Point", "coordinates": [ 26.14012807429566, 44.420024738721622 ] } },
{ "type": "Feature", "properties": { "Id": 98, "name": "PC7", "type": "raft", "floor": 0, "buildng_id": "puericultura_mare", "ORIG_FID": 98 }, "geometry": { "type": "Point", "coordinates": [ 26.140089073846156, 44.420024738721622 ] } },
{ "type": "Feature", "properties": { "Id": 99, "name": "PC6", "type": "raft", "floor": 0, "buildng_id": "puericultura_mare", "ORIG_FID": 99 }, "geometry": { "type": "Point", "coordinates": [ 26.14012807429566, 44.420048548272462 ] } },
{ "type": "Feature", "properties": { "Id": 100, "name": "PC5", "type": "raft", "floor": 0, "buildng_id": "puericultura_mare", "ORIG_FID": 100 }, "geometry": { "type": "Point", "coordinates": [ 26.140089073846156, 44.420048548272462 ] } },
{ "type": "Feature", "properties": { "Id": 101, "name": "PC4", "type": "raft", "floor": 0, "buildng_id": "puericultura_mare", "ORIG_FID": 101 }, "geometry": { "type": "Point", "coordinates": [ 26.14012807429566, 44.420072306562361 ] } },
{ "type": "Feature", "properties": { "Id": 102, "name": "PC3", "type": "raft", "floor": 0, "buildng_id": "puericultura_mare", "ORIG_FID": 102 }, "geometry": { "type": "Point", "coordinates": [ 26.140089073846156, 44.420072306562361 ] } },
{ "type": "Feature", "properties": { "Id": 103, "name": "PC2", "type": "raft", "floor": 0, "buildng_id": "puericultura_mare", "ORIG_FID": 103 }, "geometry": { "type": "Point", "coordinates": [ 26.14012807429566, 44.420095967276211 ] } },
{ "type": "Feature", "properties": { "Id": 104, "name": "PC1", "type": "raft", "floor": 0, "buildng_id": "puericultura_mare", "ORIG_FID": 104 }, "geometry": { "type": "Point", "coordinates": [ 26.140089073846156, 44.420095967276211 ] } },
{ "type": "Feature", "properties": { "Id": 105, "name": "PS5", "type": "raft", "floor": 0, "buildng_id": "puericultura_mare", "ORIG_FID": 105 }, "geometry": { "type": "Point", "coordinates": [ 26.13996006385031, 44.419887722960993 ] } },
{ "type": "Feature", "properties": { "Id": 106, "name": "PS6", "type": "raft", "floor": 0, "buildng_id": "puericultura_mare", "ORIG_FID": 106 }, "geometry": { "type": "Point", "coordinates": [ 26.13996006385031, 44.419913639621882 ] } },
{ "type": "Feature", "properties": { "Id": 107, "name": "PS7", "type": "raft", "floor": 0, "buildng_id": "puericultura_mare", "ORIG_FID": 107 }, "geometry": { "type": "Point", "coordinates": [ 26.13996006385031, 44.419939629131477 ] } },
{ "type": "Feature", "properties": { "Id": 108, "name": "PS8", "type": "raft", "floor": 0, "buildng_id": "puericultura_mare", "ORIG_FID": 108 }, "geometry": { "type": "Point", "coordinates": [ 26.13996006385031, 44.419965618637434 ] } },
{ "type": "Feature", "properties": { "Id": 109, "name": "PS9", "type": "raft", "floor": 0, "buildng_id": "puericultura_mare", "ORIG_FID": 109 }, "geometry": { "type": "Point", "coordinates": [ 26.13996006385031, 44.419991569926424 ] } },
{ "type": "Feature", "properties": { "Id": 110, "name": "PS10", "type": "raft", "floor": 0, "buildng_id": "puericultura_mare", "ORIG_FID": 110 }, "geometry": { "type": "Point", "coordinates": [ 26.13996006385031, 44.420017501875918 ] } },
{ "type": "Feature", "properties": { "Id": 111, "name": "PS11", "type": "raft", "floor": 0, "buildng_id": "puericultura_mare", "ORIG_FID": 111 }, "geometry": { "type": "Point", "coordinates": [ 26.13996006385031, 44.420043491832985 ] } },
{ "type": "Feature", "properties": { "Id": 112, "name": "PS13", "type": "raft", "floor": 0, "buildng_id": "puericultura_mare", "ORIG_FID": 112 }, "geometry": { "type": "Point", "coordinates": [ 26.13996006385031, 44.420095394407326 ] } },
{ "type": "Feature", "properties": { "Id": 113, "name": "PS12", "type": "raft", "floor": 0, "buildng_id": "puericultura_mare", "ORIG_FID": 113 }, "geometry": { "type": "Point", "coordinates": [ 26.139960063850307, 44.420069442670865 ] } },
{ "type": "Feature", "properties": { "Id": 114, "name": "PS14", "type": "raft", "floor": 0, "buildng_id": "puericultura_mare", "ORIG_FID": 114 }, "geometry": { "type": "Point", "coordinates": [ 26.13996006385031, 44.420121402801669 ] } },
{ "type": "Feature", "properties": { "Id": 115, "name": "PS15", "type": "raft", "floor": 0, "buildng_id": "puericultura_mare", "ORIG_FID": 115 }, "geometry": { "type": "Point", "coordinates": [ 26.13996006385031, 44.420147296530558 ] } },
{ "type": "Feature", "properties": { "Id": 116, "name": "PS16", "type": "raft", "floor": 0, "buildng_id": "puericultura_mare", "ORIG_FID": 116 }, "geometry": { "type": "Point", "coordinates": [ 26.13996006385031, 44.420173267151768 ] } },
{ "type": "Feature", "properties": { "Id": 117, "name": "PS17", "type": "raft", "floor": 0, "buildng_id": "puericultura_mare", "ORIG_FID": 117 }, "geometry": { "type": "Point", "coordinates": [ 26.13996006385031, 44.420199180216521 ] } },
{ "type": "Feature", "properties": { "Id": 118, "name": "PS18", "type": "raft", "floor": 0, "buildng_id": "puericultura_mare", "ORIG_FID": 118 }, "geometry": { "type": "Point", "coordinates": [ 26.13996006385031, 44.420225227282579 ] } },
{ "type": "Feature", "properties": { "Id": 119, "name": "PS19", "type": "raft", "floor": 0, "buildng_id": "puericultura_mare", "ORIG_FID": 119 }, "geometry": { "type": "Point", "coordinates": [ 26.13996006385031, 44.420251121011461 ] } },
{ "type": "Feature", "properties": { "Id": 120, "name": "PS20", "type": "raft", "floor": 0, "buildng_id": "puericultura_mare", "ORIG_FID": 120 }, "geometry": { "type": "Point", "coordinates": [ 26.13996006385031, 44.420277091185199 ] } },
{ "type": "Feature", "properties": { "Id": 121, "name": "PS21", "type": "raft", "floor": 0, "buildng_id": "puericultura_mare", "ORIG_FID": 121 }, "geometry": { "type": "Point", "coordinates": [ 26.13996006385031, 44.420303081142265 ] } },
{ "type": "Feature", "properties": { "Id": 122, "name": "CP1", "type": "raft", "floor": 0, "buildng_id": "puericultura_mare", "ORIG_FID": 122 }, "geometry": { "type": "Point", "coordinates": [ 26.140238283064775, 44.420034053897325 ] } },
{ "type": "Feature", "properties": { "Id": 123, "name": "CP2", "type": "raft", "floor": 0, "buildng_id": "puericultura_mare", "ORIG_FID": 123 }, "geometry": { "type": "Point", "coordinates": [ 26.14023824844088, 44.420060113552609 ] } },
{ "type": "Feature", "properties": { "Id": 124, "name": "CP3", "type": "raft", "floor": 0, "buildng_id": "puericultura_mare", "ORIG_FID": 124 }, "geometry": { "type": "Point", "coordinates": [ 26.140238214163997, 44.420086122171391 ] } },
{ "type": "Feature", "properties": { "Id": 125, "name": "CP4", "type": "raft", "floor": 0, "buildng_id": "puericultura_mare", "ORIG_FID": 125 }, "geometry": { "type": "Point", "coordinates": [ 26.140238180194423, 44.420112080203786 ] } },
{ "type": "Feature", "properties": { "Id": 126, "name": "CP5", "type": "raft", "floor": 0, "buildng_id": "puericultura_mare", "ORIG_FID": 126 }, "geometry": { "type": "Point", "coordinates": [ 26.140238145693136, 44.420138063245972 ] } },
{ "type": "Feature", "properties": { "Id": 127, "name": "CP6", "type": "raft", "floor": 0, "buildng_id": "puericultura_mare", "ORIG_FID": 127 }, "geometry": { "type": "Point", "coordinates": [ 26.140238111621112, 44.420164021051818 ] } },
{ "type": "Feature", "properties": { "Id": 128, "name": "CP7", "type": "raft", "floor": 0, "buildng_id": "puericultura_mare", "ORIG_FID": 128 }, "geometry": { "type": "Point", "coordinates": [ 26.14023662179207, 44.420207762103132 ] } },
{ "type": "Feature", "properties": { "Id": 129, "name": "CP12", "type": "raft", "floor": 0, "buildng_id": "puericultura_mare", "ORIG_FID": 129 }, "geometry": { "type": "Point", "coordinates": [ 26.140106863110645, 44.420207715337206 ] } },
{ "type": "Feature", "properties": { "Id": 130, "name": "CP11", "type": "raft", "floor": 0, "buildng_id": "puericultura_mare", "ORIG_FID": 130 }, "geometry": { "type": "Point", "coordinates": [ 26.140132744249936, 44.42020772478017 ] } },
{ "type": "Feature", "properties": { "Id": 131, "name": "CP13", "type": "raft", "floor": 0, "buildng_id": "puericultura_mare", "ORIG_FID": 131 }, "geometry": { "type": "Point", "coordinates": [ 26.140080892038952, 44.420207706343376 ] } },
{ "type": "Feature", "properties": { "Id": 132, "name": "CP10", "type": "raft", "floor": 0, "buildng_id": "puericultura_mare", "ORIG_FID": 132 }, "geometry": { "type": "Point", "coordinates": [ 26.140158733758085, 44.420207734016074 ] } },
{ "type": "Feature", "properties": { "Id": 133, "name": "CP9", "type": "raft", "floor": 0, "buildng_id": "puericultura_mare", "ORIG_FID": 133 }, "geometry": { "type": "Point", "coordinates": [ 26.140184646598627, 44.420207743112762 ] } },
{ "type": "Feature", "properties": { "Id": 134, "name": "CP8", "type": "raft", "floor": 0, "buildng_id": "puericultura_mare", "ORIG_FID": 134 }, "geometry": { "type": "Point", "coordinates": [ 26.140210636052448, 44.42020775278155 ] } },
{ "type": "Feature", "properties": { "Id": 135, "name": "CP14", "type": "raft", "floor": 0, "buildng_id": "puericultura_mare", "ORIG_FID": 135 }, "geometry": { "type": "Point", "coordinates": [ 26.140080798005325, 44.420245384358992 ] } },
{ "type": "Feature", "properties": { "Id": 136, "name": "CP15", "type": "raft", "floor": 0, "buildng_id": "puericultura_mare", "ORIG_FID": 136 }, "geometry": { "type": "Point", "coordinates": [ 26.140106800382995, 44.42024539412887 ] } },
{ "type": "Feature", "properties": { "Id": 137, "name": "CP16", "type": "raft", "floor": 0, "buildng_id": "puericultura_mare", "ORIG_FID": 137 }, "geometry": { "type": "Point", "coordinates": [ 26.140132770780152, 44.420245404126049 ] } },
{ "type": "Feature", "properties": { "Id": 138, "name": "CP17", "type": "raft", "floor": 0, "buildng_id": "puericultura_mare", "ORIG_FID": 138 }, "geometry": { "type": "Point", "coordinates": [ 26.140158862865324, 44.420245413792124 ] } },
{ "type": "Feature", "properties": { "Id": 139, "name": "J39", "type": "raft", "floor": 0, "buildng_id": "jucarii", "ORIG_FID": 139 }, "geometry": { "type": "Point", "coordinates": [ 26.140053715099448, 44.419166796009655 ] } }
]
}
