{
"type": "FeatureCollection",
"name": "rafturi",
"crs": { "type": "name", "properties": { "name": "urn:ogc:def:crs:OGC:1.3:CRS84" } },
"features": [
{ "type": "Feature", "properties": { "Id": 0, "name": "J34", "type": "raft", "floor": 0, "buildng_id": "jucarii" }, "geometry": { "type": "MultiPolygon", "coordinates": [ [ [ [ 26.139976776401568, 44.419282912695053 ], [ 26.13996461846682, 44.419275967233261 ], [ 26.139947571817459, 44.419305804938631 ], [ 26.139959730651526, 44.41931275040406 ], [ 26.139976776401568, 44.419282912695053 ] ] ] ] } },
{ "type": "Feature", "properties": { "Id": 1, "name": "J39", "type": "raft", "floor": 0, "buildng_id": "jucarii" }, "geometry": { "type": "MultiPolygon", "coordinates": [ [ [ [ 26.140033546105713, 44.419155312389194 ], [ 26.14004570493978, 44.419162257850985 ], [ 26.140063176069191, 44.419131674607343 ], [ 26.140051018134443, 44.419124729141913 ], [ 26.140033546105713, 44.419155312389194 ] ] ] ] } },
{ "type": "Feature", "properties": { "Id": 2, "name": "J38", "type": "raft", "floor": 0, "buildng_id": "jucarii" }, "geometry": { "type": "MultiPolygon", "coordinates": [ [ [ [ 26.140016332182427, 44.419185444174218 ], [ 26.140028491016494, 44.419192389636009 ], [ 26.14004570493978, 44.419162257850985 ], [ 26.140033546105713, 44.419155312389194 ], [ 26.140016332182427, 44.419185444174218 ] ] ] ] } },
{ "type": "Feature", "properties": { "Id": 3, "name": "J37", "type": "raft", "floor": 0, "buildng_id": "jucarii" }, "geometry": { "type": "MultiPolygon", "coordinates": [ [ [ [ 26.139999120957157, 44.419215570560482 ], [ 26.140011279791167, 44.419222516924492 ], [ 26.140028491016494, 44.419192389636009 ], [ 26.140016332182427, 44.419185444174218 ], [ 26.139999120957157, 44.419215570560482 ] ] ] ] } },
{ "type": "Feature", "properties": { "Id": 4, "name": "J36", "type": "raft", "floor": 0, "buildng_id": "jucarii" }, "geometry": { "type": "MultiPolygon", "coordinates": [ [ [ [ 26.13998191063115, 44.419245696950384 ], [ 26.139994069465217, 44.419252643314394 ], [ 26.140011279791167, 44.419222516924492 ], [ 26.139999120957157, 44.419215570560482 ], [ 26.13998191063115, 44.419245696950384 ] ] ] ] } },
{ "type": "Feature", "properties": { "Id": 5, "name": "J35", "type": "raft", "floor": 0, "buildng_id": "jucarii" }, "geometry": { "type": "MultiPolygon", "coordinates": [ [ [ [ 26.13996461846682, 44.419275967233261 ], [ 26.139976776401568, 44.419282912695053 ], [ 26.139994069465217, 44.419252643314394 ], [ 26.13998191063115, 44.419245696950384 ], [ 26.13996461846682, 44.419275967233261 ] ] ] ] } },
{ "type": "Feature", "properties": { "Id": 6, "name": "J33", "type": "raft", "floor": 0, "buildng_id": "jucarii" }, "geometry": { "type": "MultiPolygon", "coordinates": [ [ [ [ 26.139945381068969, 44.419348646842991 ], [ 26.139959429378621, 44.419348648640153 ], [ 26.139959433875219, 44.419313638034509 ], [ 26.139945386464888, 44.41931363623371 ], [ 26.139945381068969, 44.419348646842991 ] ] ] ] } },
{ "type": "Feature", "properties": { "Id": 7, "name": "J32", "type": "raft", "floor": 0, "buildng_id": "jucarii" }, "geometry": { "type": "MultiPolygon", "coordinates": [ [ [ [ 26.139959429378621, 44.419348648640153 ], [ 26.139945381068969, 44.419348646842991 ], [ 26.139945376572314, 44.419383402040694 ], [ 26.139959423982702, 44.419383403841493 ], [ 26.139959429378621, 44.419348648640153 ] ] ] ] } },
{ "type": "Feature", "properties": { "Id": 8, "name": "J31", "type": "raft", "floor": 0, "buildng_id": "jucarii" }, "geometry": { "type": "MultiPolygon", "coordinates": [ [ [ [ 26.139959423982702, 44.419383403841493 ], [ 26.139945376572314, 44.419383402040694 ], [ 26.139945372075715, 44.419418099685572 ], [ 26.139959418586784, 44.419418101482734 ], [ 26.139959423982702, 44.419383403841493 ] ] ] ] } },
{ "type": "Feature", "properties": { "Id": 9, "name": "J30", "type": "raft", "floor": 0, "buildng_id": "jucarii" }, "geometry": { "type": "MultiPolygon", "coordinates": [ [ [ [ 26.139959418586784, 44.419418101482734 ], [ 26.139945372075715, 44.419418099685572 ], [ 26.139945366679797, 44.419452826106863 ], [ 26.139959414090129, 44.419452827904024 ], [ 26.139959418586784, 44.419418101482734 ] ] ] ] } },
{ "type": "Feature", "properties": { "Id": 10, "name": "J29", "type": "raft", "floor": 0, "buildng_id": "jucarii" }, "geometry": { "type": "MultiPolygon", "coordinates": [ [ [ [ 26.139959414090129, 44.419452827904024 ], [ 26.139945366679797, 44.419452826106863 ], [ 26.139945362183198, 44.419487609186035 ], [ 26.13995940869421, 44.419487611885415 ], [ 26.139959414090129, 44.419452827904024 ] ] ] ] } },
{ "type": "Feature", "properties": { "Id": 11, "name": "J28", "type": "raft", "floor": 0, "buildng_id": "jucarii" }, "geometry": { "type": "MultiPolygon", "coordinates": [ [ [ [ 26.13995940869421, 44.419487611885415 ], [ 26.139945362183198, 44.419487609186035 ], [ 26.13994535678728, 44.419522306827275 ], [ 26.139959404197612, 44.419522309526656 ], [ 26.13995940869421, 44.419487611885415 ] ] ] ] } },
{ "type": "Feature", "properties": { "Id": 12, "name": "J27", "type": "raft", "floor": 0, "buildng_id": "jucarii" }, "geometry": { "type": "MultiPolygon", "coordinates": [ [ [ [ 26.139959404197612, 44.419522309526656 ], [ 26.13994535678728, 44.419522306827275 ], [ 26.139945351391304, 44.419556946915691 ], [ 26.139959398801693, 44.419556949615071 ], [ 26.139959404197612, 44.419522309526656 ] ] ] ] } },
{ "type": "Feature", "properties": { "Id": 13, "name": "J26", "type": "raft", "floor": 0, "buildng_id": "jucarii" }, "geometry": { "type": "MultiPolygon", "coordinates": [ [ [ [ 26.139959398801693, 44.419556949615071 ], [ 26.139945351391304, 44.419556946915691 ], [ 26.139945346894706, 44.419591759673494 ], [ 26.139959394305095, 44.419591761470656 ], [ 26.139959398801693, 44.419556949615071 ] ] ] ] } },
{ "type": "Feature", "properties": { "Id": 14, "name": "J25", "type": "raft", "floor": 0, "buildng_id": "jucarii" }, "geometry": { "type": "MultiPolygon", "coordinates": [ [ [ [ 26.139959394305095, 44.419591761470656 ], [ 26.139945346894706, 44.419591759673494 ], [ 26.139945341498787, 44.419626457314735 ], [ 26.139959388909119, 44.419626459115534 ], [ 26.139959394305095, 44.419591761470656 ] ] ] ] } },
{ "type": "Feature", "properties": { "Id": 15, "name": "J24", "type": "raft", "floor": 0, "buildng_id": "jucarii" }, "geometry": { "type": "MultiPolygon", "coordinates": [ [ [ [ 26.139959388909119, 44.419626459115534 ], [ 26.139945341498787, 44.419626457314735 ], [ 26.139945337002189, 44.41966109740315 ], [ 26.139959384412521, 44.419661099200312 ], [ 26.139959388909119, 44.419626459115534 ] ] ] ] } },
{ "type": "Feature", "properties": { "Id": 16, "name": "J23", "type": "raft", "floor": 0, "buildng_id": "jucarii" }, "geometry": { "type": "MultiPolygon", "coordinates": [ [ [ [ 26.139959384412521, 44.419661099200312 ], [ 26.139945337002189, 44.41966109740315 ], [ 26.139945331606214, 44.419695881380903 ], [ 26.139959379016602, 44.419695883178065 ], [ 26.139959384412521, 44.419661099200312 ] ] ] ] } },
{ "type": "Feature", "properties": { "Id": 17, "name": "J22", "type": "raft", "floor": 0, "buildng_id": "jucarii" }, "geometry": { "type": "MultiPolygon", "coordinates": [ [ [ [ 26.139959379016602, 44.419695883178065 ], [ 26.139945331606214, 44.419695881380903 ], [ 26.139945328908254, 44.419717738503095 ], [ 26.139959376318643, 44.419717740300257 ], [ 26.139959379016602, 44.419695883178065 ] ] ] ] } },
{ "type": "Feature", "properties": { "Id": 18, "name": "PS4", "type": "raft", "floor": 0, "buildng_id": "puericultura_mare" }, "geometry": { "type": "MultiPolygon", "coordinates": [ [ [ [ 26.139976779998847, 44.419793927267165 ], [ 26.139943311728928, 44.419793885899708 ], [ 26.139943281151943, 44.419818860071246 ], [ 26.139976749421919, 44.419818901442341 ], [ 26.139976779998847, 44.419793927267165 ] ] ] ] } },
{ "type": "Feature", "properties": { "Id": 19, "name": "PS3", "type": "raft", "floor": 0, "buildng_id": "puericultura_mare" }, "geometry": { "type": "MultiPolygon", "coordinates": [ [ [ [ 26.139943311728928, 44.419793885899708 ], [ 26.139976779998847, 44.419793927267165 ], [ 26.139976810575831, 44.419768666211894 ], [ 26.139943343205175, 44.419768624840799 ], [ 26.139943311728928, 44.419793885899708 ] ] ] ] } },
{ "type": "Feature", "properties": { "Id": 20, "name": "PS2", "type": "raft", "floor": 0, "buildng_id": "puericultura_mare" }, "geometry": { "type": "MultiPolygon", "coordinates": [ [ [ [ 26.139943343205175, 44.419768624840799 ], [ 26.139976810575831, 44.419768666211894 ], [ 26.139976842052079, 44.419743347596523 ], [ 26.13994337378216, 44.419743307127646 ], [ 26.139943343205175, 44.419768624840799 ] ] ] ] } },
{ "type": "Feature", "properties": { "Id": 21, "name": "PS1", "type": "raft", "floor": 0, "buildng_id": "puericultura_mare" }, "geometry": { "type": "MultiPolygon", "coordinates": [ [ [ [ 26.13994337378216, 44.419743307127646 ], [ 26.139976842052079, 44.419743347596523 ], [ 26.139976871729687, 44.419718389610352 ], [ 26.139943404359087, 44.419718348242895 ], [ 26.13994337378216, 44.419743307127646 ] ] ] ] } },
{ "type": "Feature", "properties": { "Id": 22, "name": "JC1", "type": "raft", "floor": 0, "buildng_id": "jucarii" }, "geometry": { "type": "MultiPolygon", "coordinates": [ [ [ [ 26.140100210151047, 44.419600351793633 ], [ 26.140072300590646, 44.419600351793633 ], [ 26.140072297892686, 44.419628046416619 ], [ 26.140100210151047, 44.41962805001458 ], [ 26.140100210151047, 44.419600351793633 ] ] ] ] } },
{ "type": "Feature", "properties": { "Id": 23, "name": "JC2", "type": "raft", "floor": 0, "buildng_id": "jucarii" }, "geometry": { "type": "MultiPolygon", "coordinates": [ [ [ [ 26.140100210151047, 44.419600351793633 ], [ 26.140100209251727, 44.419572526770935 ], [ 26.140072304187981, 44.419572527669516 ], [ 26.140072300590646, 44.419600351793633 ], [ 26.140100210151047, 44.419600351793633 ] ] ] ] } },
{ "type": "Feature", "properties": { "Id": 24, "name": "JC3", "type": "raft", "floor": 0, "buildng_id": "jucarii" }, "geometry": { "type": "MultiPolygon", "coordinates": [ [ [ [ 26.140100209251727, 44.419572526770935 ], [ 26.140100209251727, 44.419544753007358 ], [ 26.140072306885941, 44.419544753905939 ], [ 26.140072304187981, 44.419572527669516 ], [ 26.140100209251727, 44.419572526770935 ] ] ] ] } },
{ "type": "Feature", "properties": { "Id": 25, "name": "JC4", "type": "raft", "floor": 0, "buildng_id": "jucarii" }, "geometry": { "type": "MultiPolygon", "coordinates": [ [ [ [ 26.140100209251727, 44.419544753007358 ], [ 26.140100208352408, 44.41951692888324 ], [ 26.14007231048322, 44.419516929781821 ], [ 26.140072306885941, 44.419544753905939 ], [ 26.140100209251727, 44.419544753007358 ] ] ] ] } },
{ "type": "Feature", "properties": { "Id": 26, "name": "JC5", "type": "raft", "floor": 0, "buildng_id": "jucarii" }, "geometry": { "type": "MultiPolygon", "coordinates": [ [ [ [ 26.140100208352408, 44.41951692888324 ], [ 26.140100207453088, 44.419488899711723 ], [ 26.140072313181179, 44.419488900613942 ], [ 26.14007231048322, 44.419516929781821 ], [ 26.140100208352408, 44.41951692888324 ] ] ] ] } },
{ "type": "Feature", "properties": { "Id": 27, "name": "JC6", "type": "raft", "floor": 0, "buildng_id": "jucarii" }, "geometry": { "type": "MultiPolygon", "coordinates": [ [ [ [ 26.140100207453088, 44.419488899711723 ], [ 26.140100206553768, 44.419461228473665 ], [ 26.140072316778458, 44.419461229372246 ], [ 26.140072313181179, 44.419488900613942 ], [ 26.140100207453088, 44.419488899711723 ] ] ] ] } },
{ "type": "Feature", "properties": { "Id": 28, "name": "JC7", "type": "raft", "floor": 0, "buildng_id": "jucarii" }, "geometry": { "type": "MultiPolygon", "coordinates": [ [ [ [ 26.140100206553768, 44.419461228473665 ], [ 26.140100206553768, 44.419433353086788 ], [ 26.140072319476417, 44.419433353985369 ], [ 26.140072316778458, 44.419461229372246 ], [ 26.140100206553768, 44.419461228473665 ] ] ] ] } },
{ "type": "Feature", "properties": { "Id": 29, "name": "JC8", "type": "raft", "floor": 0, "buildng_id": "jucarii" }, "geometry": { "type": "MultiPolygon", "coordinates": [ [ [ [ 26.140100205654448, 44.41940557572525 ], [ 26.140072323073696, 44.419405573029508 ], [ 26.140072319476417, 44.419433353985369 ], [ 26.140100206553768, 44.419433353086788 ], [ 26.140100205654448, 44.41940557572525 ] ] ] ] } },
{ "type": "Feature", "properties": { "Id": 30, "name": "JC9", "type": "raft", "floor": 0, "buildng_id": "jucarii" }, "geometry": { "type": "MultiPolygon", "coordinates": [ [ [ [ 26.140072323073696, 44.419405573029508 ], [ 26.140100205654448, 44.41940557572525 ], [ 26.140100204755129, 44.419378009708453 ], [ 26.140072325771655, 44.419378010607034 ], [ 26.140072323073696, 44.419405573029508 ] ] ] ] } },
{ "type": "Feature", "properties": { "Id": 31, "name": "JC18", "type": "raft", "floor": 0, "buildng_id": "jucarii" }, "geometry": { "type": "MultiPolygon", "coordinates": [ [ [ [ 26.140100205654448, 44.41940557572525 ], [ 26.140128099926358, 44.41940557842463 ], [ 26.140128102624317, 44.419378009708453 ], [ 26.140100204755129, 44.419378009708453 ], [ 26.140100205654448, 44.41940557572525 ] ] ] ] } },
{ "type": "Feature", "properties": { "Id": 32, "name": "JC17", "type": "raft", "floor": 0, "buildng_id": "jucarii" }, "geometry": { "type": "MultiPolygon", "coordinates": [ [ [ [ 26.140128097228398, 44.419433352188207 ], [ 26.140128099926358, 44.41940557842463 ], [ 26.140100205654448, 44.41940557572525 ], [ 26.140100206553768, 44.419433353086788 ], [ 26.140128097228398, 44.419433352188207 ] ] ] ] } },
{ "type": "Feature", "properties": { "Id": 33, "name": "JC15", "type": "raft", "floor": 0, "buildng_id": "jucarii" }, "geometry": { "type": "MultiPolygon", "coordinates": [ [ [ [ 26.140128090933104, 44.419488898813142 ], [ 26.140128093631063, 44.419461227575084 ], [ 26.140100206553768, 44.419461228473665 ], [ 26.140100207453088, 44.419488899711723 ], [ 26.140128090933104, 44.419488898813142 ] ] ] ] } },
{ "type": "Feature", "properties": { "Id": 34, "name": "JC16", "type": "raft", "floor": 0, "buildng_id": "jucarii" }, "geometry": { "type": "MultiPolygon", "coordinates": [ [ [ [ 26.140128093631063, 44.419461227575084 ], [ 26.140128097228398, 44.419433352188207 ], [ 26.140100206553768, 44.419433353086788 ], [ 26.140100206553768, 44.419461228473665 ], [ 26.140128093631063, 44.419461227575084 ] ] ] ] } },
{ "type": "Feature", "properties": { "Id": 35, "name": "JC14", "type": "raft", "floor": 0, "buildng_id": "jucarii" }, "geometry": { "type": "MultiPolygon", "coordinates": [ [ [ [ 26.140128087335825, 44.41951692798466 ], [ 26.140128090933104, 44.419488898813142 ], [ 26.140100207453088, 44.419488899711723 ], [ 26.140100208352408, 44.41951692888324 ], [ 26.140128087335825, 44.41951692798466 ] ] ] ] } },
{ "type": "Feature", "properties": { "Id": 36, "name": "JC13", "type": "raft", "floor": 0, "buildng_id": "jucarii" }, "geometry": { "type": "MultiPolygon", "coordinates": [ [ [ [ 26.140128084637865, 44.419544753007358 ], [ 26.140128087335825, 44.41951692798466 ], [ 26.140100208352408, 44.41951692888324 ], [ 26.140100209251727, 44.419544753007358 ], [ 26.140128084637865, 44.419544753007358 ] ] ] ] } },
{ "type": "Feature", "properties": { "Id": 37, "name": "JC12", "type": "raft", "floor": 0, "buildng_id": "jucarii" }, "geometry": { "type": "MultiPolygon", "coordinates": [ [ [ [ 26.140128081040586, 44.419572525872354 ], [ 26.140128084637865, 44.419544753007358 ], [ 26.140100209251727, 44.419544753007358 ], [ 26.140100209251727, 44.419572526770935 ], [ 26.140128081040586, 44.419572525872354 ] ] ] ] } },
{ "type": "Feature", "properties": { "Id": 38, "name": "JC11", "type": "raft", "floor": 0, "buildng_id": "jucarii" }, "geometry": { "type": "MultiPolygon", "coordinates": [ [ [ [ 26.140128078342627, 44.419600350895053 ], [ 26.140128081040586, 44.419572525872354 ], [ 26.140100209251727, 44.419572526770935 ], [ 26.140100210151047, 44.419600351793633 ], [ 26.140128078342627, 44.419600350895053 ] ] ] ] } },
{ "type": "Feature", "properties": { "Id": 39, "name": "JC10", "type": "raft", "floor": 0, "buildng_id": "jucarii" }, "geometry": { "type": "MultiPolygon", "coordinates": [ [ [ [ 26.140128078342627, 44.419600350895053 ], [ 26.140100210151047, 44.419600351793633 ], [ 26.140100210151047, 44.41962805001458 ], [ 26.140128074745292, 44.419628053612541 ], [ 26.140128078342627, 44.419600350895053 ] ] ] ] } },
{ "type": "Feature", "properties": { "Id": 40, "name": "JC34", "type": "raft", "floor": 0, "buildng_id": "jucarii" }, "geometry": { "type": "MultiPolygon", "coordinates": [ [ [ [ 26.140218952137388, 44.419401499100786 ], [ 26.140218955734667, 44.419425482221413 ], [ 26.140246671041496, 44.419425478623452 ], [ 26.140246667444217, 44.419401495502825 ], [ 26.140218952137388, 44.419401499100786 ] ] ] ] } },
{ "type": "Feature", "properties": { "Id": 41, "name": "JC33", "type": "raft", "floor": 0, "buildng_id": "jucarii" }, "geometry": { "type": "MultiPolygon", "coordinates": [ [ [ [ 26.140218955734667, 44.419425482221413 ], [ 26.140218959331946, 44.41945307611968 ], [ 26.140246674638774, 44.419453072521719 ], [ 26.140246671041496, 44.419425478623452 ], [ 26.140218955734667, 44.419425482221413 ] ] ] ] } },
{ "type": "Feature", "properties": { "Id": 42, "name": "JC32", "type": "raft", "floor": 0, "buildng_id": "jucarii" }, "geometry": { "type": "MultiPolygon", "coordinates": [ [ [ [ 26.140218959331946, 44.41945307611968 ], [ 26.140218962929282, 44.419480849879619 ], [ 26.140246678236053, 44.419480846285296 ], [ 26.140246674638774, 44.419453072521719 ], [ 26.140218959331946, 44.41945307611968 ] ] ] ] } },
{ "type": "Feature", "properties": { "Id": 43, "name": "JC31", "type": "raft", "floor": 0, "buildng_id": "jucarii" }, "geometry": { "type": "MultiPolygon", "coordinates": [ [ [ [ 26.140218962929282, 44.419480849879619 ], [ 26.140218966526561, 44.419508674007375 ], [ 26.140246681833389, 44.419508670409414 ], [ 26.140246678236053, 44.419480846285296 ], [ 26.140218962929282, 44.419480849879619 ] ] ] ] } },
{ "type": "Feature", "properties": { "Id": 44, "name": "JC30", "type": "raft", "floor": 0, "buildng_id": "jucarii" }, "geometry": { "type": "MultiPolygon", "coordinates": [ [ [ [ 26.140218966526561, 44.419508674007375 ], [ 26.14021897012384, 44.419536447767314 ], [ 26.140246685430668, 44.419536444172991 ], [ 26.140246681833389, 44.419508670409414 ], [ 26.140218966526561, 44.419508674007375 ] ] ] ] } },
{ "type": "Feature", "properties": { "Id": 45, "name": "JC29", "type": "raft", "floor": 0, "buildng_id": "jucarii" }, "geometry": { "type": "MultiPolygon", "coordinates": [ [ [ [ 26.14021897012384, 44.419536447767314 ], [ 26.140218973721119, 44.419564271895069 ], [ 26.140246689027947, 44.419564268297108 ], [ 26.140246685430668, 44.419536444172991 ], [ 26.14021897012384, 44.419536447767314 ] ] ] ] } },
{ "type": "Feature", "properties": { "Id": 46, "name": "JC28", "type": "raft", "floor": 0, "buildng_id": "jucarii" }, "geometry": { "type": "MultiPolygon", "coordinates": [ [ [ [ 26.140218973721119, 44.419564271895069 ], [ 26.140218977318398, 44.419592096917768 ], [ 26.140246692625226, 44.419592093319807 ], [ 26.140246689027947, 44.419564268297108 ], [ 26.140218973721119, 44.419564271895069 ] ] ] ] } },
{ "type": "Feature", "properties": { "Id": 47, "name": "JC27", "type": "raft", "floor": 0, "buildng_id": "jucarii" }, "geometry": { "type": "MultiPolygon", "coordinates": [ [ [ [ 26.140218977318398, 44.419592096917768 ], [ 26.140218980915677, 44.419619375152251 ], [ 26.140246696222505, 44.419619371557928 ], [ 26.140246692625226, 44.419592093319807 ], [ 26.140218977318398, 44.419592096917768 ] ] ] ] } },
{ "type": "Feature", "properties": { "Id": 48, "name": "JC19", "type": "raft", "floor": 0, "buildng_id": "jucarii" }, "geometry": { "type": "MultiPolygon", "coordinates": [ [ [ [ 26.140218980915677, 44.419619375152251 ], [ 26.140218977318398, 44.419592096917768 ], [ 26.140191043476364, 44.419592100515729 ], [ 26.140191047073642, 44.419619378750212 ], [ 26.140218980915677, 44.419619375152251 ] ] ] ] } },
{ "type": "Feature", "properties": { "Id": 49, "name": "JC20", "type": "raft", "floor": 0, "buildng_id": "jucarii" }, "geometry": { "type": "MultiPolygon", "coordinates": [ [ [ [ 26.140218977318398, 44.419592096917768 ], [ 26.140218973721119, 44.419564271895069 ], [ 26.140191039879028, 44.419564276391611 ], [ 26.140191043476364, 44.419592100515729 ], [ 26.140218977318398, 44.419592096917768 ] ] ] ] } },
{ "type": "Feature", "properties": { "Id": 50, "name": "JC21", "type": "raft", "floor": 0, "buildng_id": "jucarii" }, "geometry": { "type": "MultiPolygon", "coordinates": [ [ [ [ 26.140218973721119, 44.419564271895069 ], [ 26.14021897012384, 44.419536447767314 ], [ 26.140191036281749, 44.419536451365275 ], [ 26.140191039879028, 44.419564276391611 ], [ 26.140218973721119, 44.419564271895069 ] ] ] ] } },
{ "type": "Feature", "properties": { "Id": 51, "name": "JC22", "type": "raft", "floor": 0, "buildng_id": "jucarii" }, "geometry": { "type": "MultiPolygon", "coordinates": [ [ [ [ 26.14021897012384, 44.419536447767314 ], [ 26.140218966526561, 44.419508674007375 ], [ 26.14019103268447, 44.419508678503917 ], [ 26.140191036281749, 44.419536451365275 ], [ 26.14021897012384, 44.419536447767314 ] ] ] ] } },
{ "type": "Feature", "properties": { "Id": 52, "name": "JC23", "type": "raft", "floor": 0, "buildng_id": "jucarii" }, "geometry": { "type": "MultiPolygon", "coordinates": [ [ [ [ 26.140218966526561, 44.419508674007375 ], [ 26.140218962929282, 44.419480849879619 ], [ 26.140191029087191, 44.41948085347758 ], [ 26.14019103268447, 44.419508678503917 ], [ 26.140218966526561, 44.419508674007375 ] ] ] ] } },
{ "type": "Feature", "properties": { "Id": 53, "name": "JC24", "type": "raft", "floor": 0, "buildng_id": "jucarii" }, "geometry": { "type": "MultiPolygon", "coordinates": [ [ [ [ 26.140218962929282, 44.419480849879619 ], [ 26.140218959331946, 44.41945307611968 ], [ 26.140191025489912, 44.419453079714003 ], [ 26.140191029087191, 44.41948085347758 ], [ 26.140218962929282, 44.419480849879619 ] ] ] ] } },
{ "type": "Feature", "properties": { "Id": 54, "name": "JC25", "type": "raft", "floor": 0, "buildng_id": "jucarii" }, "geometry": { "type": "MultiPolygon", "coordinates": [ [ [ [ 26.140218959331946, 44.41945307611968 ], [ 26.140218955734667, 44.419425482221413 ], [ 26.140191021892633, 44.419425485815736 ], [ 26.140191025489912, 44.419453079714003 ], [ 26.140218959331946, 44.41945307611968 ] ] ] ] } },
{ "type": "Feature", "properties": { "Id": 55, "name": "JC26", "type": "raft", "floor": 0, "buildng_id": "jucarii" }, "geometry": { "type": "MultiPolygon", "coordinates": [ [ [ [ 26.140218955734667, 44.419425482221413 ], [ 26.140218952137388, 44.419401499100786 ], [ 26.140191018295297, 44.419401502698747 ], [ 26.140191021892633, 44.419425485815736 ], [ 26.140218955734667, 44.419425482221413 ] ] ] ] } },
{ "type": "Feature", "properties": { "Id": 56, "name": "J3", "type": "raft", "floor": 0, "buildng_id": "jucarii" }, "geometry": { "type": "MultiPolygon", "coordinates": [ [ [ [ 26.140277514190416, 44.419208430845174 ], [ 26.140277544767343, 44.419222754346265 ], [ 26.140321035082195, 44.419222663516848 ], [ 26.140321004505211, 44.419208339113538 ], [ 26.140277514190416, 44.419208430845174 ] ] ] ] } },
{ "type": "Feature", "properties": { "Id": 57, "name": "J2", "type": "raft", "floor": 0, "buildng_id": "jucarii" }, "geometry": { "type": "MultiPolygon", "coordinates": [ [ [ [ 26.140277544767343, 44.419222754346265 ], [ 26.140277514190416, 44.419208430845174 ], [ 26.140242912774681, 44.419208503688424 ], [ 26.140242942452289, 44.419222827193153 ], [ 26.140277544767343, 44.419222754346265 ] ] ] ] } },
{ "type": "Feature", "properties": { "Id": 58, "name": "J1", "type": "raft", "floor": 0, "buildng_id": "jucarii" }, "geometry": { "type": "MultiPolygon", "coordinates": [ [ [ [ 26.140242942452289, 44.419222827193153 ], [ 26.140242912774681, 44.419208503688424 ], [ 26.140207906664045, 44.419208577433892 ], [ 26.140207936341653, 44.419222900934983 ], [ 26.140242942452289, 44.419222827193153 ] ] ] ] } },
{ "type": "Feature", "properties": { "Id": 59, "name": "AG J4", "type": "raft", "floor": 0, "buildng_id": "jucarii" }, "geometry": { "type": "MultiPolygon", "coordinates": [ [ [ [ 26.140330469869753, 44.41925756890123 ], [ 26.140344531669257, 44.41925756890123 ], [ 26.140344531669257, 44.419222580778296 ], [ 26.140330469869753, 44.419222580778296 ], [ 26.140330469869753, 44.41925756890123 ] ] ] ] } },
{ "type": "Feature", "properties": { "Id": 60, "name": "AG J5", "type": "raft", "floor": 0, "buildng_id": "jucarii" }, "geometry": { "type": "MultiPolygon", "coordinates": [ [ [ [ 26.140344531669257, 44.41925756890123 ], [ 26.140330469869753, 44.41925756890123 ], [ 26.140330469869753, 44.419292400543782 ], [ 26.140344531669257, 44.419292400543782 ], [ 26.140344531669257, 44.41925756890123 ] ] ] ] } },
{ "type": "Feature", "properties": { "Id": 61, "name": "AG J6", "type": "raft", "floor": 0, "buildng_id": "jucarii" }, "geometry": { "type": "MultiPolygon", "coordinates": [ [ [ [ 26.140344531669257, 44.419292400543782 ], [ 26.140330469869753, 44.419292400543782 ], [ 26.140330469869753, 44.419327040632197 ], [ 26.140344531669257, 44.419327040632197 ], [ 26.140344531669257, 44.419292400543782 ] ] ] ] } },
{ "type": "Feature", "properties": { "Id": 62, "name": "AG J7", "type": "raft", "floor": 0, "buildng_id": "jucarii" }, "geometry": { "type": "MultiPolygon", "coordinates": [ [ [ [ 26.140344531669257, 44.419327040632197 ], [ 26.140330469869753, 44.419327040632197 ], [ 26.140330469869753, 44.419361719388689 ], [ 26.140344531669257, 44.419361719388689 ], [ 26.140344531669257, 44.419327040632197 ] ] ] ] } },
{ "type": "Feature", "properties": { "Id": 63, "name": "AG J8", "type": "raft", "floor": 0, "buildng_id": "jucarii" }, "geometry": { "type": "MultiPolygon", "coordinates": [ [ [ [ 26.140344531669257, 44.419361719388689 ], [ 26.140330469869753, 44.419361719388689 ], [ 26.140330469869753, 44.419408465248125 ], [ 26.140344531669257, 44.419408465248125 ], [ 26.140344531669257, 44.419361719388689 ] ] ] ] } },
{ "type": "Feature", "properties": { "Id": 64, "name": "J9", "type": "raft", "floor": 0, "buildng_id": "jucarii" }, "geometry": { "type": "MultiPolygon", "coordinates": [ [ [ [ 26.140326660341543, 44.419479778789537 ], [ 26.140340754516671, 44.419479778789537 ], [ 26.140340754516671, 44.419444814946473 ], [ 26.140326660341543, 44.419444814946473 ], [ 26.140326660341543, 44.419479778789537 ] ] ] ] } },
{ "type": "Feature", "properties": { "Id": 65, "name": "J10", "type": "raft", "floor": 0, "buildng_id": "jucarii" }, "geometry": { "type": "MultiPolygon", "coordinates": [ [ [ [ 26.140340754516671, 44.419479778789537 ], [ 26.140326660341543, 44.419479778789537 ], [ 26.140326660341543, 44.419514495319163 ], [ 26.140340754516671, 44.419514495319163 ], [ 26.140340754516671, 44.419479778789537 ] ] ] ] } },
{ "type": "Feature", "properties": { "Id": 66, "name": "J11", "type": "raft", "floor": 0, "buildng_id": "jucarii" }, "geometry": { "type": "MultiPolygon", "coordinates": [ [ [ [ 26.140340754516671, 44.419514495319163 ], [ 26.140326660341543, 44.419514495319163 ], [ 26.140326660341543, 44.419549250516866 ], [ 26.140340754516671, 44.419549250516866 ], [ 26.140340754516671, 44.419514495319163 ] ] ] ] } },
{ "type": "Feature", "properties": { "Id": 67, "name": "J12", "type": "raft", "floor": 0, "buildng_id": "jucarii" }, "geometry": { "type": "MultiPolygon", "coordinates": [ [ [ [ 26.140340754516671, 44.419549250516866 ], [ 26.140326660341543, 44.419549250516866 ], [ 26.140326660341543, 44.419583929273358 ], [ 26.140340754516671, 44.419583929273358 ], [ 26.140340754516671, 44.419549250516866 ] ] ] ] } },
{ "type": "Feature", "properties": { "Id": 68, "name": "J13", "type": "raft", "floor": 0, "buildng_id": "jucarii" }, "geometry": { "type": "MultiPolygon", "coordinates": [ [ [ [ 26.140340754516671, 44.419583929273358 ], [ 26.140326660341543, 44.419583929273358 ], [ 26.140326660341543, 44.419633513396548 ], [ 26.140340754516671, 44.419633513396548 ], [ 26.140340754516671, 44.419583929273358 ] ] ] ] } },
{ "type": "Feature", "properties": { "Id": 69, "name": "J14", "type": "raft", "floor": 0, "buildng_id": "jucarii" }, "geometry": { "type": "MultiPolygon", "coordinates": [ [ [ [ 26.140316888308234, 44.419686527529848 ], [ 26.140316888308234, 44.419633731929935 ], [ 26.140302809421598, 44.419633731929935 ], [ 26.140302809421598, 44.419686527529848 ], [ 26.140316888308234, 44.419686527529848 ] ] ] ] } },
{ "type": "Feature", "properties": { "Id": 70, "name": "J15", "type": "raft", "floor": 0, "buildng_id": "jucarii" }, "geometry": { "type": "MultiPolygon", "coordinates": [ [ [ [ 26.140276323488024, 44.419687205619994 ], [ 26.140276323488024, 44.419701476061164 ], [ 26.140301808476124, 44.419701476061164 ], [ 26.140301808476124, 44.419687205619994 ], [ 26.140276323488024, 44.419687205619994 ] ] ] ] } },
{ "type": "Feature", "properties": { "Id": 71, "name": "J16", "type": "raft", "floor": 0, "buildng_id": "jucarii" }, "geometry": { "type": "MultiPolygon", "coordinates": [ [ [ [ 26.140276323488024, 44.419687205619994 ], [ 26.140241645629885, 44.419687205619994 ], [ 26.140241645629885, 44.419701476061164 ], [ 26.140276323488024, 44.419701476061164 ], [ 26.140276323488024, 44.419687205619994 ] ] ] ] } },
{ "type": "Feature", "properties": { "Id": 72, "name": "J17", "type": "raft", "floor": 0, "buildng_id": "jucarii" }, "geometry": { "type": "MultiPolygon", "coordinates": [ [ [ [ 26.140241645629885, 44.419687205619994 ], [ 26.140206851759274, 44.419687205619994 ], [ 26.140206851759274, 44.419701476061164 ], [ 26.140241645629885, 44.419701476061164 ], [ 26.140241645629885, 44.419687205619994 ] ] ] ] } },
{ "type": "Feature", "properties": { "Id": 73, "name": "J18", "type": "raft", "floor": 0, "buildng_id": "jucarii" }, "geometry": { "type": "MultiPolygon", "coordinates": [ [ [ [ 26.140206851759274, 44.419687205619994 ], [ 26.140172173001872, 44.419687205619994 ], [ 26.140172173001872, 44.419701476061164 ], [ 26.140206851759274, 44.419701476061164 ], [ 26.140206851759274, 44.419687205619994 ] ] ] ] } },
{ "type": "Feature", "properties": { "Id": 74, "name": "J19", "type": "raft", "floor": 0, "buildng_id": "jucarii" }, "geometry": { "type": "MultiPolygon", "coordinates": [ [ [ [ 26.140172173001872, 44.419687205619994 ], [ 26.140137495143733, 44.419687205619994 ], [ 26.140137495143733, 44.419701476061164 ], [ 26.140172173001872, 44.419701476061164 ], [ 26.140172173001872, 44.419687205619994 ] ] ] ] } },
{ "type": "Feature", "properties": { "Id": 75, "name": "J20", "type": "raft", "floor": 0, "buildng_id": "jucarii" }, "geometry": { "type": "MultiPolygon", "coordinates": [ [ [ [ 26.140137495143733, 44.419687205619994 ], [ 26.140102816386332, 44.419687205619994 ], [ 26.140102816386332, 44.419701476061164 ], [ 26.140137495143733, 44.419701476061164 ], [ 26.140137495143733, 44.419687205619994 ] ] ] ] } },
{ "type": "Feature", "properties": { "Id": 76, "name": "J21", "type": "raft", "floor": 0, "buildng_id": "jucarii" }, "geometry": { "type": "MultiPolygon", "coordinates": [ [ [ [ 26.140102816386332, 44.419687205619994 ], [ 26.140068377747923, 44.419687205619994 ], [ 26.140068377747923, 44.419701476061164 ], [ 26.140102816386332, 44.419701476061164 ], [ 26.140102816386332, 44.419687205619994 ] ] ] ] } },
{ "type": "Feature", "properties": { "Id": 77, "name": "CS1", "type": "raft", "floor": 0, "buildng_id": "puericultura_mare" }, "geometry": { "type": "MultiPolygon", "coordinates": [ [ [ [ 26.140130949877914, 44.41970772725108 ], [ 26.140067692464527, 44.41970772725108 ], [ 26.140067692464527, 44.419739221506461 ], [ 26.140130949877914, 44.419739221506461 ], [ 26.140130949877914, 44.41970772725108 ] ] ] ] } },
{ "type": "Feature", "properties": { "Id": 78, "name": "CS2", "type": "raft", "floor": 0, "buildng_id": "puericultura_mare" }, "geometry": { "type": "MultiPolygon", "coordinates": [ [ [ [ 26.140193977064882, 44.41970772725108 ], [ 26.140130949877914, 44.41970772725108 ], [ 26.140130949877914, 44.419739221506461 ], [ 26.140193977064882, 44.419739221506461 ], [ 26.140193977064882, 44.41970772725108 ] ] ] ] } },
{ "type": "Feature", "properties": { "Id": 79, "name": "CS3", "type": "raft", "floor": 0, "buildng_id": "puericultura_mare" }, "geometry": { "type": "MultiPolygon", "coordinates": [ [ [ [ 26.140256965580988, 44.41970772725108 ], [ 26.140193977064882, 44.41970772725108 ], [ 26.140193977064882, 44.419739221506461 ], [ 26.140256965580988, 44.419739221506461 ], [ 26.140256965580988, 44.41970772725108 ] ] ] ] } },
{ "type": "Feature", "properties": { "Id": 80, "name": "CS4", "type": "raft", "floor": 0, "buildng_id": "puericultura_mare" }, "geometry": { "type": "MultiPolygon", "coordinates": [ [ [ [ 26.140256965580988, 44.41970772725108 ], [ 26.140256965580988, 44.419739221506461 ], [ 26.140312589548842, 44.419739221506461 ], [ 26.140312589548842, 44.41970772725108 ], [ 26.140256965580988, 44.41970772725108 ] ] ] ] } },
{ "type": "Feature", "properties": { "Id": 81, "name": "CS5", "type": "raft", "floor": 0, "buildng_id": "puericultura_mare" }, "geometry": { "type": "MultiPolygon", "coordinates": [ [ [ [ 26.140344084706214, 44.419741821446223 ], [ 26.140312551777299, 44.419741821446223 ], [ 26.140312551777299, 44.419804848635977 ], [ 26.140344084706214, 44.419804848635977 ], [ 26.140344084706214, 44.419741821446223 ] ] ] ] } },
{ "type": "Feature", "properties": { "Id": 82, "name": "CS6", "type": "raft", "floor": 0, "buildng_id": "puericultura_mare" }, "geometry": { "type": "MultiPolygon", "coordinates": [ [ [ [ 26.140258264201975, 44.419804868419305 ], [ 26.140258274993869, 44.419836560529802 ], [ 26.140312562569193, 44.419836540742835 ], [ 26.140312551777299, 44.419804848635977 ], [ 26.140258264201975, 44.419804868419305 ] ] ] ] } },
{ "type": "Feature", "properties": { "Id": 83, "name": "CS7", "type": "raft", "floor": 0, "buildng_id": "puericultura_mare" }, "geometry": { "type": "MultiPolygon", "coordinates": [ [ [ [ 26.140258274993869, 44.419836560529802 ], [ 26.140258264201975, 44.419804868419305 ], [ 26.140194513960125, 44.419804890902014 ], [ 26.140194524751962, 44.419836583012511 ], [ 26.140258274993869, 44.419836560529802 ] ] ] ] } },
{ "type": "Feature", "properties": { "Id": 84, "name": "CS8", "type": "raft", "floor": 0, "buildng_id": "puericultura_mare" }, "geometry": { "type": "MultiPolygon", "coordinates": [ [ [ [ 26.140221357823862, 44.419862352184282 ], [ 26.140221331743533, 44.419964130262088 ], [ 26.140255404357902, 44.419964138352952 ], [ 26.140255430438231, 44.419862361177366 ], [ 26.140221357823862, 44.419862352184282 ] ] ] ] } },
{ "type": "Feature", "properties": { "Id": 85, "name": "PC20", "type": "raft", "floor": 0, "buildng_id": "puericultura_mare" }, "geometry": { "type": "MultiPolygon", "coordinates": [ [ [ [ 26.14010856665152, 44.419870686204376 ], [ 26.14010856665152, 44.419894208869664 ], [ 26.1401475819398, 44.419894208869664 ], [ 26.1401475819398, 44.419870686204376 ], [ 26.14010856665152, 44.419870686204376 ] ] ] ] } },
{ "type": "Feature", "properties": { "Id": 86, "name": "PC19", "type": "raft", "floor": 0, "buildng_id": "puericultura_mare" }, "geometry": { "type": "MultiPolygon", "coordinates": [ [ [ [ 26.14010856665152, 44.419870686204376 ], [ 26.140069581040791, 44.419870686204376 ], [ 26.140069581040791, 44.419894208869664 ], [ 26.14010856665152, 44.419894208869664 ], [ 26.14010856665152, 44.419870686204376 ] ] ] ] } },
{ "type": "Feature", "properties": { "Id": 87, "name": "PC18", "type": "raft", "floor": 0, "buildng_id": "puericultura_mare" }, "geometry": { "type": "MultiPolygon", "coordinates": [ [ [ [ 26.14010856665152, 44.419894208869664 ], [ 26.14010856665152, 44.419917941981112 ], [ 26.1401475819398, 44.419917941981112 ], [ 26.1401475819398, 44.419894208869664 ], [ 26.14010856665152, 44.419894208869664 ] ] ] ] } },
{ "type": "Feature", "properties": { "Id": 88, "name": "PC17", "type": "raft", "floor": 0, "buildng_id": "puericultura_mare" }, "geometry": { "type": "MultiPolygon", "coordinates": [ [ [ [ 26.14010856665152, 44.419894208869664 ], [ 26.140069581040791, 44.419894208869664 ], [ 26.140069581040791, 44.419917941981112 ], [ 26.14010856665152, 44.419917941981112 ], [ 26.14010856665152, 44.419894208869664 ] ] ] ] } },
{ "type": "Feature", "properties": { "Id": 89, "name": "PC16", "type": "raft", "floor": 0, "buildng_id": "puericultura_mare" }, "geometry": { "type": "MultiPolygon", "coordinates": [ [ [ [ 26.14010856665152, 44.419917941981112 ], [ 26.14010856665152, 44.419941725449462 ], [ 26.1401475819398, 44.419941725449462 ], [ 26.1401475819398, 44.419917941981112 ], [ 26.14010856665152, 44.419917941981112 ] ] ] ] } },
{ "type": "Feature", "properties": { "Id": 90, "name": "PC15", "type": "raft", "floor": 0, "buildng_id": "puericultura_mare" }, "geometry": { "type": "MultiPolygon", "coordinates": [ [ [ [ 26.14010856665152, 44.419917941981112 ], [ 26.140069581040791, 44.419917941981112 ], [ 26.140069581040791, 44.419941725449462 ], [ 26.14010856665152, 44.419941725449462 ], [ 26.14010856665152, 44.419917941981112 ] ] ] ] } },
{ "type": "Feature", "properties": { "Id": 91, "name": "PC14", "type": "raft", "floor": 0, "buildng_id": "puericultura_mare" }, "geometry": { "type": "MultiPolygon", "coordinates": [ [ [ [ 26.14010856665152, 44.419941725449462 ], [ 26.14010856665152, 44.419965356035391 ], [ 26.1401475819398, 44.419965356035391 ], [ 26.1401475819398, 44.419941725449462 ], [ 26.14010856665152, 44.419941725449462 ] ] ] ] } },
{ "type": "Feature", "properties": { "Id": 92, "name": "PC13", "type": "raft", "floor": 0, "buildng_id": "puericultura_mare" }, "geometry": { "type": "MultiPolygon", "coordinates": [ [ [ [ 26.14010856665152, 44.419941725449462 ], [ 26.140069581040791, 44.419941725449462 ], [ 26.140069581040791, 44.419965356035391 ], [ 26.14010856665152, 44.419965356035391 ], [ 26.14010856665152, 44.419941725449462 ] ] ] ] } },
{ "type": "Feature", "properties": { "Id": 93, "name": "PC12", "type": "raft", "floor": 0, "buildng_id": "puericultura_mare" }, "geometry": { "type": "MultiPolygon", "coordinates": [ [ [ [ 26.14010856665152, 44.419965356035391 ], [ 26.14010856665152, 44.419989190770139 ], [ 26.1401475819398, 44.419989190770139 ], [ 26.1401475819398, 44.419965356035391 ], [ 26.14010856665152, 44.419965356035391 ] ] ] ] } },
{ "type": "Feature", "properties": { "Id": 94, "name": "PC11", "type": "raft", "floor": 0, "buildng_id": "puericultura_mare" }, "geometry": { "type": "MultiPolygon", "coordinates": [ [ [ [ 26.14010856665152, 44.419965356035391 ], [ 26.140069581040791, 44.419965356035391 ], [ 26.140069581040791, 44.419989190770139 ], [ 26.14010856665152, 44.419989190770139 ], [ 26.14010856665152, 44.419965356035391 ] ] ] ] } },
{ "type": "Feature", "properties": { "Id": 95, "name": "PC10", "type": "raft", "floor": 0, "buildng_id": "puericultura_mare" }, "geometry": { "type": "MultiPolygon", "coordinates": [ [ [ [ 26.14010856665152, 44.419989190770139 ], [ 26.14010856665152, 44.420012821356067 ], [ 26.1401475819398, 44.420012821356067 ], [ 26.1401475819398, 44.419989190770139 ], [ 26.14010856665152, 44.419989190770139 ] ] ] ] } },
{ "type": "Feature", "properties": { "Id": 96, "name": "PC9", "type": "raft", "floor": 0, "buildng_id": "puericultura_mare" }, "geometry": { "type": "MultiPolygon", "coordinates": [ [ [ [ 26.14010856665152, 44.419989190770139 ], [ 26.140069581040791, 44.419989190770139 ], [ 26.140069581040791, 44.420012821356067 ], [ 26.14010856665152, 44.420012821356067 ], [ 26.14010856665152, 44.419989190770139 ] ] ] ] } },
{ "type": "Feature", "properties": { "Id": 97, "name": "PC8", "type": "raft", "floor": 0, "buildng_id": "puericultura_mare" }, "geometry": { "type": "MultiPolygon", "coordinates": [ [ [ [ 26.14010856665152, 44.420012821356067 ], [ 26.14010856665152, 44.420036656087177 ], [ 26.1401475819398, 44.420036656087177 ], [ 26.1401475819398, 44.420012821356067 ], [ 26.14010856665152, 44.420012821356067 ] ] ] ] } },
{ "type": "Feature", "properties": { "Id": 98, "name": "PC7", "type": "raft", "floor": 0, "buildng_id": "puericultura_mare" }, "geometry": { "type": "MultiPolygon", "coordinates": [ [ [ [ 26.14010856665152, 44.420012821356067 ], [ 26.140069581040791, 44.420012821356067 ], [ 26.140069581040791, 44.420036656087177 ], [ 26.14010856665152, 44.420036656087177 ], [ 26.14010856665152, 44.420012821356067 ] ] ] ] } },
{ "type": "Feature", "properties": { "Id": 99, "name": "PC6", "type": "raft", "floor": 0, "buildng_id": "puericultura_mare" }, "geometry": { "type": "MultiPolygon", "coordinates": [ [ [ [ 26.14010856665152, 44.420036656087177 ], [ 26.14010856665152, 44.420060440457746 ], [ 26.1401475819398, 44.420060440457746 ], [ 26.1401475819398, 44.420036656087177 ], [ 26.14010856665152, 44.420036656087177 ] ] ] ] } },
{ "type": "Feature", "properties": { "Id": 100, "name": "PC5", "type": "raft", "floor": 0, "buildng_id": "puericultura_mare" }, "geometry": { "type": "MultiPolygon", "coordinates": [ [ [ [ 26.14010856665152, 44.420036656087177 ], [ 26.140069581040791, 44.420036656087177 ], [ 26.140069581040791, 44.420060440457746 ], [ 26.14010856665152, 44.420060440457746 ], [ 26.14010856665152, 44.420036656087177 ] ] ] ] } },
{ "type": "Feature", "properties": { "Id": 101, "name": "PC4", "type": "raft", "floor": 0, "buildng_id": "puericultura_mare" }, "geometry": { "type": "MultiPolygon", "coordinates": [ [ [ [ 26.14010856665152, 44.420060440457746 ], [ 26.14010856665152, 44.420084172666975 ], [ 26.1401475819398, 44.420084172666975 ], [ 26.1401475819398, 44.420060440457746 ], [ 26.14010856665152, 44.420060440457746 ] ] ] ] } },
{ "type": "Feature", "properties": { "Id": 102, "name": "PC3", "type": "raft", "floor": 0, "buildng_id": "puericultura_mare" }, "geometry": { "type": "MultiPolygon", "coordinates": [ [ [ [ 26.14010856665152, 44.420060440457746 ], [ 26.140069581040791, 44.420060440457746 ], [ 26.140069581040791, 44.420084172666975 ], [ 26.14010856665152, 44.420084172666975 ], [ 26.14010856665152, 44.420060440457746 ] ] ] ] } },
{ "type": "Feature", "properties": { "Id": 103, "name": "PC2", "type": "raft", "floor": 0, "buildng_id": "puericultura_mare" }, "geometry": { "type": "MultiPolygon", "coordinates": [ [ [ [ 26.14010856665152, 44.420084172666975 ], [ 26.14010856665152, 44.420107761885447 ], [ 26.1401475819398, 44.420107761885447 ], [ 26.1401475819398, 44.420084172666975 ], [ 26.14010856665152, 44.420084172666975 ] ] ] ] } },
{ "type": "Feature", "properties": { "Id": 104, "name": "PC1", "type": "raft", "floor": 0, "buildng_id": "puericultura_mare" }, "geometry": { "type": "MultiPolygon", "coordinates": [ [ [ [ 26.14010856665152, 44.420084172666975 ], [ 26.140069581040791, 44.420084172666975 ], [ 26.140069581040791, 44.420107761885447 ], [ 26.14010856665152, 44.420107761885447 ], [ 26.14010856665152, 44.420084172666975 ] ] ] ] } },
{ "type": "Feature", "properties": { "Id": 105, "name": "PS5", "type": "raft", "floor": 0, "buildng_id": "puericultura_mare" }, "geometry": { "type": "MultiPolygon", "coordinates": [ [ [ [ 26.139943236185843, 44.419900002303621 ], [ 26.139976891514777, 44.419900002303621 ], [ 26.139976891514777, 44.419875443618366 ], [ 26.139943236185843, 44.419875443618366 ], [ 26.139943236185843, 44.419900002303621 ] ] ] ] } },
{ "type": "Feature", "properties": { "Id": 106, "name": "PS6", "type": "raft", "floor": 0, "buildng_id": "puericultura_mare" }, "geometry": { "type": "MultiPolygon", "coordinates": [ [ [ [ 26.139976891514777, 44.419901421431859 ], [ 26.139943236185843, 44.419901421431859 ], [ 26.139943236185843, 44.419925857811904 ], [ 26.139976891514777, 44.419925857811904 ], [ 26.139976891514777, 44.419901421431859 ] ] ] ] } },
{ "type": "Feature", "properties": { "Id": 107, "name": "PS7", "type": "raft", "floor": 0, "buildng_id": "puericultura_mare" }, "geometry": { "type": "MultiPolygon", "coordinates": [ [ [ [ 26.139976891514777, 44.419927353384992 ], [ 26.139943236185843, 44.419927353384992 ], [ 26.139943236185843, 44.419951904877962 ], [ 26.139976891514777, 44.419951904877962 ], [ 26.139976891514777, 44.419927353384992 ] ] ] ] } },
{ "type": "Feature", "properties": { "Id": 108, "name": "PS8", "type": "raft", "floor": 0, "buildng_id": "puericultura_mare" }, "geometry": { "type": "MultiPolygon", "coordinates": [ [ [ [ 26.139976891514777, 44.419953324006201 ], [ 26.139943236185843, 44.419953324006201 ], [ 26.139943236185843, 44.419977913268667 ], [ 26.139976891514777, 44.419977913268667 ], [ 26.139976891514777, 44.419953324006201 ] ] ] ] } },
{ "type": "Feature", "properties": { "Id": 109, "name": "PS9", "type": "raft", "floor": 0, "buildng_id": "puericultura_mare" }, "geometry": { "type": "MultiPolygon", "coordinates": [ [ [ [ 26.139976891514777, 44.419979255959333 ], [ 26.139943236185843, 44.419979255959333 ], [ 26.139943236185843, 44.420003883893514 ], [ 26.139976891514777, 44.420003883893514 ], [ 26.139976891514777, 44.419979255959333 ] ] ] ] } },
{ "type": "Feature", "properties": { "Id": 110, "name": "PS10", "type": "raft", "floor": 0, "buildng_id": "puericultura_mare" }, "geometry": { "type": "MultiPolygon", "coordinates": [ [ [ [ 26.139976891514777, 44.420005187908828 ], [ 26.139943236185843, 44.420005187908828 ], [ 26.139943236185843, 44.420029815843009 ], [ 26.139976891514777, 44.420029815843009 ], [ 26.139976891514777, 44.420005187908828 ] ] ] ] } },
{ "type": "Feature", "properties": { "Id": 111, "name": "PS11", "type": "raft", "floor": 0, "buildng_id": "puericultura_mare" }, "geometry": { "type": "MultiPolygon", "coordinates": [ [ [ [ 26.139976891514777, 44.420031197201752 ], [ 26.139943236185843, 44.420031197201752 ], [ 26.139943236185843, 44.420055786464218 ], [ 26.139976891514777, 44.420055786464218 ], [ 26.139976891514777, 44.420031197201752 ] ] ] ] } },
{ "type": "Feature", "properties": { "Id": 112, "name": "PS13", "type": "raft", "floor": 0, "buildng_id": "puericultura_mare" }, "geometry": { "type": "MultiPolygon", "coordinates": [ [ [ [ 26.139976891514777, 44.420083099776093 ], [ 26.139943236185843, 44.420083099776093 ], [ 26.139943236185843, 44.420107689038559 ], [ 26.139976891514777, 44.420107689038559 ], [ 26.139976891514777, 44.420083099776093 ] ] ] ] } },
{ "type": "Feature", "properties": { "Id": 113, "name": "PS12", "type": "raft", "floor": 0, "buildng_id": "puericultura_mare" }, "geometry": { "type": "MultiPolygon", "coordinates": [ [ [ [ 26.139976891514777, 44.420057090483169 ], [ 26.139943236185843, 44.420057090483169 ], [ 26.139943236185843, 44.420081794858561 ], [ 26.139976891514777, 44.420081794858561 ], [ 26.139976891514777, 44.420057090483169 ] ] ] ] } },
{ "type": "Feature", "properties": { "Id": 114, "name": "PS14", "type": "raft", "floor": 0, "buildng_id": "puericultura_mare" }, "geometry": { "type": "MultiPolygon", "coordinates": [ [ [ [ 26.139976891514777, 44.420109108170436 ], [ 26.139943236185843, 44.420109108170436 ], [ 26.139943236185843, 44.420133697432902 ], [ 26.139976891514777, 44.420133697432902 ], [ 26.139976891514777, 44.420109108170436 ] ] ] ] } },
{ "type": "Feature", "properties": { "Id": 115, "name": "PS15", "type": "raft", "floor": 0, "buildng_id": "puericultura_mare" }, "geometry": { "type": "MultiPolygon", "coordinates": [ [ [ [ 26.139976891514777, 44.42013496367872 ], [ 26.139943236185843, 44.42013496367872 ], [ 26.139943236185843, 44.420159629382397 ], [ 26.139976891514777, 44.420159629382397 ], [ 26.139976891514777, 44.42013496367872 ] ] ] ] } },
{ "type": "Feature", "properties": { "Id": 116, "name": "PS16", "type": "raft", "floor": 0, "buildng_id": "puericultura_mare" }, "geometry": { "type": "MultiPolygon", "coordinates": [ [ [ [ 26.139976891514777, 44.420160934299929 ], [ 26.139943236185843, 44.420160934299929 ], [ 26.139943236185843, 44.420185600003606 ], [ 26.139976891514777, 44.420185600003606 ], [ 26.139976891514777, 44.420160934299929 ] ] ] ] } },
{ "type": "Feature", "properties": { "Id": 117, "name": "PS17", "type": "raft", "floor": 0, "buildng_id": "puericultura_mare" }, "geometry": { "type": "MultiPolygon", "coordinates": [ [ [ [ 26.139976891514777, 44.420186866249423 ], [ 26.139943236185843, 44.420186866249423 ], [ 26.139943236185843, 44.420211494183604 ], [ 26.139976891514777, 44.420211494183604 ], [ 26.139976891514777, 44.420186866249423 ] ] ] ] } },
{ "type": "Feature", "properties": { "Id": 118, "name": "PS18", "type": "raft", "floor": 0, "buildng_id": "puericultura_mare" }, "geometry": { "type": "MultiPolygon", "coordinates": [ [ [ [ 26.139976891514777, 44.420212913315481 ], [ 26.139943236185843, 44.420212913315481 ], [ 26.139943236185843, 44.420237541249662 ], [ 26.139976891514777, 44.420237541249662 ], [ 26.139976891514777, 44.420212913315481 ] ] ] ] } },
{ "type": "Feature", "properties": { "Id": 119, "name": "PS19", "type": "raft", "floor": 0, "buildng_id": "puericultura_mare" }, "geometry": { "type": "MultiPolygon", "coordinates": [ [ [ [ 26.139976891514777, 44.420238845264976 ], [ 26.139943236185843, 44.420238845264976 ], [ 26.139943236185843, 44.420263396757946 ], [ 26.139976891514777, 44.420263396757946 ], [ 26.139976891514777, 44.420238845264976 ] ] ] ] } },
{ "type": "Feature", "properties": { "Id": 120, "name": "PS20", "type": "raft", "floor": 0, "buildng_id": "puericultura_mare" }, "geometry": { "type": "MultiPolygon", "coordinates": [ [ [ [ 26.139976891514777, 44.420264777218108 ], [ 26.139943236185843, 44.420264777218108 ], [ 26.139943236185843, 44.420289405152289 ], [ 26.139976891514777, 44.420289405152289 ], [ 26.139976891514777, 44.420264777218108 ] ] ] ] } },
{ "type": "Feature", "properties": { "Id": 121, "name": "PS21", "type": "raft", "floor": 0, "buildng_id": "puericultura_mare" }, "geometry": { "type": "MultiPolygon", "coordinates": [ [ [ [ 26.139976891514777, 44.420290786511032 ], [ 26.139943236185843, 44.420290786511032 ], [ 26.139943236185843, 44.420315375773498 ], [ 26.139976891514777, 44.420315375773498 ], [ 26.139976891514777, 44.420290786511032 ] ] ] ] } },
{ "type": "Feature", "properties": { "Id": 122, "name": "CP1", "type": "raft", "floor": 0, "buildng_id": "puericultura_mare" }, "geometry": { "type": "MultiPolygon", "coordinates": [ [ [ [ 26.140221438762865, 44.420046460494632 ], [ 26.140255094091799, 44.42004650546005 ], [ 26.140255127366686, 44.420021647300018 ], [ 26.140221472037751, 44.4200216023346 ], [ 26.140221438762865, 44.420046460494632 ] ] ] ] } },
{ "type": "Feature", "properties": { "Id": 123, "name": "CP2", "type": "raft", "floor": 0, "buildng_id": "puericultura_mare" }, "geometry": { "type": "MultiPolygon", "coordinates": [ [ [ [ 26.14025509229316, 44.420047885920212 ], [ 26.140221436964225, 44.420047840954794 ], [ 26.140221404588601, 44.420072341185005 ], [ 26.140255059917536, 44.420072386150423 ], [ 26.14025509229316, 44.420047885920212 ] ] ] ] } },
{ "type": "Feature", "properties": { "Id": 124, "name": "CP3", "type": "raft", "floor": 0, "buildng_id": "puericultura_mare" }, "geometry": { "type": "MultiPolygon", "coordinates": [ [ [ [ 26.140255058118896, 44.420073869132466 ], [ 26.140221402789962, 44.420073824167048 ], [ 26.140221370414395, 44.420098375660018 ], [ 26.140255025743329, 44.420098419726855 ], [ 26.140255058118896, 44.420073869132466 ] ] ] ] } },
{ "type": "Feature", "properties": { "Id": 125, "name": "CP4", "type": "raft", "floor": 0, "buildng_id": "puericultura_mare" }, "geometry": { "type": "MultiPolygon", "coordinates": [ [ [ [ 26.14025502394469, 44.420099749822839 ], [ 26.140221368615755, 44.420099705756002 ], [ 26.140221336240131, 44.420124410135031 ], [ 26.140254991569066, 44.420124455100449 ], [ 26.14025502394469, 44.420099749822839 ] ] ] ] } },
{ "type": "Feature", "properties": { "Id": 126, "name": "CP5", "type": "raft", "floor": 0, "buildng_id": "puericultura_mare" }, "geometry": { "type": "MultiPolygon", "coordinates": [ [ [ [ 26.140254989770426, 44.420125784297852 ], [ 26.140221334441492, 44.420125740231015 ], [ 26.140221301166605, 44.420150342084526 ], [ 26.140254957394859, 44.420150386151363 ], [ 26.140254989770426, 44.420125784297852 ] ] ] ] } },
{ "type": "Feature", "properties": { "Id": 127, "name": "CP6", "type": "raft", "floor": 0, "buildng_id": "puericultura_mare" }, "geometry": { "type": "MultiPolygon", "coordinates": [ [ [ [ 26.140254955596163, 44.420151716247346 ], [ 26.140221300267285, 44.420151672180509 ], [ 26.140221266992341, 44.420176325296779 ], [ 26.140254923220596, 44.420176370262197 ], [ 26.140254955596163, 44.420151716247346 ] ] ] ] } },
{ "type": "Feature", "properties": { "Id": 128, "name": "CP7", "type": "raft", "floor": 0, "buildng_id": "puericultura_mare" }, "geometry": { "type": "MultiPolygon", "coordinates": [ [ [ [ 26.140224318392029, 44.420190707256552 ], [ 26.140224305801553, 44.420224807749037 ], [ 26.140248925641856, 44.42022481674212 ], [ 26.14024893733307, 44.420190716249635 ], [ 26.140224318392029, 44.420190707256552 ] ] ] ] } },
{ "type": "Feature", "properties": { "Id": 129, "name": "CP12", "type": "raft", "floor": 0, "buildng_id": "puericultura_mare" }, "geometry": { "type": "MultiPolygon", "coordinates": [ [ [ [ 26.14011914447741, 44.420190669483418 ], [ 26.140094593884839, 44.420190660490334 ], [ 26.140094581294363, 44.420224760982819 ], [ 26.140119132786197, 44.420224769975903 ], [ 26.14011914447741, 44.420190669483418 ] ] ] ] } },
{ "type": "Feature", "properties": { "Id": 130, "name": "CP11", "type": "raft", "floor": 0, "buildng_id": "puericultura_mare" }, "geometry": { "type": "MultiPolygon", "coordinates": [ [ [ [ 26.140145063838077, 44.420190678476501 ], [ 26.140120436803159, 44.420190670381999 ], [ 26.140120424212682, 44.420224770878121 ], [ 26.14014505214692, 44.420224778968986 ], [ 26.140145063838077, 44.420190678476501 ] ] ] ] } },
{ "type": "Feature", "properties": { "Id": 131, "name": "CP13", "type": "raft", "floor": 0, "buildng_id": "puericultura_mare" }, "geometry": { "type": "MultiPolygon", "coordinates": [ [ [ [ 26.140093263787548, 44.420190660490334 ], [ 26.140068532431314, 44.420190651497251 ], [ 26.140068519840781, 44.420224751989736 ], [ 26.140093252096392, 44.420224760982819 ], [ 26.140093263787548, 44.420190660490334 ] ] ] ] } },
{ "type": "Feature", "properties": { "Id": 132, "name": "CP10", "type": "raft", "floor": 0, "buildng_id": "puericultura_mare" }, "geometry": { "type": "MultiPolygon", "coordinates": [ [ [ [ 26.140171073131, 44.420190688368166 ], [ 26.140146406525901, 44.420190679375082 ], [ 26.140146394834744, 44.420224779871205 ], [ 26.140171060540467, 44.420224788864289 ], [ 26.140171073131, 44.420190688368166 ] ] ] ] } },
{ "type": "Feature", "properties": { "Id": 133, "name": "CP9", "type": "raft", "floor": 0, "buildng_id": "puericultura_mare" }, "geometry": { "type": "MultiPolygon", "coordinates": [ [ [ [ 26.140196966411338, 44.420190697361249 ], [ 26.1401723384771, 44.420190688368166 ], [ 26.140172326785944, 44.420224788864289 ], [ 26.140196954720125, 44.420224797857372 ], [ 26.140196966411338, 44.420190697361249 ] ] ] ] } },
{ "type": "Feature", "properties": { "Id": 134, "name": "CP8", "type": "raft", "floor": 0, "buildng_id": "puericultura_mare" }, "geometry": { "type": "MultiPolygon", "coordinates": [ [ [ [ 26.1402229370334, 44.420190707256552 ], [ 26.140198347770024, 44.420190698263468 ], [ 26.140198335179491, 44.420224798755953 ], [ 26.140222924442867, 44.420224806850456 ], [ 26.1402229370334, 44.420190707256552 ] ] ] ] } },
{ "type": "Feature", "properties": { "Id": 135, "name": "CP14", "type": "raft", "floor": 0, "buildng_id": "puericultura_mare" }, "geometry": { "type": "MultiPolygon", "coordinates": [ [ [ [ 26.140093208029612, 44.420228376257 ], [ 26.140068401130293, 44.420228366365336 ], [ 26.14006838853976, 44.420262393115991 ], [ 26.140093194539759, 44.420262402109074 ], [ 26.140093208029612, 44.420228376257 ] ] ] ] } },
{ "type": "Feature", "properties": { "Id": 136, "name": "CP15", "type": "raft", "floor": 0, "buildng_id": "puericultura_mare" }, "geometry": { "type": "MultiPolygon", "coordinates": [ [ [ [ 26.140094512046574, 44.420228376257 ], [ 26.14009449945604, 44.420262403007655 ], [ 26.140119088719416, 44.420262412000739 ], [ 26.140119101309949, 44.420228385250084 ], [ 26.140094512046574, 44.420228376257 ] ] ] ] } },
{ "type": "Feature", "properties": { "Id": 137, "name": "CP16", "type": "raft", "floor": 0, "buildng_id": "puericultura_mare" }, "geometry": { "type": "MultiPolygon", "coordinates": [ [ [ [ 26.140120482668578, 44.420228386152303 ], [ 26.140120469178783, 44.420262412899319 ], [ 26.140145059341478, 44.420262421892403 ], [ 26.140145071932011, 44.420228395145386 ], [ 26.140120482668578, 44.420228386152303 ] ] ] ] } },
{ "type": "Feature", "properties": { "Id": 138, "name": "CP17", "type": "raft", "floor": 0, "buildng_id": "puericultura_mare" }, "geometry": { "type": "MultiPolygon", "coordinates": [ [ [ [ 26.14014645329064, 44.420228396043967 ], [ 26.140146439800844, 44.420262421892403 ], [ 26.140171272780492, 44.420262431784067 ], [ 26.140171285370968, 44.420228405037051 ], [ 26.14014645329064, 44.420228396043967 ] ] ] ] } },
{ "type": "Feature", "properties": { "Id": 139, "name": "J39", "type": "raft", "floor": 0, "buildng_id": "jucarii" }, "geometry": { "type": "MultiPolygon", "coordinates": [ [ [ [ 26.1400471888212, 44.419170787023177 ], [ 26.140060282050854, 44.419170719571412 ], [ 26.140060241581352, 44.4191628046392 ], [ 26.140047147452378, 44.419162872989546 ], [ 26.1400471888212, 44.419170787023177 ] ] ] ] } }
]
}
