{
"type": "FeatureCollection",
"name": "traseu",
"crs": { "type": "name", "properties": { "name": "urn:ogc:def:crs:OGC:1.3:CRS84" } },
"features": [
{ "type": "Feature", "properties": { "Id": 0 }, "geometry": { "type": "MultiLineString", "coordinates": [ [ [ 26.140054440504628, 44.419146966229221 ], [ 26.140100809143689, 44.419173455277473 ] ] ] } },
{ "type": "Feature", "properties": { "Id": 0 }, "geometry": { "type": "MultiLineString", "coordinates": [ [ [ 26.140156221236396, 44.41907645732897 ], [ 26.140100809143689, 44.419173455277473 ] ] ] } },
{ "type": "Feature", "properties": { "Id": 0 }, "geometry": { "type": "MultiLineString", "coordinates": [ [ [ 26.140060282050911, 44.419170719571412 ], [ 26.140092015690072, 44.419188848071883 ] ] ] } },
{ "type": "Feature", "properties": { "Id": 0 }, "geometry": { "type": "MultiLineString", "coordinates": [ [ [ 26.140100809143689, 44.419173455277473 ], [ 26.140092015690072, 44.419188848071883 ] ] ] } },
{ "type": "Feature", "properties": { "Id": 0 }, "geometry": { "type": "MultiLineString", "coordinates": [ [ [ 26.140037097978279, 44.419177323743554 ], [ 26.140083466742226, 44.419203812863088 ] ] ] } },
{ "type": "Feature", "properties": { "Id": 0 }, "geometry": { "type": "MultiLineString", "coordinates": [ [ [ 26.140092015690072, 44.419188848071883 ], [ 26.140083466742226, 44.419203812863088 ] ] ] } },
{ "type": "Feature", "properties": { "Id": 0 }, "geometry": { "type": "MultiLineString", "coordinates": [ [ [ 26.140019885403774, 44.419207453280308 ], [ 26.140066254507758, 44.419233942593962 ] ] ] } },
{ "type": "Feature", "properties": { "Id": 0 }, "geometry": { "type": "MultiLineString", "coordinates": [ [ [ 26.140083466742226, 44.419203812863088 ], [ 26.140066254507758, 44.419233942593962 ] ] ] } },
{ "type": "Feature", "properties": { "Id": 0 }, "geometry": { "type": "MultiLineString", "coordinates": [ [ [ 26.140299289924826, 44.419222708931613 ], [ 26.140299289924826, 44.41924007483982 ] ] ] } },
{ "type": "Feature", "properties": { "Id": 0 }, "geometry": { "type": "MultiLineString", "coordinates": [ [ [ 26.140330469869866, 44.41924007483982 ], [ 26.140299289924826, 44.41924007483982 ] ] ] } },
{ "type": "Feature", "properties": { "Id": 0 }, "geometry": { "type": "MultiLineString", "coordinates": [ [ [ 26.140002674628249, 44.419237580119443 ], [ 26.140049043877639, 44.419264069516259 ] ] ] } },
{ "type": "Feature", "properties": { "Id": 0 }, "geometry": { "type": "MultiLineString", "coordinates": [ [ [ 26.140066254507758, 44.419233942593962 ], [ 26.140049043877639, 44.419264069516259 ] ] ] } },
{ "type": "Feature", "properties": { "Id": 0 }, "geometry": { "type": "MultiLineString", "coordinates": [ [ [ 26.140299289924826, 44.41924007483982 ], [ 26.140299289924826, 44.41927498472262 ] ] ] } },
{ "type": "Feature", "properties": { "Id": 0 }, "geometry": { "type": "MultiLineString", "coordinates": [ [ [ 26.140330469869866, 44.41927498472262 ], [ 26.140299289924826, 44.41927498472262 ] ] ] } },
{ "type": "Feature", "properties": { "Id": 0 }, "geometry": { "type": "MultiLineString", "coordinates": [ [ [ 26.139985422933421, 44.419267778004723 ], [ 26.140031792579123, 44.419294267628004 ] ] ] } },
{ "type": "Feature", "properties": { "Id": 0 }, "geometry": { "type": "MultiLineString", "coordinates": [ [ [ 26.140049043877639, 44.419264069516259 ], [ 26.140031792579123, 44.419294267628004 ] ] ] } },
{ "type": "Feature", "properties": { "Id": 0 }, "geometry": { "type": "MultiLineString", "coordinates": [ [ [ 26.140299289924826, 44.41927498472262 ], [ 26.140299289924826, 44.419309720587989 ] ] ] } },
{ "type": "Feature", "properties": { "Id": 0 }, "geometry": { "type": "MultiLineString", "coordinates": [ [ [ 26.140330469869866, 44.419309720587989 ], [ 26.140299289924826, 44.419309720587989 ] ] ] } },
{ "type": "Feature", "properties": { "Id": 0 }, "geometry": { "type": "MultiLineString", "coordinates": [ [ [ 26.139968253526547, 44.419297831549613 ], [ 26.140020973008291, 44.419313207107166 ] ] ] } },
{ "type": "Feature", "properties": { "Id": 0 }, "geometry": { "type": "MultiLineString", "coordinates": [ [ [ 26.140031792579123, 44.419294267628004 ], [ 26.140020973008291, 44.419313207107166 ] ] ] } },
{ "type": "Feature", "properties": { "Id": 0 }, "geometry": { "type": "MultiLineString", "coordinates": [ [ [ 26.140020973008291, 44.419313207107166 ], [ 26.140160551855445, 44.419313207107166 ] ] ] } },
{ "type": "Feature", "properties": { "Id": 0 }, "geometry": { "type": "MultiLineString", "coordinates": [ [ [ 26.140160551855445, 44.419313207107166 ], [ 26.140225439397, 44.419313207107166 ] ] ] } },
{ "type": "Feature", "properties": { "Id": 0 }, "geometry": { "type": "MultiLineString", "coordinates": [ [ [ 26.140225439397, 44.419222864064068 ], [ 26.140225439397, 44.419313207107166 ] ] ] } },
{ "type": "Feature", "properties": { "Id": 0 }, "geometry": { "type": "MultiLineString", "coordinates": [ [ [ 26.140225439397, 44.419313207107166 ], [ 26.140260243609873, 44.419313207107166 ] ] ] } },
{ "type": "Feature", "properties": { "Id": 0 }, "geometry": { "type": "MultiLineString", "coordinates": [ [ [ 26.140260243609873, 44.419222790769822 ], [ 26.140260243609873, 44.419313207107166 ] ] ] } },
{ "type": "Feature", "properties": { "Id": 0 }, "geometry": { "type": "MultiLineString", "coordinates": [ [ [ 26.140260243609873, 44.419313207107166 ], [ 26.140281095349906, 44.419313207107166 ] ] ] } },
{ "type": "Feature", "properties": { "Id": 0 }, "geometry": { "type": "MultiLineString", "coordinates": [ [ [ 26.140299289924826, 44.419309720587989 ], [ 26.140299289924826, 44.419313263826382 ], [ 26.140281095349906, 44.419313207107166 ] ] ] } },
{ "type": "Feature", "properties": { "Id": 0 }, "geometry": { "type": "MultiLineString", "coordinates": [ [ [ 26.139959431627062, 44.419331143337445 ], [ 26.140020970224384, 44.419331152883728 ] ] ] } },
{ "type": "Feature", "properties": { "Id": 0 }, "geometry": { "type": "MultiLineString", "coordinates": [ [ [ 26.140020973008291, 44.419313207107166 ], [ 26.140020970224384, 44.419331152883728 ] ] ] } },
{ "type": "Feature", "properties": { "Id": 0 }, "geometry": { "type": "MultiLineString", "coordinates": [ [ [ 26.140281095349906, 44.419313207107166 ], [ 26.140281100026698, 44.419344387415606 ] ] ] } },
{ "type": "Feature", "properties": { "Id": 0 }, "geometry": { "type": "MultiLineString", "coordinates": [ [ [ 26.140330469869866, 44.4193443800105 ], [ 26.140281100026698, 44.419344387415606 ] ] ] } },
{ "type": "Feature", "properties": { "Id": 0 }, "geometry": { "type": "MultiLineString", "coordinates": [ [ [ 26.139959426680775, 44.419366026240937 ], [ 26.140020964813061, 44.41936603578705 ] ] ] } },
{ "type": "Feature", "properties": { "Id": 0 }, "geometry": { "type": "MultiLineString", "coordinates": [ [ [ 26.140020970224384, 44.419331152883728 ], [ 26.140020964813061, 44.41936603578705 ] ] ] } },
{ "type": "Feature", "properties": { "Id": 0 }, "geometry": { "type": "MultiLineString", "coordinates": [ [ [ 26.140281100026698, 44.419344387415606 ], [ 26.140281106133273, 44.419385099722547 ] ] ] } },
{ "type": "Feature", "properties": { "Id": 0 }, "geometry": { "type": "MultiLineString", "coordinates": [ [ [ 26.140330469869866, 44.419385092318521 ], [ 26.140281106133273, 44.419385099722547 ] ] ] } },
{ "type": "Feature", "properties": { "Id": 0 }, "geometry": { "type": "MultiLineString", "coordinates": [ [ [ 26.140020964813061, 44.41936603578705 ], [ 26.14002096081839, 44.419391786790527 ] ] ] } },
{ "type": "Feature", "properties": { "Id": 0 }, "geometry": { "type": "MultiLineString", "coordinates": [ [ [ 26.140072324422817, 44.419391791818327 ], [ 26.14002096081839, 44.419391786790527 ] ] ] } },
{ "type": "Feature", "properties": { "Id": 0 }, "geometry": { "type": "MultiLineString", "coordinates": [ [ [ 26.140128101275423, 44.419391794066655 ], [ 26.140160562034509, 44.41939179724335 ] ] ] } },
{ "type": "Feature", "properties": { "Id": 0 }, "geometry": { "type": "MultiLineString", "coordinates": [ [ [ 26.140160551855445, 44.419313207107166 ], [ 26.140160562034509, 44.41939179724335 ] ] ] } },
{ "type": "Feature", "properties": { "Id": 0 }, "geometry": { "type": "MultiLineString", "coordinates": [ [ [ 26.139959421284743, 44.419400752662114 ], [ 26.140020959426067, 44.419400762208284 ] ] ] } },
{ "type": "Feature", "properties": { "Id": 0 }, "geometry": { "type": "MultiLineString", "coordinates": [ [ [ 26.14002096081839, 44.419391786790527 ], [ 26.140020959426067, 44.419400762208284 ] ] ] } },
{ "type": "Feature", "properties": { "Id": 0 }, "geometry": { "type": "MultiLineString", "coordinates": [ [ [ 26.140160562034509, 44.41939179724335 ], [ 26.140160564845246, 44.41941349882535 ] ] ] } },
{ "type": "Feature", "properties": { "Id": 0 }, "geometry": { "type": "MultiLineString", "coordinates": [ [ [ 26.140191020094051, 44.419413494257299 ], [ 26.140160564845246, 44.41941349882535 ] ] ] } },
{ "type": "Feature", "properties": { "Id": 0 }, "geometry": { "type": "MultiLineString", "coordinates": [ [ [ 26.140020959426067, 44.419400762208284 ], [ 26.14002095652603, 44.419419456856417 ] ] ] } },
{ "type": "Feature", "properties": { "Id": 0 }, "geometry": { "type": "MultiLineString", "coordinates": [ [ [ 26.140072321275113, 44.419419463507438 ], [ 26.14002095652603, 44.419419456856417 ] ] ] } },
{ "type": "Feature", "properties": { "Id": 0 }, "geometry": { "type": "MultiLineString", "coordinates": [ [ [ 26.14012809857752, 44.419419465306532 ], [ 26.140160565618487, 44.419419468460262 ] ] ] } },
{ "type": "Feature", "properties": { "Id": 0 }, "geometry": { "type": "MultiLineString", "coordinates": [ [ [ 26.140160564845246, 44.41941349882535 ], [ 26.140160565618487, 44.419419468460262 ] ] ] } },
{ "type": "Feature", "properties": { "Id": 0 }, "geometry": { "type": "MultiLineString", "coordinates": [ [ [ 26.139959416338513, 44.419435464693436 ], [ 26.140020954041404, 44.419435474239549 ] ] ] } },
{ "type": "Feature", "properties": { "Id": 0 }, "geometry": { "type": "MultiLineString", "coordinates": [ [ [ 26.14002095652603, 44.419419456856417 ], [ 26.140020954041404, 44.419435474239549 ] ] ] } },
{ "type": "Feature", "properties": { "Id": 0 }, "geometry": { "type": "MultiLineString", "coordinates": [ [ [ 26.140160565618487, 44.419419468460262 ], [ 26.140160568185308, 44.419439286735326 ] ] ] } },
{ "type": "Feature", "properties": { "Id": 0 }, "geometry": { "type": "MultiLineString", "coordinates": [ [ [ 26.14019102369133, 44.419439282764984 ], [ 26.140160568185308, 44.419439286735326 ] ] ] } },
{ "type": "Feature", "properties": { "Id": 0 }, "geometry": { "type": "MultiLineString", "coordinates": [ [ [ 26.140020954041404, 44.419435474239549 ], [ 26.140020952208943, 44.419447286707396 ] ] ] } },
{ "type": "Feature", "properties": { "Id": 0 }, "geometry": { "type": "MultiLineString", "coordinates": [ [ [ 26.140072318127409, 44.419447291678864 ], [ 26.140020952208943, 44.419447286707396 ] ] ] } },
{ "type": "Feature", "properties": { "Id": 0 }, "geometry": { "type": "MultiLineString", "coordinates": [ [ [ 26.140128095429816, 44.419447289881703 ], [ 26.14016056922236, 44.419447294072484 ] ] ] } },
{ "type": "Feature", "properties": { "Id": 0 }, "geometry": { "type": "MultiLineString", "coordinates": [ [ [ 26.140160568185308, 44.419439286735326 ], [ 26.14016056922236, 44.419447294072484 ] ] ] } },
{ "type": "Feature", "properties": { "Id": 0 }, "geometry": { "type": "MultiLineString", "coordinates": [ [ [ 26.140281106133273, 44.419385099722547 ], [ 26.140281117713187, 44.419462303699106 ] ] ] } },
{ "type": "Feature", "properties": { "Id": 0 }, "geometry": { "type": "MultiLineString", "coordinates": [ [ [ 26.140326660341543, 44.419462296868119 ], [ 26.140281117713187, 44.419462303699106 ] ] ] } },
{ "type": "Feature", "properties": { "Id": 0 }, "geometry": { "type": "MultiLineString", "coordinates": [ [ [ 26.14016056922236, 44.419447294072484 ], [ 26.140160571770878, 44.419466970540441 ] ] ] } },
{ "type": "Feature", "properties": { "Id": 0 }, "geometry": { "type": "MultiLineString", "coordinates": [ [ [ 26.140191027288665, 44.419466966595849 ], [ 26.140160571770878, 44.419466970540441 ] ] ] } },
{ "type": "Feature", "properties": { "Id": 0 }, "geometry": { "type": "MultiLineString", "coordinates": [ [ [ 26.139959411392226, 44.419470219894833 ], [ 26.140020948649806, 44.419470229440776 ] ] ] } },
{ "type": "Feature", "properties": { "Id": 0 }, "geometry": { "type": "MultiLineString", "coordinates": [ [ [ 26.140020952208943, 44.419447286707396 ], [ 26.140020948649806, 44.419470229440776 ] ] ] } },
{ "type": "Feature", "properties": { "Id": 0 }, "geometry": { "type": "MultiLineString", "coordinates": [ [ [ 26.140020948649806, 44.419470229440776 ], [ 26.140020947900894, 44.4194750583153 ] ] ] } },
{ "type": "Feature", "properties": { "Id": 0 }, "geometry": { "type": "MultiLineString", "coordinates": [ [ [ 26.140072314979875, 44.419475064993151 ], [ 26.140020947900894, 44.4194750583153 ] ] ] } },
{ "type": "Feature", "properties": { "Id": 0 }, "geometry": { "type": "MultiLineString", "coordinates": [ [ [ 26.140128092282112, 44.419475063194056 ], [ 26.140160572819468, 44.419475066360974 ] ] ] } },
{ "type": "Feature", "properties": { "Id": 0 }, "geometry": { "type": "MultiLineString", "coordinates": [ [ [ 26.140160571770878, 44.419466970540441 ], [ 26.140160572819468, 44.419475066360974 ] ] ] } },
{ "type": "Feature", "properties": { "Id": 0 }, "geometry": { "type": "MultiLineString", "coordinates": [ [ [ 26.140160572819468, 44.419475066360974 ], [ 26.140160575371567, 44.419494769928122 ] ] ] } },
{ "type": "Feature", "properties": { "Id": 0 }, "geometry": { "type": "MultiLineString", "coordinates": [ [ [ 26.140191030885944, 44.419494765990805 ], [ 26.140160575371567, 44.419494769928122 ] ] ] } },
{ "type": "Feature", "properties": { "Id": 0 }, "geometry": { "type": "MultiLineString", "coordinates": [ [ [ 26.140281117713187, 44.419462303699106 ], [ 26.14028112293903, 44.419497143884598 ] ] ] } },
{ "type": "Feature", "properties": { "Id": 0 }, "geometry": { "type": "MultiLineString", "coordinates": [ [ [ 26.140326660341543, 44.41949713705435 ], [ 26.14028112293903, 44.419497143884598 ] ] ] } },
{ "type": "Feature", "properties": { "Id": 0 }, "geometry": { "type": "MultiLineString", "coordinates": [ [ [ 26.140020947900894, 44.4194750583153 ], [ 26.140020943580282, 44.41950291025347 ] ] ] } },
{ "type": "Feature", "properties": { "Id": 0 }, "geometry": { "type": "MultiLineString", "coordinates": [ [ [ 26.140072311832341, 44.419502915197995 ], [ 26.140020943580282, 44.41950291025347 ] ] ] } },
{ "type": "Feature", "properties": { "Id": 0 }, "geometry": { "type": "MultiLineString", "coordinates": [ [ [ 26.140128089134578, 44.419502913398901 ], [ 26.140160576426695, 44.419502917568366 ] ] ] } },
{ "type": "Feature", "properties": { "Id": 0 }, "geometry": { "type": "MultiLineString", "coordinates": [ [ [ 26.140160575371567, 44.419494769928122 ], [ 26.140160576426695, 44.419502917568366 ] ] ] } },
{ "type": "Feature", "properties": { "Id": 0 }, "geometry": { "type": "MultiLineString", "coordinates": [ [ [ 26.139959406445939, 44.419504960706092 ], [ 26.140020943260708, 44.419504970252092 ] ] ] } },
{ "type": "Feature", "properties": { "Id": 0 }, "geometry": { "type": "MultiLineString", "coordinates": [ [ [ 26.140020943580282, 44.41950291025347 ], [ 26.140020943260708, 44.419504970252092 ] ] ] } },
{ "type": "Feature", "properties": { "Id": 0 }, "geometry": { "type": "MultiLineString", "coordinates": [ [ [ 26.140160576426695, 44.419502917568366 ], [ 26.140160578972086, 44.419522568879358 ] ] ] } },
{ "type": "Feature", "properties": { "Id": 0 }, "geometry": { "type": "MultiLineString", "coordinates": [ [ [ 26.140191034483223, 44.419522564934596 ], [ 26.140160578972086, 44.419522568879358 ] ] ] } },
{ "type": "Feature", "properties": { "Id": 0 }, "geometry": { "type": "MultiLineString", "coordinates": [ [ [ 26.140020943260708, 44.419504970252092 ], [ 26.140020939248302, 44.419530835202579 ] ] ] } },
{ "type": "Feature", "properties": { "Id": 0 }, "geometry": { "type": "MultiLineString", "coordinates": [ [ [ 26.140072308684637, 44.41953084184388 ], [ 26.140020939248302, 44.419530835202579 ] ] ] } },
{ "type": "Feature", "properties": { "Id": 0 }, "geometry": { "type": "MultiLineString", "coordinates": [ [ [ 26.140128085986873, 44.419530840495952 ], [ 26.140160580043755, 44.419530843646669 ] ] ] } },
{ "type": "Feature", "properties": { "Id": 0 }, "geometry": { "type": "MultiLineString", "coordinates": [ [ [ 26.140160578972086, 44.419522568879358 ], [ 26.140160580043755, 44.419530843646669 ] ] ] } },
{ "type": "Feature", "properties": { "Id": 0 }, "geometry": { "type": "MultiLineString", "coordinates": [ [ [ 26.14028112293903, 44.419497143884598 ], [ 26.140281128149127, 44.419531879747524 ] ] ] } },
{ "type": "Feature", "properties": { "Id": 0 }, "geometry": { "type": "MultiLineString", "coordinates": [ [ [ 26.140326660341543, 44.419531872918128 ], [ 26.140281128149127, 44.419531879747524 ] ] ] } },
{ "type": "Feature", "properties": { "Id": 0 }, "geometry": { "type": "MultiLineString", "coordinates": [ [ [ 26.139959401499709, 44.419539629570863 ], [ 26.140020937882639, 44.419539639116806 ] ] ] } },
{ "type": "Feature", "properties": { "Id": 0 }, "geometry": { "type": "MultiLineString", "coordinates": [ [ [ 26.140020939248302, 44.419530835202579 ], [ 26.140020937882639, 44.419539639116806 ] ] ] } },
{ "type": "Feature", "properties": { "Id": 0 }, "geometry": { "type": "MultiLineString", "coordinates": [ [ [ 26.140160580043755, 44.419530843646669 ], [ 26.140160582572548, 44.419550367815816 ] ] ] } },
{ "type": "Feature", "properties": { "Id": 0 }, "geometry": { "type": "MultiLineString", "coordinates": [ [ [ 26.140191038080388, 44.4195503638785 ], [ 26.140160582572548, 44.419550367815816 ] ] ] } },
{ "type": "Feature", "properties": { "Id": 0 }, "geometry": { "type": "MultiLineString", "coordinates": [ [ [ 26.140020937882639, 44.419539639116806 ], [ 26.140020934935819, 44.419558635797671 ] ] ] } },
{ "type": "Feature", "properties": { "Id": 0 }, "geometry": { "type": "MultiLineString", "coordinates": [ [ [ 26.140072305536933, 44.419558640787841 ], [ 26.140020934935819, 44.419558635797671 ] ] ] } },
{ "type": "Feature", "properties": { "Id": 0 }, "geometry": { "type": "MultiLineString", "coordinates": [ [ [ 26.14012808283934, 44.419558639439913 ], [ 26.140160583644388, 44.419558643649509 ] ] ] } },
{ "type": "Feature", "properties": { "Id": 0 }, "geometry": { "type": "MultiLineString", "coordinates": [ [ [ 26.140160582572548, 44.419550367815816 ], [ 26.140160583644388, 44.419558643649509 ] ] ] } },
{ "type": "Feature", "properties": { "Id": 0 }, "geometry": { "type": "MultiLineString", "coordinates": [ [ [ 26.140281128149127, 44.419531879747524 ], [ 26.140281133356325, 44.419566596723826 ] ] ] } },
{ "type": "Feature", "properties": { "Id": 0 }, "geometry": { "type": "MultiLineString", "coordinates": [ [ [ 26.140326660341543, 44.419566589895169 ], [ 26.140281133356325, 44.419566596723826 ] ] ] } },
{ "type": "Feature", "properties": { "Id": 0 }, "geometry": { "type": "MultiLineString", "coordinates": [ [ [ 26.139959396553422, 44.419574355542807 ], [ 26.140020932495645, 44.419574365088806 ] ] ] } },
{ "type": "Feature", "properties": { "Id": 0 }, "geometry": { "type": "MultiLineString", "coordinates": [ [ [ 26.140020934935819, 44.419558635797671 ], [ 26.140020932495645, 44.419574365088806 ] ] ] } },
{ "type": "Feature", "properties": { "Id": 0 }, "geometry": { "type": "MultiLineString", "coordinates": [ [ [ 26.140160583644388, 44.419558643649509 ], [ 26.140160586176421, 44.419578192391157 ] ] ] } },
{ "type": "Feature", "properties": { "Id": 0 }, "geometry": { "type": "MultiLineString", "coordinates": [ [ [ 26.140191041677667, 44.419578188453727 ], [ 26.140160586176421, 44.419578192391157 ] ] ] } },
{ "type": "Feature", "properties": { "Id": 0 }, "geometry": { "type": "MultiLineString", "coordinates": [ [ [ 26.140020932495645, 44.419574365088806 ], [ 26.140020930623507, 44.419586433089762 ] ] ] } },
{ "type": "Feature", "properties": { "Id": 0 }, "geometry": { "type": "MultiLineString", "coordinates": [ [ [ 26.140072302389399, 44.419586439731575 ], [ 26.140020930623507, 44.419586433089762 ] ] ] } },
{ "type": "Feature", "properties": { "Id": 0 }, "geometry": { "type": "MultiLineString", "coordinates": [ [ [ 26.140128079691635, 44.419586438383703 ], [ 26.140160587244907, 44.419586441535671 ] ] ] } },
{ "type": "Feature", "properties": { "Id": 0 }, "geometry": { "type": "MultiLineString", "coordinates": [ [ [ 26.140160586176421, 44.419578192391157 ], [ 26.140160587244907, 44.419586441535671 ] ] ] } },
{ "type": "Feature", "properties": { "Id": 0 }, "geometry": { "type": "MultiLineString", "coordinates": [ [ [ 26.140160587244907, 44.419586441535671 ], [ 26.140160589744937, 44.419605743649356 ] ] ] } },
{ "type": "Feature", "properties": { "Id": 0 }, "geometry": { "type": "MultiLineString", "coordinates": [ [ [ 26.140191045274946, 44.419605739632971 ], [ 26.140160589744937, 44.419605743649356 ] ] ] } },
{ "type": "Feature", "properties": { "Id": 0 }, "geometry": { "type": "MultiLineString", "coordinates": [ [ [ 26.140281133356325, 44.419566596723826 ], [ 26.140281139675722, 44.419608728162757 ] ] ] } },
{ "type": "Feature", "properties": { "Id": 0 }, "geometry": { "type": "MultiLineString", "coordinates": [ [ [ 26.140326660341543, 44.41960872133501 ], [ 26.140281139675722, 44.419608728162757 ] ] ] } },
{ "type": "Feature", "properties": { "Id": 0 }, "geometry": { "type": "MultiLineString", "coordinates": [ [ [ 26.139959391607135, 44.419609110293209 ], [ 26.140020927104388, 44.419609119838981 ] ] ] } },
{ "type": "Feature", "properties": { "Id": 0 }, "geometry": { "type": "MultiLineString", "coordinates": [ [ [ 26.140020930623507, 44.419586433089762 ], [ 26.140020927104388, 44.419609119838981 ] ] ] } },
{ "type": "Feature", "properties": { "Id": 0 }, "geometry": { "type": "MultiLineString", "coordinates": [ [ [ 26.140020927104388, 44.419609119838981 ], [ 26.140020926317106, 44.419614194100518 ] ] ] } },
{ "type": "Feature", "properties": { "Id": 0 }, "geometry": { "type": "MultiLineString", "coordinates": [ [ [ 26.140072299241695, 44.41961419910524 ], [ 26.140020926317106, 44.419614194100518 ] ] ] } },
{ "type": "Feature", "properties": { "Id": 0 }, "geometry": { "type": "MultiLineString", "coordinates": [ [ [ 26.140128076544102, 44.419614202253797 ], [ 26.140160590840992, 44.419614206476069 ] ] ] } },
{ "type": "Feature", "properties": { "Id": 0 }, "geometry": { "type": "MultiLineString", "coordinates": [ [ [ 26.140160589744937, 44.419605743649356 ], [ 26.140160590840992, 44.419614206476069 ] ] ] } },
{ "type": "Feature", "properties": { "Id": 0 }, "geometry": { "type": "MultiLineString", "coordinates": [ [ [ 26.139959386660905, 44.419643779157923 ], [ 26.140020921726318, 44.419643788703752 ] ] ] } },
{ "type": "Feature", "properties": { "Id": 0 }, "geometry": { "type": "MultiLineString", "coordinates": [ [ [ 26.140020926317106, 44.419614194100518 ], [ 26.140020921726318, 44.419643788703752 ] ] ] } },
{ "type": "Feature", "properties": { "Id": 0 }, "geometry": { "type": "MultiLineString", "coordinates": [ [ [ 26.140281139675722, 44.419608728162757 ], [ 26.140281147094299, 44.419658187148286 ] ] ] } },
{ "type": "Feature", "properties": { "Id": 0 }, "geometry": { "type": "MultiLineString", "coordinates": [ [ [ 26.140281147094299, 44.419658187148286 ], [ 26.140258980206966, 44.419658190473285 ] ] ] } },
{ "type": "Feature", "properties": { "Id": 0 }, "geometry": { "type": "MultiLineString", "coordinates": [ [ [ 26.140258980206966, 44.419658190473285 ], [ 26.140224244343358, 44.419658195683326 ] ] ] } },
{ "type": "Feature", "properties": { "Id": 0 }, "geometry": { "type": "MultiLineString", "coordinates": [ [ [ 26.140224244343358, 44.419658195683326 ], [ 26.140189508030119, 44.419658200893593 ] ] ] } },
{ "type": "Feature", "properties": { "Id": 0 }, "geometry": { "type": "MultiLineString", "coordinates": [ [ [ 26.140189508030119, 44.419658200893593 ], [ 26.140154829723144, 44.419658206095107 ] ] ] } },
{ "type": "Feature", "properties": { "Id": 0 }, "geometry": { "type": "MultiLineString", "coordinates": [ [ [ 26.140154829723144, 44.419658206095107 ], [ 26.14012015141617, 44.419658211296451 ] ] ] } },
{ "type": "Feature", "properties": { "Id": 0 }, "geometry": { "type": "MultiLineString", "coordinates": [ [ [ 26.14012015141617, 44.419658211296451 ], [ 26.140085592719117, 44.419658216480059 ] ] ] } },
{ "type": "Feature", "properties": { "Id": 0 }, "geometry": { "type": "MultiLineString", "coordinates": [ [ [ 26.140289061736041, 44.419658896898454 ], [ 26.140281147094299, 44.419658187148286 ] ] ] } },
{ "type": "Feature", "properties": { "Id": 0 }, "geometry": { "type": "MultiLineString", "coordinates": [ [ [ 26.140302809421712, 44.419660129729891 ], [ 26.140289061736041, 44.419658896898454 ] ] ] } },
{ "type": "Feature", "properties": { "Id": 0 }, "geometry": { "type": "MultiLineString", "coordinates": [ [ [ 26.139959381714618, 44.419678491189245 ], [ 26.140020916341427, 44.419678500734847 ] ] ] } },
{ "type": "Feature", "properties": { "Id": 0 }, "geometry": { "type": "MultiLineString", "coordinates": [ [ [ 26.140020921726318, 44.419643788703752 ], [ 26.140020916341427, 44.419678500734847 ] ] ] } },
{ "type": "Feature", "properties": { "Id": 0 }, "geometry": { "type": "MultiLineString", "coordinates": [ [ [ 26.140085597067127, 44.419687205619994 ], [ 26.140085592719117, 44.419658216480059 ] ] ] } },
{ "type": "Feature", "properties": { "Id": 0 }, "geometry": { "type": "MultiLineString", "coordinates": [ [ [ 26.140120155765032, 44.419687205619994 ], [ 26.14012015141617, 44.419658211296451 ] ] ] } },
{ "type": "Feature", "properties": { "Id": 0 }, "geometry": { "type": "MultiLineString", "coordinates": [ [ [ 26.140154834072916, 44.419687205619994 ], [ 26.140154829723144, 44.419658206095107 ] ] ] } },
{ "type": "Feature", "properties": { "Id": 0 }, "geometry": { "type": "MultiLineString", "coordinates": [ [ [ 26.14018951238063, 44.419687205619994 ], [ 26.140189508030119, 44.419658200893593 ] ] ] } },
{ "type": "Feature", "properties": { "Id": 0 }, "geometry": { "type": "MultiLineString", "coordinates": [ [ [ 26.140224248694722, 44.419687205619994 ], [ 26.140224244343358, 44.419658195683326 ] ] ] } },
{ "type": "Feature", "properties": { "Id": 0 }, "geometry": { "type": "MultiLineString", "coordinates": [ [ [ 26.140258984559011, 44.419687205619994 ], [ 26.140258980206966, 44.419658190473285 ] ] ] } },
{ "type": "Feature", "properties": { "Id": 0 }, "geometry": { "type": "MultiLineString", "coordinates": [ [ [ 26.140289065982074, 44.419687205619994 ], [ 26.140289061736041, 44.419658896898454 ] ] ] } },
{ "type": "Feature", "properties": { "Id": 0 }, "geometry": { "type": "MultiLineString", "coordinates": [ [ [ 26.139959377667708, 44.419706811739218 ], [ 26.14002091194817, 44.419706821284819 ] ] ] } },
{ "type": "Feature", "properties": { "Id": 0 }, "geometry": { "type": "MultiLineString", "coordinates": [ [ [ 26.140020916341427, 44.419678500734847 ], [ 26.14002091194817, 44.419706821284819 ] ] ] } },
{ "type": "Feature", "properties": { "Id": 0 }, "geometry": { "type": "MultiLineString", "coordinates": [ [ [ 26.139976856890939, 44.419730868603494 ], [ 26.140020908216741, 44.419730875437097 ] ] ] } },
{ "type": "Feature", "properties": { "Id": 0 }, "geometry": { "type": "MultiLineString", "coordinates": [ [ [ 26.14002091194817, 44.419706821284819 ], [ 26.140020908216741, 44.419730875437097 ] ] ] } },
{ "type": "Feature", "properties": { "Id": 0 }, "geometry": { "type": "MultiLineString", "coordinates": [ [ [ 26.139976826314012, 44.419756006904322 ], [ 26.140020904317112, 44.419756013741903 ] ] ] } },
{ "type": "Feature", "properties": { "Id": 0 }, "geometry": { "type": "MultiLineString", "coordinates": [ [ [ 26.140020908216741, 44.419730875437097 ], [ 26.140020904317112, 44.419756013741903 ] ] ] } },
{ "type": "Feature", "properties": { "Id": 0 }, "geometry": { "type": "MultiLineString", "coordinates": [ [ [ 26.140283557933458, 44.419771671747981 ], [ 26.140284777565, 44.419771671747981 ] ] ] } },
{ "type": "Feature", "properties": { "Id": 0 }, "geometry": { "type": "MultiLineString", "coordinates": [ [ [ 26.140284777565, 44.419739221506575 ], [ 26.140284777565, 44.419771671747981 ] ] ] } },
{ "type": "Feature", "properties": { "Id": 0 }, "geometry": { "type": "MultiLineString", "coordinates": [ [ [ 26.140284777565, 44.419771671747981 ], [ 26.140285407989609, 44.419771671747981 ] ] ] } },
{ "type": "Feature", "properties": { "Id": 0 }, "geometry": { "type": "MultiLineString", "coordinates": [ [ [ 26.140285407989609, 44.419771671747981 ], [ 26.140312551777413, 44.419771671747981 ] ] ] } },
{ "type": "Feature", "properties": { "Id": 0 }, "geometry": { "type": "MultiLineString", "coordinates": [ [ [ 26.140283557933458, 44.419771671747981 ], [ 26.140226376987073, 44.419771692585869 ] ] ] } },
{ "type": "Feature", "properties": { "Id": 0 }, "geometry": { "type": "MultiLineString", "coordinates": [ [ [ 26.140225471322935, 44.419739221506575 ], [ 26.140225483156144, 44.419771692911468 ] ] ] } },
{ "type": "Feature", "properties": { "Id": 0 }, "geometry": { "type": "MultiLineString", "coordinates": [ [ [ 26.140226376987073, 44.419771692585869 ], [ 26.140225483156144, 44.419771692911468 ] ] ] } },
{ "type": "Feature", "properties": { "Id": 0 }, "geometry": { "type": "MultiLineString", "coordinates": [ [ [ 26.14016246347137, 44.419739221506575 ], [ 26.140162475312934, 44.419771715872685 ] ] ] } },
{ "type": "Feature", "properties": { "Id": 0 }, "geometry": { "type": "MultiLineString", "coordinates": [ [ [ 26.140225483156144, 44.419771692911468 ], [ 26.140162475312934, 44.419771715872685 ] ] ] } },
{ "type": "Feature", "properties": { "Id": 0 }, "geometry": { "type": "MultiLineString", "coordinates": [ [ [ 26.140099321171249, 44.419739221506575 ], [ 26.140099333021169, 44.41977173888273 ] ] ] } },
{ "type": "Feature", "properties": { "Id": 0 }, "geometry": { "type": "MultiLineString", "coordinates": [ [ [ 26.140162475312934, 44.419771715872685 ], [ 26.140099333021169, 44.41977173888273 ] ] ] } },
{ "type": "Feature", "properties": { "Id": 0 }, "geometry": { "type": "MultiLineString", "coordinates": [ [ [ 26.140020904317112, 44.419756013741903 ], [ 26.140020901873356, 44.419771767464454 ] ] ] } },
{ "type": "Feature", "properties": { "Id": 0 }, "geometry": { "type": "MultiLineString", "coordinates": [ [ [ 26.140099333021169, 44.41977173888273 ], [ 26.140020901873356, 44.419771767464454 ] ] ] } },
{ "type": "Feature", "properties": { "Id": 0 }, "geometry": { "type": "MultiLineString", "coordinates": [ [ [ 26.139976795287453, 44.419781296739643 ], [ 26.140020900394006, 44.419781303581431 ] ] ] } },
{ "type": "Feature", "properties": { "Id": 0 }, "geometry": { "type": "MultiLineString", "coordinates": [ [ [ 26.140020901873356, 44.419771767464454 ], [ 26.140020900394006, 44.419781303581431 ] ] ] } },
{ "type": "Feature", "properties": { "Id": 0 }, "geometry": { "type": "MultiLineString", "coordinates": [ [ [ 26.140285407989609, 44.419804858527698 ], [ 26.140285407989609, 44.419771671747981 ] ] ] } },
{ "type": "Feature", "properties": { "Id": 0 }, "geometry": { "type": "MultiLineString", "coordinates": [ [ [ 26.140226389081079, 44.41980487966066 ], [ 26.140226376987073, 44.419771692585869 ] ] ] } },
{ "type": "Feature", "properties": { "Id": 0 }, "geometry": { "type": "MultiLineString", "coordinates": [ [ [ 26.139976764710468, 44.419806414354809 ], [ 26.14002089649756, 44.41980642120069 ] ] ] } },
{ "type": "Feature", "properties": { "Id": 0 }, "geometry": { "type": "MultiLineString", "coordinates": [ [ [ 26.140020900394006, 44.419781303581431 ], [ 26.14002089649756, 44.41980642120069 ] ] ] } },
{ "type": "Feature", "properties": { "Id": 0 }, "geometry": { "type": "MultiLineString", "coordinates": [ [ [ 26.14002089649756, 44.41980642120069 ], [ 26.140020888955007, 44.419855044095925 ] ] ] } },
{ "type": "Feature", "properties": { "Id": 0 }, "geometry": { "type": "MultiLineString", "coordinates": [ [ [ 26.140186836809221, 44.419855044095925 ], [ 26.140020888955007, 44.419855044095925 ] ] ] } },
{ "type": "Feature", "properties": { "Id": 0 }, "geometry": { "type": "MultiLineString", "coordinates": [ [ [ 26.140020888955007, 44.419855044095925 ], [ 26.140020884705052, 44.419882439982928 ] ] ] } },
{ "type": "Feature", "properties": { "Id": 0 }, "geometry": { "type": "MultiLineString", "coordinates": [ [ [ 26.140069581040905, 44.419882447537077 ], [ 26.140020884705052, 44.419882439982928 ] ] ] } },
{ "type": "Feature", "properties": { "Id": 0 }, "geometry": { "type": "MultiLineString", "coordinates": [ [ [ 26.1401475819398, 44.419882447537077 ], [ 26.140186836809221, 44.419882447537077 ] ] ] } },
{ "type": "Feature", "properties": { "Id": 0 }, "geometry": { "type": "MultiLineString", "coordinates": [ [ [ 26.140186836809221, 44.419855044095925 ], [ 26.140186836809221, 44.419882447537077 ] ] ] } },
{ "type": "Feature", "properties": { "Id": 0 }, "geometry": { "type": "MultiLineString", "coordinates": [ [ [ 26.139976891514834, 44.41988772296105 ], [ 26.140020883884574, 44.419887729785444 ] ] ] } },
{ "type": "Feature", "properties": { "Id": 0 }, "geometry": { "type": "MultiLineString", "coordinates": [ [ [ 26.140020884705052, 44.419882439982928 ], [ 26.140020883884574, 44.419887729785444 ] ] ] } },
{ "type": "Feature", "properties": { "Id": 0 }, "geometry": { "type": "MultiLineString", "coordinates": [ [ [ 26.140020883884574, 44.419887729785444 ], [ 26.140020881039732, 44.419906067870841 ] ] ] } },
{ "type": "Feature", "properties": { "Id": 0 }, "geometry": { "type": "MultiLineString", "coordinates": [ [ [ 26.140069581040905, 44.419906075425502 ], [ 26.140020881039732, 44.419906067870841 ] ] ] } },
{ "type": "Feature", "properties": { "Id": 0 }, "geometry": { "type": "MultiLineString", "coordinates": [ [ [ 26.1401475819398, 44.419906075425502 ], [ 26.140186836809221, 44.419906075425502 ] ] ] } },
{ "type": "Feature", "properties": { "Id": 0 }, "geometry": { "type": "MultiLineString", "coordinates": [ [ [ 26.140186836809221, 44.419882447537077 ], [ 26.140186836809221, 44.419906075425502 ] ] ] } },
{ "type": "Feature", "properties": { "Id": 0 }, "geometry": { "type": "MultiLineString", "coordinates": [ [ [ 26.140186836809221, 44.419906075425502 ], [ 26.140186836809221, 44.419913241223242 ] ] ] } },
{ "type": "Feature", "properties": { "Id": 0 }, "geometry": { "type": "MultiLineString", "coordinates": [ [ [ 26.140221344783811, 44.419913241223242 ], [ 26.140186836809221, 44.419913241223242 ] ] ] } },
{ "type": "Feature", "properties": { "Id": 0 }, "geometry": { "type": "MultiLineString", "coordinates": [ [ [ 26.139976891514834, 44.419913639621882 ], [ 26.140020879864153, 44.419913646445764 ] ] ] } },
{ "type": "Feature", "properties": { "Id": 0 }, "geometry": { "type": "MultiLineString", "coordinates": [ [ [ 26.140020881039732, 44.419906067870841 ], [ 26.140020879864153, 44.419913646445764 ] ] ] } },
{ "type": "Feature", "properties": { "Id": 0 }, "geometry": { "type": "MultiLineString", "coordinates": [ [ [ 26.140020879864153, 44.419913646445764 ], [ 26.140020877354345, 44.419929826160057 ] ] ] } },
{ "type": "Feature", "properties": { "Id": 0 }, "geometry": { "type": "MultiLineString", "coordinates": [ [ [ 26.140069581040905, 44.4199298337154 ], [ 26.140020877354345, 44.419929826160057 ] ] ] } },
{ "type": "Feature", "properties": { "Id": 0 }, "geometry": { "type": "MultiLineString", "coordinates": [ [ [ 26.1401475819398, 44.4199298337154 ], [ 26.140186836809221, 44.4199298337154 ] ] ] } },
{ "type": "Feature", "properties": { "Id": 0 }, "geometry": { "type": "MultiLineString", "coordinates": [ [ [ 26.140186836809221, 44.419913241223242 ], [ 26.140186836809221, 44.4199298337154 ] ] ] } },
{ "type": "Feature", "properties": { "Id": 0 }, "geometry": { "type": "MultiLineString", "coordinates": [ [ [ 26.139976891514834, 44.41993962913142 ], [ 26.140020875832533, 44.41993963595462 ] ] ] } },
{ "type": "Feature", "properties": { "Id": 0 }, "geometry": { "type": "MultiLineString", "coordinates": [ [ [ 26.140020877354345, 44.419929826160057 ], [ 26.140020875832533, 44.41993963595462 ] ] ] } },
{ "type": "Feature", "properties": { "Id": 0 }, "geometry": { "type": "MultiLineString", "coordinates": [ [ [ 26.140020875832533, 44.41993963595462 ], [ 26.140020873676747, 44.419953533186572 ] ] ] } },
{ "type": "Feature", "properties": { "Id": 0 }, "geometry": { "type": "MultiLineString", "coordinates": [ [ [ 26.140069581040905, 44.419953540742483 ], [ 26.140020873676747, 44.419953533186572 ] ] ] } },
{ "type": "Feature", "properties": { "Id": 0 }, "geometry": { "type": "MultiLineString", "coordinates": [ [ [ 26.1401475819398, 44.419953540742483 ], [ 26.140186836809221, 44.419953540742483 ] ] ] } },
{ "type": "Feature", "properties": { "Id": 0 }, "geometry": { "type": "MultiLineString", "coordinates": [ [ [ 26.140186836809221, 44.4199298337154 ], [ 26.140186836809221, 44.419953540742483 ] ] ] } },
{ "type": "Feature", "properties": { "Id": 0 }, "geometry": { "type": "MultiLineString", "coordinates": [ [ [ 26.139976891514834, 44.419965618637434 ], [ 26.140020871800914, 44.419965625459895 ] ] ] } },
{ "type": "Feature", "properties": { "Id": 0 }, "geometry": { "type": "MultiLineString", "coordinates": [ [ [ 26.140020873676747, 44.419953533186572 ], [ 26.140020871800914, 44.419965625459895 ] ] ] } },
{ "type": "Feature", "properties": { "Id": 0 }, "geometry": { "type": "MultiLineString", "coordinates": [ [ [ 26.140020871800914, 44.419965625459895 ], [ 26.140020869995055, 44.419977265846512 ] ] ] } },
{ "type": "Feature", "properties": { "Id": 0 }, "geometry": { "type": "MultiLineString", "coordinates": [ [ [ 26.140069581040905, 44.419977273402765 ], [ 26.140020869995055, 44.419977265846512 ] ] ] } },
{ "type": "Feature", "properties": { "Id": 0 }, "geometry": { "type": "MultiLineString", "coordinates": [ [ [ 26.1401475819398, 44.419977273402765 ], [ 26.140186836809221, 44.419977273402765 ] ] ] } },
{ "type": "Feature", "properties": { "Id": 0 }, "geometry": { "type": "MultiLineString", "coordinates": [ [ [ 26.140186836809221, 44.419953540742483 ], [ 26.140186836809221, 44.419977273402765 ] ] ] } },
{ "type": "Feature", "properties": { "Id": 0 }, "geometry": { "type": "MultiLineString", "coordinates": [ [ [ 26.139976891514834, 44.419991569926424 ], [ 26.140020867775149, 44.419991576748316 ] ] ] } },
{ "type": "Feature", "properties": { "Id": 0 }, "geometry": { "type": "MultiLineString", "coordinates": [ [ [ 26.140020869995055, 44.419977265846512 ], [ 26.140020867775149, 44.419991576748316 ] ] ] } },
{ "type": "Feature", "properties": { "Id": 0 }, "geometry": { "type": "MultiLineString", "coordinates": [ [ [ 26.140020867775149, 44.419991576748316 ], [ 26.140020866313534, 44.420000998506282 ] ] ] } },
{ "type": "Feature", "properties": { "Id": 0 }, "geometry": { "type": "MultiLineString", "coordinates": [ [ [ 26.140069581040905, 44.420001006063046 ], [ 26.140020866313534, 44.420000998506282 ] ] ] } },
{ "type": "Feature", "properties": { "Id": 0 }, "geometry": { "type": "MultiLineString", "coordinates": [ [ [ 26.1401475819398, 44.420001006063046 ], [ 26.140186836809221, 44.420001006063046 ] ] ] } },
{ "type": "Feature", "properties": { "Id": 0 }, "geometry": { "type": "MultiLineString", "coordinates": [ [ [ 26.140186836809221, 44.419977273402765 ], [ 26.140186836809221, 44.420001006063046 ] ] ] } },
{ "type": "Feature", "properties": { "Id": 0 }, "geometry": { "type": "MultiLineString", "coordinates": [ [ [ 26.139976891514834, 44.420017501875975 ], [ 26.140020863752397, 44.420017508697185 ] ] ] } },
{ "type": "Feature", "properties": { "Id": 0 }, "geometry": { "type": "MultiLineString", "coordinates": [ [ [ 26.140020866313534, 44.420000998506282 ], [ 26.140020863752397, 44.420017508697185 ] ] ] } },
{ "type": "Feature", "properties": { "Id": 0 }, "geometry": { "type": "MultiLineString", "coordinates": [ [ [ 26.140020863752397, 44.420017508697185 ], [ 26.14002086263207, 44.420024731164233 ] ] ] } },
{ "type": "Feature", "properties": { "Id": 0 }, "geometry": { "type": "MultiLineString", "coordinates": [ [ [ 26.140069581040905, 44.420024738721736 ], [ 26.14002086263207, 44.420024731164233 ] ] ] } },
{ "type": "Feature", "properties": { "Id": 0 }, "geometry": { "type": "MultiLineString", "coordinates": [ [ [ 26.1401475819398, 44.420024738721736 ], [ 26.140186836809221, 44.420024738721736 ] ] ] } },
{ "type": "Feature", "properties": { "Id": 0 }, "geometry": { "type": "MultiLineString", "coordinates": [ [ [ 26.140186836809221, 44.420001006063046 ], [ 26.140186836809221, 44.420024738721736 ] ] ] } },
{ "type": "Feature", "properties": { "Id": 0 }, "geometry": { "type": "MultiLineString", "coordinates": [ [ [ 26.140186836809221, 44.420024738721736 ], [ 26.140186836809221, 44.420034031414616 ] ] ] } },
{ "type": "Feature", "properties": { "Id": 0 }, "geometry": { "type": "MultiLineString", "coordinates": [ [ [ 26.140221455400422, 44.420034031414616 ], [ 26.140186836809221, 44.420034031414616 ] ] ] } },
{ "type": "Feature", "properties": { "Id": 0 }, "geometry": { "type": "MultiLineString", "coordinates": [ [ [ 26.139976891514834, 44.420043491832985 ], [ 26.140020859720607, 44.420043498653683 ] ] ] } },
{ "type": "Feature", "properties": { "Id": 0 }, "geometry": { "type": "MultiLineString", "coordinates": [ [ [ 26.14002086263207, 44.420024731164233 ], [ 26.140020859720607, 44.420043498653683 ] ] ] } },
{ "type": "Feature", "properties": { "Id": 0 }, "geometry": { "type": "MultiLineString", "coordinates": [ [ [ 26.140020859720607, 44.420043498653683 ], [ 26.140020858938499, 44.420048540714333 ] ] ] } },
{ "type": "Feature", "properties": { "Id": 0 }, "geometry": { "type": "MultiLineString", "coordinates": [ [ [ 26.140069581040905, 44.420048548272518 ], [ 26.140020858938499, 44.420048540714333 ] ] ] } },
{ "type": "Feature", "properties": { "Id": 0 }, "geometry": { "type": "MultiLineString", "coordinates": [ [ [ 26.1401475819398, 44.420048548272518 ], [ 26.140186836809221, 44.420048548272518 ] ] ] } },
{ "type": "Feature", "properties": { "Id": 0 }, "geometry": { "type": "MultiLineString", "coordinates": [ [ [ 26.140186836809221, 44.420034031414616 ], [ 26.140186836809221, 44.420048548272518 ] ] ] } },
{ "type": "Feature", "properties": { "Id": 0 }, "geometry": { "type": "MultiLineString", "coordinates": [ [ [ 26.140186836809221, 44.420048548272518 ], [ 26.140186836809221, 44.420060091070013 ] ] ] } },
{ "type": "Feature", "properties": { "Id": 0 }, "geometry": { "type": "MultiLineString", "coordinates": [ [ [ 26.140221420776527, 44.420060091070013 ], [ 26.140186836809221, 44.420060091070013 ] ] ] } },
{ "type": "Feature", "properties": { "Id": 0 }, "geometry": { "type": "MultiLineString", "coordinates": [ [ [ 26.139976891514834, 44.420069442670922 ], [ 26.140020855695013, 44.420069449490882 ] ] ] } },
{ "type": "Feature", "properties": { "Id": 0 }, "geometry": { "type": "MultiLineString", "coordinates": [ [ [ 26.140020858938499, 44.420048540714333 ], [ 26.140020855695013, 44.420069449490882 ] ] ] } },
{ "type": "Feature", "properties": { "Id": 0 }, "geometry": { "type": "MultiLineString", "coordinates": [ [ [ 26.140020855695013, 44.420069449490882 ], [ 26.140020855252885, 44.420072299003664 ] ] ] } },
{ "type": "Feature", "properties": { "Id": 0 }, "geometry": { "type": "MultiLineString", "coordinates": [ [ [ 26.140069581040905, 44.420072306562417 ], [ 26.140020855252885, 44.420072299003664 ] ] ] } },
{ "type": "Feature", "properties": { "Id": 0 }, "geometry": { "type": "MultiLineString", "coordinates": [ [ [ 26.1401475819398, 44.420072306562417 ], [ 26.140186836809221, 44.420072306562417 ] ] ] } },
{ "type": "Feature", "properties": { "Id": 0 }, "geometry": { "type": "MultiLineString", "coordinates": [ [ [ 26.140186836809221, 44.420060091070013 ], [ 26.140186836809221, 44.420072306562417 ] ] ] } },
{ "type": "Feature", "properties": { "Id": 0 }, "geometry": { "type": "MultiLineString", "coordinates": [ [ [ 26.140186836809221, 44.420072306562417 ], [ 26.140186836809221, 44.42008609991359 ] ] ] } },
{ "type": "Feature", "properties": { "Id": 0 }, "geometry": { "type": "MultiLineString", "coordinates": [ [ [ 26.140221386602263, 44.42008609991359 ], [ 26.140186836809221, 44.42008609991359 ] ] ] } },
{ "type": "Feature", "properties": { "Id": 0 }, "geometry": { "type": "MultiLineString", "coordinates": [ [ [ 26.139976891514834, 44.420095394407326 ], [ 26.140020851669249, 44.420095401226774 ] ] ] } },
{ "type": "Feature", "properties": { "Id": 0 }, "geometry": { "type": "MultiLineString", "coordinates": [ [ [ 26.140020855252885, 44.420072299003664 ], [ 26.140020851669249, 44.420095401226774 ] ] ] } },
{ "type": "Feature", "properties": { "Id": 0 }, "geometry": { "type": "MultiLineString", "coordinates": [ [ [ 26.140020851669249, 44.420095401226774 ], [ 26.140020851582562, 44.420095959717059 ] ] ] } },
{ "type": "Feature", "properties": { "Id": 0 }, "geometry": { "type": "MultiLineString", "coordinates": [ [ [ 26.140069581040905, 44.420095967276211 ], [ 26.140020851582562, 44.420095959717059 ] ] ] } },
{ "type": "Feature", "properties": { "Id": 0 }, "geometry": { "type": "MultiLineString", "coordinates": [ [ [ 26.1401475819398, 44.420095967276211 ], [ 26.140186836809221, 44.420095967276211 ] ] ] } },
{ "type": "Feature", "properties": { "Id": 0 }, "geometry": { "type": "MultiLineString", "coordinates": [ [ [ 26.140186836809221, 44.42008609991359 ], [ 26.140186836809221, 44.420095967276211 ] ] ] } },
{ "type": "Feature", "properties": { "Id": 0 }, "geometry": { "type": "MultiLineString", "coordinates": [ [ [ 26.140186836809221, 44.420095967276211 ], [ 26.140186836809221, 44.42011205794563 ] ] ] } },
{ "type": "Feature", "properties": { "Id": 0 }, "geometry": { "type": "MultiLineString", "coordinates": [ [ [ 26.140221352428, 44.42011205794563 ], [ 26.140186836809221, 44.42011205794563 ] ] ] } },
{ "type": "Feature", "properties": { "Id": 0 }, "geometry": { "type": "MultiLineString", "coordinates": [ [ [ 26.139976891514834, 44.420121402801669 ], [ 26.140020847634617, 44.420121409620435 ] ] ] } },
{ "type": "Feature", "properties": { "Id": 0 }, "geometry": { "type": "MultiLineString", "coordinates": [ [ [ 26.140020851582562, 44.420095959717059 ], [ 26.140020847634617, 44.420121409620435 ] ] ] } },
{ "type": "Feature", "properties": { "Id": 0 }, "geometry": { "type": "MultiLineString", "coordinates": [ [ [ 26.140186836809221, 44.42011205794563 ], [ 26.140186836809221, 44.420138041157827 ] ] ] } },
{ "type": "Feature", "properties": { "Id": 0 }, "geometry": { "type": "MultiLineString", "coordinates": [ [ [ 26.140221317804162, 44.420138041157827 ], [ 26.140186836809221, 44.420138041157827 ] ] ] } },
{ "type": "Feature", "properties": { "Id": 0 }, "geometry": { "type": "MultiLineString", "coordinates": [ [ [ 26.139976891514834, 44.420147296530615 ], [ 26.140020843617776, 44.420147303348813 ] ] ] } },
{ "type": "Feature", "properties": { "Id": 0 }, "geometry": { "type": "MultiLineString", "coordinates": [ [ [ 26.140020847634617, 44.420121409620435 ], [ 26.140020843617776, 44.420147303348813 ] ] ] } },
{ "type": "Feature", "properties": { "Id": 0 }, "geometry": { "type": "MultiLineString", "coordinates": [ [ [ 26.140186836809221, 44.420138041157827 ], [ 26.140186836809221, 44.420163998738587 ] ] ] } },
{ "type": "Feature", "properties": { "Id": 0 }, "geometry": { "type": "MultiLineString", "coordinates": [ [ [ 26.140210642401712, 44.420163998738587 ], [ 26.140186836809221, 44.420163998738587 ] ] ] } },
{ "type": "Feature", "properties": { "Id": 0 }, "geometry": { "type": "MultiLineString", "coordinates": [ [ [ 26.140221283629899, 44.420163998738587 ], [ 26.140210642401712, 44.420163998738587 ] ] ] } },
{ "type": "Feature", "properties": { "Id": 0 }, "geometry": { "type": "MultiLineString", "coordinates": [ [ [ 26.140020843617776, 44.420147303348813 ], [ 26.14002084046416, 44.420167631932429 ] ] ] } },
{ "type": "Feature", "properties": { "Id": 0 }, "geometry": { "type": "MultiLineString", "coordinates": [ [ [ 26.140080906478374, 44.420167641250316 ], [ 26.14002084046416, 44.420167631932429 ] ] ] } },
{ "type": "Feature", "properties": { "Id": 0 }, "geometry": { "type": "MultiLineString", "coordinates": [ [ [ 26.140106872752142, 44.420167645278411 ], [ 26.140080906478374, 44.420167641250316 ] ] ] } },
{ "type": "Feature", "properties": { "Id": 0 }, "geometry": { "type": "MultiLineString", "coordinates": [ [ [ 26.140132753892374, 44.420167649293319 ], [ 26.140106872752142, 44.420167645278411 ] ] ] } },
{ "type": "Feature", "properties": { "Id": 0 }, "geometry": { "type": "MultiLineString", "coordinates": [ [ [ 26.140158743401059, 44.420167653324938 ], [ 26.140132753892374, 44.420167649293319 ] ] ] } },
{ "type": "Feature", "properties": { "Id": 0 }, "geometry": { "type": "MultiLineString", "coordinates": [ [ [ 26.140184656017652, 44.420167657344621 ], [ 26.140158743401059, 44.420167653324938 ] ] ] } },
{ "type": "Feature", "properties": { "Id": 0 }, "geometry": { "type": "MultiLineString", "coordinates": [ [ [ 26.140186836809221, 44.420167657682839 ], [ 26.140184656017652, 44.420167657344621 ] ] ] } },
{ "type": "Feature", "properties": { "Id": 0 }, "geometry": { "type": "MultiLineString", "coordinates": [ [ [ 26.140186836809221, 44.420163998738587 ], [ 26.140186836809221, 44.420167657682839 ] ] ] } },
{ "type": "Feature", "properties": { "Id": 0 }, "geometry": { "type": "MultiLineString", "coordinates": [ [ [ 26.139976891514834, 44.420173267151824 ], [ 26.140020839588999, 44.42017327396934 ] ] ] } },
{ "type": "Feature", "properties": { "Id": 0 }, "geometry": { "type": "MultiLineString", "coordinates": [ [ [ 26.14002084046416, 44.420167631932429 ], [ 26.140020839588999, 44.42017327396934 ] ] ] } },
{ "type": "Feature", "properties": { "Id": 0 }, "geometry": { "type": "MultiLineString", "coordinates": [ [ [ 26.140210642401712, 44.420183826965683 ], [ 26.140210642401712, 44.420163998738587 ] ] ] } },
{ "type": "Feature", "properties": { "Id": 0 }, "geometry": { "type": "MultiLineString", "coordinates": [ [ [ 26.140080898109431, 44.420190655993849 ], [ 26.140080906478374, 44.420167641250316 ] ] ] } },
{ "type": "Feature", "properties": { "Id": 0 }, "geometry": { "type": "MultiLineString", "coordinates": [ [ [ 26.140106869181125, 44.420190664986819 ], [ 26.140106872752142, 44.420167645278411 ] ] ] } },
{ "type": "Feature", "properties": { "Id": 0 }, "geometry": { "type": "MultiLineString", "coordinates": [ [ [ 26.140132750320674, 44.42019067442925 ], [ 26.140132753892374, 44.420167649293319 ] ] ] } },
{ "type": "Feature", "properties": { "Id": 0 }, "geometry": { "type": "MultiLineString", "coordinates": [ [ [ 26.140158739828451, 44.420190683871624 ], [ 26.140158743401059, 44.420167653324938 ] ] ] } },
{ "type": "Feature", "properties": { "Id": 0 }, "geometry": { "type": "MultiLineString", "coordinates": [ [ [ 26.140184652444191, 44.420190692864821 ], [ 26.140184656017652, 44.420167657344621 ] ] ] } },
{ "type": "Feature", "properties": { "Id": 0 }, "geometry": { "type": "MultiLineString", "coordinates": [ [ [ 26.140210642401712, 44.42019070276001 ], [ 26.140210642401712, 44.420183826965683 ] ] ] } },
{ "type": "Feature", "properties": { "Id": 0 }, "geometry": { "type": "MultiLineString", "coordinates": [ [ [ 26.140236627862635, 44.42019071175315 ], [ 26.140236630374034, 44.420183836458705 ], [ 26.140210642401712, 44.420183826965683 ] ] ] } },
{ "type": "Feature", "properties": { "Id": 0 }, "geometry": { "type": "MultiLineString", "coordinates": [ [ [ 26.139976891514834, 44.420199180216628 ], [ 26.14002083556926, 44.420199187033347 ] ] ] } },
{ "type": "Feature", "properties": { "Id": 0 }, "geometry": { "type": "MultiLineString", "coordinates": [ [ [ 26.140020839588999, 44.42017327396934 ], [ 26.14002083556926, 44.420199187033347 ] ] ] } },
{ "type": "Feature", "properties": { "Id": 0 }, "geometry": { "type": "MultiLineString", "coordinates": [ [ [ 26.139976891514834, 44.420225227282629 ], [ 26.140020831528602, 44.420225234098837 ] ] ] } },
{ "type": "Feature", "properties": { "Id": 0 }, "geometry": { "type": "MultiLineString", "coordinates": [ [ [ 26.14002083556926, 44.420199187033347 ], [ 26.140020831528602, 44.420225234098837 ] ] ] } },
{ "type": "Feature", "properties": { "Id": 0 }, "geometry": { "type": "MultiLineString", "coordinates": [ [ [ 26.139976891514834, 44.420251121011574 ], [ 26.140020827511876, 44.4202511278271 ] ] ] } },
{ "type": "Feature", "properties": { "Id": 0 }, "geometry": { "type": "MultiLineString", "coordinates": [ [ [ 26.140020831528602, 44.420225234098837 ], [ 26.140020827511876, 44.4202511278271 ] ] ] } },
{ "type": "Feature", "properties": { "Id": 0 }, "geometry": { "type": "MultiLineString", "coordinates": [ [ [ 26.139976891514834, 44.420277091185312 ], [ 26.140020823483269, 44.42027709800027 ] ] ] } },
{ "type": "Feature", "properties": { "Id": 0 }, "geometry": { "type": "MultiLineString", "coordinates": [ [ [ 26.140020827511876, 44.4202511278271 ], [ 26.140020823483269, 44.42027709800027 ] ] ] } },
{ "type": "Feature", "properties": { "Id": 0 }, "geometry": { "type": "MultiLineString", "coordinates": [ [ [ 26.140020823483269, 44.42027709800027 ], [ 26.140020822081908, 44.420286131127057 ] ] ] } },
{ "type": "Feature", "properties": { "Id": 0 }, "geometry": { "type": "MultiLineString", "coordinates": [ [ [ 26.140080782927612, 44.42028615286506 ], [ 26.140020822081908, 44.420286131127057 ] ] ] } },
{ "type": "Feature", "properties": { "Id": 0 }, "geometry": { "type": "MultiLineString", "coordinates": [ [ [ 26.140080791539731, 44.420262397612532 ], [ 26.140080782927612, 44.42028615286506 ] ] ] } },
{ "type": "Feature", "properties": { "Id": 0 }, "geometry": { "type": "MultiLineString", "coordinates": [ [ [ 26.140080782927612, 44.42028615286506 ], [ 26.140106785475837, 44.42028616229203 ] ] ] } },
{ "type": "Feature", "properties": { "Id": 0 }, "geometry": { "type": "MultiLineString", "coordinates": [ [ [ 26.140106794087785, 44.420262407504197 ], [ 26.140106785475837, 44.42028616229203 ] ] ] } },
{ "type": "Feature", "properties": { "Id": 0 }, "geometry": { "type": "MultiLineString", "coordinates": [ [ [ 26.140106785475837, 44.42028616229203 ], [ 26.140132755648324, 44.420286171707062 ] ] ] } },
{ "type": "Feature", "properties": { "Id": 0 }, "geometry": { "type": "MultiLineString", "coordinates": [ [ [ 26.140132764260102, 44.420262417395804 ], [ 26.140132755648324, 44.420286171707062 ] ] ] } },
{ "type": "Feature", "properties": { "Id": 0 }, "geometry": { "type": "MultiLineString", "coordinates": [ [ [ 26.140132755648324, 44.420286171707062 ], [ 26.14015884767889, 44.420286181166318 ] ] ] } },
{ "type": "Feature", "properties": { "Id": 0 }, "geometry": { "type": "MultiLineString", "coordinates": [ [ [ 26.140158856290668, 44.420262426838235 ], [ 26.14015884767889, 44.420286181166318 ] ] ] } },
{ "type": "Feature", "properties": { "Id": 0 }, "geometry": { "type": "MultiLineString", "coordinates": [ [ [ 26.139976891514834, 44.420303081142322 ], [ 26.140020819451479, 44.420303087956597 ] ] ] } },
{ "type": "Feature", "properties": { "Id": 0 }, "geometry": { "type": "MultiLineString", "coordinates": [ [ [ 26.140020822081908, 44.420286131127057 ], [ 26.140020819451479, 44.420303087956597 ] ] ] } },
{ "type": "Feature", "properties": { "Id": 0 }, "geometry": { "type": "MultiLineString", "coordinates": [ [ [ 26.140299289924826, 44.419222708931613 ], [ 26.140299274864567, 44.419215546954923 ] ] ] } },
{ "type": "Feature", "properties": { "Id": 0 }, "geometry": { "type": "MultiLineString", "coordinates": [ [ [ 26.140260243609873, 44.419222790769822 ], [ 26.140260228545898, 44.419215629049276 ] ] ] } },
{ "type": "Feature", "properties": { "Id": 0 }, "geometry": { "type": "MultiLineString", "coordinates": [ [ [ 26.140225439397, 44.419222864064068 ], [ 26.14022542455891, 44.419215702312613 ] ] ] } },
{ "type": "Feature", "properties": { "Id": 0 }, "geometry": { "type": "MultiLineString", "coordinates": [ [ [ 26.140330469869866, 44.41924007483982 ], [ 26.140337500769505, 44.419240074839763 ] ] ] } },
{ "type": "Feature", "properties": { "Id": 0 }, "geometry": { "type": "MultiLineString", "coordinates": [ [ [ 26.140330469869866, 44.41927498472262 ], [ 26.140337500769505, 44.419274984722506 ] ] ] } },
{ "type": "Feature", "properties": { "Id": 0 }, "geometry": { "type": "MultiLineString", "coordinates": [ [ [ 26.140330469869866, 44.419309720587989 ], [ 26.140337500769505, 44.419309720587989 ] ] ] } },
{ "type": "Feature", "properties": { "Id": 0 }, "geometry": { "type": "MultiLineString", "coordinates": [ [ [ 26.140330469869866, 44.4193443800105 ], [ 26.140337500769505, 44.419344380010443 ] ] ] } },
{ "type": "Feature", "properties": { "Id": 0 }, "geometry": { "type": "MultiLineString", "coordinates": [ [ [ 26.140330469869866, 44.419385092318521 ], [ 26.140337500769505, 44.419385092318407 ] ] ] } },
{ "type": "Feature", "properties": { "Id": 0 }, "geometry": { "type": "MultiLineString", "coordinates": [ [ [ 26.140326660341543, 44.419462296868119 ], [ 26.140333707429107, 44.419462296868005 ] ] ] } },
{ "type": "Feature", "properties": { "Id": 0 }, "geometry": { "type": "MultiLineString", "coordinates": [ [ [ 26.140326660341543, 44.41949713705435 ], [ 26.140333707429107, 44.41949713705435 ] ] ] } },
{ "type": "Feature", "properties": { "Id": 0 }, "geometry": { "type": "MultiLineString", "coordinates": [ [ [ 26.140326660341543, 44.419531872918128 ], [ 26.140333707429107, 44.419531872918014 ] ] ] } },
{ "type": "Feature", "properties": { "Id": 0 }, "geometry": { "type": "MultiLineString", "coordinates": [ [ [ 26.140326660341543, 44.419566589895169 ], [ 26.140333707429107, 44.419566589895112 ] ] ] } },
{ "type": "Feature", "properties": { "Id": 0 }, "geometry": { "type": "MultiLineString", "coordinates": [ [ [ 26.140333707429107, 44.419608721334953 ], [ 26.140326660341543, 44.41960872133501 ] ] ] } },
{ "type": "Feature", "properties": { "Id": 0 }, "geometry": { "type": "MultiLineString", "coordinates": [ [ [ 26.140309848864916, 44.419660129729891 ], [ 26.140302809421712, 44.419660129729891 ] ] ] } },
{ "type": "Feature", "properties": { "Id": 0 }, "geometry": { "type": "MultiLineString", "coordinates": [ [ [ 26.140289065982074, 44.419694340840579 ], [ 26.140289065982074, 44.419687205619994 ] ] ] } },
{ "type": "Feature", "properties": { "Id": 0 }, "geometry": { "type": "MultiLineString", "coordinates": [ [ [ 26.140258984558955, 44.419694340840579 ], [ 26.140258984559011, 44.419687205619994 ] ] ] } },
{ "type": "Feature", "properties": { "Id": 0 }, "geometry": { "type": "MultiLineString", "coordinates": [ [ [ 26.14022424869458, 44.419694340840579 ], [ 26.140224248694722, 44.419687205619994 ] ] ] } },
{ "type": "Feature", "properties": { "Id": 0 }, "geometry": { "type": "MultiLineString", "coordinates": [ [ [ 26.140189512380573, 44.419694340840579 ], [ 26.14018951238063, 44.419687205619994 ] ] ] } },
{ "type": "Feature", "properties": { "Id": 0 }, "geometry": { "type": "MultiLineString", "coordinates": [ [ [ 26.140154834072803, 44.419694340840579 ], [ 26.140154834072916, 44.419687205619994 ] ] ] } },
{ "type": "Feature", "properties": { "Id": 0 }, "geometry": { "type": "MultiLineString", "coordinates": [ [ [ 26.140120155765032, 44.419694340840579 ], [ 26.140120155765032, 44.419687205619994 ] ] ] } },
{ "type": "Feature", "properties": { "Id": 0 }, "geometry": { "type": "MultiLineString", "coordinates": [ [ [ 26.140085597067127, 44.419687205619994 ], [ 26.140085597067127, 44.419694340840579 ] ] ] } },
{ "type": "Feature", "properties": { "Id": 0 }, "geometry": { "type": "MultiLineString", "coordinates": [ [ [ 26.140099321171249, 44.419739221506575 ], [ 26.14009932117122, 44.41972347437877 ] ] ] } },
{ "type": "Feature", "properties": { "Id": 0 }, "geometry": { "type": "MultiLineString", "coordinates": [ [ [ 26.14016246347137, 44.419739221506575 ], [ 26.140162463471398, 44.41972347437877 ] ] ] } },
{ "type": "Feature", "properties": { "Id": 0 }, "geometry": { "type": "MultiLineString", "coordinates": [ [ [ 26.140225471322935, 44.419739221506575 ], [ 26.140225471322935, 44.41972347437877 ] ] ] } },
{ "type": "Feature", "properties": { "Id": 0 }, "geometry": { "type": "MultiLineString", "coordinates": [ [ [ 26.140284777565, 44.419739221506575 ], [ 26.140284777564915, 44.41972347437877 ] ] ] } },
{ "type": "Feature", "properties": { "Id": 0 }, "geometry": { "type": "MultiLineString", "coordinates": [ [ [ 26.140191045274946, 44.419605739632971 ], [ 26.140205012196017, 44.41960573783399 ] ] ] } },
{ "type": "Feature", "properties": { "Id": 0 }, "geometry": { "type": "MultiLineString", "coordinates": [ [ [ 26.140191041677667, 44.419578188453727 ], [ 26.140205008673902, 44.419578186430016 ] ] ] } },
{ "type": "Feature", "properties": { "Id": 0 }, "geometry": { "type": "MultiLineString", "coordinates": [ [ [ 26.140191038080388, 44.4195503638785 ], [ 26.140205004926255, 44.419550361854839 ] ] ] } },
{ "type": "Feature", "properties": { "Id": 0 }, "geometry": { "type": "MultiLineString", "coordinates": [ [ [ 26.140191034483223, 44.419522564934596 ], [ 26.140205001479465, 44.419522562910949 ] ] ] } },
{ "type": "Feature", "properties": { "Id": 0 }, "geometry": { "type": "MultiLineString", "coordinates": [ [ [ 26.140191030885944, 44.419494765990805 ], [ 26.140204997731701, 44.419494763967144 ] ] ] } },
{ "type": "Feature", "properties": { "Id": 0 }, "geometry": { "type": "MultiLineString", "coordinates": [ [ [ 26.140191027288665, 44.419466966595849 ], [ 26.140204994209281, 44.419466964797728 ] ] ] } },
{ "type": "Feature", "properties": { "Id": 0 }, "geometry": { "type": "MultiLineString", "coordinates": [ [ [ 26.14019102369133, 44.419439282764984 ], [ 26.14020499061229, 44.419439280967715 ] ] ] } },
{ "type": "Feature", "properties": { "Id": 0 }, "geometry": { "type": "MultiLineString", "coordinates": [ [ [ 26.140191020094051, 44.419413494257299 ], [ 26.140204987015348, 44.419413492459164 ] ] ] } },
{ "type": "Feature", "properties": { "Id": 0 }, "geometry": { "type": "MultiLineString", "coordinates": [ [ [ 26.140128101275423, 44.419391794066655 ], [ 26.140114153467717, 44.419391793095471 ] ] ] } },
{ "type": "Feature", "properties": { "Id": 0 }, "geometry": { "type": "MultiLineString", "coordinates": [ [ [ 26.14012809857752, 44.419419465306532 ], [ 26.140114152039676, 44.419419464557684 ] ] ] } },
{ "type": "Feature", "properties": { "Id": 0 }, "geometry": { "type": "MultiLineString", "coordinates": [ [ [ 26.140128095429816, 44.419447289881703 ], [ 26.14011415099176, 44.4194472900313 ] ] ] } },
{ "type": "Feature", "properties": { "Id": 0 }, "geometry": { "type": "MultiLineString", "coordinates": [ [ [ 26.140128092282112, 44.419475063194056 ], [ 26.140114149642756, 44.419475063345935 ] ] ] } },
{ "type": "Feature", "properties": { "Id": 0 }, "geometry": { "type": "MultiLineString", "coordinates": [ [ [ 26.140128089134578, 44.419502913398901 ], [ 26.140114148518613, 44.41950291347149 ] ] ] } },
{ "type": "Feature", "properties": { "Id": 0 }, "geometry": { "type": "MultiLineString", "coordinates": [ [ [ 26.140128085986873, 44.419530840495952 ], [ 26.140114147469486, 44.419530840421444 ] ] ] } },
{ "type": "Feature", "properties": { "Id": 0 }, "geometry": { "type": "MultiLineString", "coordinates": [ [ [ 26.14012808283934, 44.419558639439913 ], [ 26.140114145970344, 44.419558639365796 ] ] ] } },
{ "type": "Feature", "properties": { "Id": 0 }, "geometry": { "type": "MultiLineString", "coordinates": [ [ [ 26.140128079691635, 44.419586438383703 ], [ 26.140114144696497, 44.419586438533706 ] ] ] } },
{ "type": "Feature", "properties": { "Id": 0 }, "geometry": { "type": "MultiLineString", "coordinates": [ [ [ 26.140128076544102, 44.419614202253797 ], [ 26.140114143724492, 44.419614201281 ] ] ] } },
{ "type": "Feature", "properties": { "Id": 0 }, "geometry": { "type": "MultiLineString", "coordinates": [ [ [ 26.140072299241695, 44.41961419910524 ], [ 26.140086254998483, 44.419614200227755 ] ] ] } },
{ "type": "Feature", "properties": { "Id": 0 }, "geometry": { "type": "MultiLineString", "coordinates": [ [ [ 26.140072302389399, 44.419586439731575 ], [ 26.140086256120448, 44.41958643988054 ] ] ] } },
{ "type": "Feature", "properties": { "Id": 0 }, "geometry": { "type": "MultiLineString", "coordinates": [ [ [ 26.140072305536933, 44.419558640787841 ], [ 26.140086257394341, 44.419558640562229 ] ] ] } },
{ "type": "Feature", "properties": { "Id": 0 }, "geometry": { "type": "MultiLineString", "coordinates": [ [ [ 26.140072308684637, 44.41953084184388 ], [ 26.140086258743317, 44.419530841768278 ] ] ] } },
{ "type": "Feature", "properties": { "Id": 0 }, "geometry": { "type": "MultiLineString", "coordinates": [ [ [ 26.140072311832341, 44.419502915197995 ], [ 26.140086259867775, 44.419502915048888 ] ] ] } },
{ "type": "Feature", "properties": { "Id": 0 }, "geometry": { "type": "MultiLineString", "coordinates": [ [ [ 26.140072314979875, 44.419475064993151 ], [ 26.140086260991307, 44.419475064914643 ] ] ] } },
{ "type": "Feature", "properties": { "Id": 0 }, "geometry": { "type": "MultiLineString", "coordinates": [ [ [ 26.140072318127409, 44.419447291678864 ], [ 26.140086262340599, 44.41944729145424 ] ] ] } },
{ "type": "Feature", "properties": { "Id": 0 }, "geometry": { "type": "MultiLineString", "coordinates": [ [ [ 26.140072321275113, 44.419419463507438 ], [ 26.140086263388884, 44.419419464329998 ] ] ] } },
{ "type": "Feature", "properties": { "Id": 0 }, "geometry": { "type": "MultiLineString", "coordinates": [ [ [ 26.140072324422817, 44.419391791818327 ], [ 26.140086265116679, 44.41939179256395 ] ] ] } },
{ "type": "Feature", "properties": { "Id": 0 }, "geometry": { "type": "MultiLineString", "coordinates": [ [ [ 26.140054440504628, 44.419146966229221 ], [ 26.140048361218351, 44.419143493631779 ] ] ] } },
{ "type": "Feature", "properties": { "Id": 0 }, "geometry": { "type": "MultiLineString", "coordinates": [ [ [ 26.140060282050911, 44.419170719571412 ], [ 26.140053715099448, 44.419166796009655 ] ] ] } },
{ "type": "Feature", "properties": { "Id": 0 }, "geometry": { "type": "MultiLineString", "coordinates": [ [ [ 26.140037097978279, 44.419177323743554 ], [ 26.140031018561103, 44.419173851012602 ] ] ] } },
{ "type": "Feature", "properties": { "Id": 0 }, "geometry": { "type": "MultiLineString", "coordinates": [ [ [ 26.140019885403774, 44.419207453280308 ], [ 26.140013805963854, 44.419203980417102 ] ] ] } },
{ "type": "Feature", "properties": { "Id": 0 }, "geometry": { "type": "MultiLineString", "coordinates": [ [ [ 26.140002674628249, 44.419237580119443 ], [ 26.139996595211166, 44.419234106937445 ] ] ] } },
{ "type": "Feature", "properties": { "Id": 0 }, "geometry": { "type": "MultiLineString", "coordinates": [ [ [ 26.139985422933421, 44.419267778004723 ], [ 26.139979343857807, 44.419264304821382 ] ] ] } },
{ "type": "Feature", "properties": { "Id": 0 }, "geometry": { "type": "MultiLineString", "coordinates": [ [ [ 26.139968253526547, 44.419297831549613 ], [ 26.139962174241884, 44.419294358949273 ] ] ] } },
{ "type": "Feature", "properties": { "Id": 0 }, "geometry": { "type": "MultiLineString", "coordinates": [ [ [ 26.139959431627062, 44.419331143337445 ], [ 26.139952407696772, 44.419331142624614 ] ] ] } },
{ "type": "Feature", "properties": { "Id": 0 }, "geometry": { "type": "MultiLineString", "coordinates": [ [ [ 26.139959426680775, 44.419366026240937 ], [ 26.139952402750804, 44.419366025155931 ] ] ] } },
{ "type": "Feature", "properties": { "Id": 0 }, "geometry": { "type": "MultiLineString", "coordinates": [ [ [ 26.139959421284743, 44.419400752662114 ], [ 26.139952397804286, 44.419400751577506 ] ] ] } },
{ "type": "Feature", "properties": { "Id": 0 }, "geometry": { "type": "MultiLineString", "coordinates": [ [ [ 26.139959416338513, 44.419435464693436 ], [ 26.139952392858074, 44.419435463980058 ] ] ] } },
{ "type": "Feature", "properties": { "Id": 0 }, "geometry": { "type": "MultiLineString", "coordinates": [ [ [ 26.139959411392226, 44.419470219894833 ], [ 26.139952387942227, 44.41947021858504 ] ] ] } },
{ "type": "Feature", "properties": { "Id": 0 }, "geometry": { "type": "MultiLineString", "coordinates": [ [ [ 26.139959406445939, 44.419504960706092 ], [ 26.139952382965543, 44.419504959541463 ] ] ] } },
{ "type": "Feature", "properties": { "Id": 0 }, "geometry": { "type": "MultiLineString", "coordinates": [ [ [ 26.139959401499709, 44.419539629570863 ], [ 26.139952377794472, 44.419539628221187 ] ] ] } },
{ "type": "Feature", "properties": { "Id": 0 }, "geometry": { "type": "MultiLineString", "coordinates": [ [ [ 26.139959396553422, 44.419574355542807 ], [ 26.139952372817859, 44.4195743544187 ] ] ] } },
{ "type": "Feature", "properties": { "Id": 0 }, "geometry": { "type": "MultiLineString", "coordinates": [ [ [ 26.139959391607135, 44.419609110293209 ], [ 26.139952367902051, 44.419609109393591 ] ] ] } },
{ "type": "Feature", "properties": { "Id": 0 }, "geometry": { "type": "MultiLineString", "coordinates": [ [ [ 26.139959386660905, 44.419643779157923 ], [ 26.13995236295553, 44.419643778258433 ] ] ] } },
{ "type": "Feature", "properties": { "Id": 0 }, "geometry": { "type": "MultiLineString", "coordinates": [ [ [ 26.139959381714618, 44.419678491189245 ], [ 26.139952358009381, 44.419678490290622 ] ] ] } },
{ "type": "Feature", "properties": { "Id": 0 }, "geometry": { "type": "MultiLineString", "coordinates": [ [ [ 26.139959377667708, 44.419706811739218 ], [ 26.139952353962428, 44.41970681084058 ] ] ] } },
{ "type": "Feature", "properties": { "Id": 0 }, "geometry": { "type": "MultiLineString", "coordinates": [ [ [ 26.14023283677076, 44.419605734236939 ], [ 26.140281139225568, 44.419605726991939 ] ] ] } },
{ "type": "Feature", "properties": { "Id": 0 }, "geometry": { "type": "MultiLineString", "coordinates": [ [ [ 26.140232833173172, 44.419578182607438 ], [ 26.140281135093034, 44.419578175362517 ] ] ] } },
{ "type": "Feature", "properties": { "Id": 0 }, "geometry": { "type": "MultiLineString", "coordinates": [ [ [ 26.140232829575591, 44.419550358033121 ], [ 26.140281130919597, 44.419550350788398 ] ] ] } },
{ "type": "Feature", "properties": { "Id": 0 }, "geometry": { "type": "MultiLineString", "coordinates": [ [ [ 26.140232825978917, 44.419522559089273 ], [ 26.140281126750018, 44.419522551844551 ] ] ] } },
{ "type": "Feature", "properties": { "Id": 0 }, "geometry": { "type": "MultiLineString", "coordinates": [ [ [ 26.140232822381019, 44.419494760145433 ], [ 26.140281122580394, 44.419494752900661 ] ] ] } },
{ "type": "Feature", "properties": { "Id": 0 }, "geometry": { "type": "MultiLineString", "coordinates": [ [ [ 26.140232818784316, 44.419466961201572 ], [ 26.140281118410702, 44.419466953957055 ] ] ] } },
{ "type": "Feature", "properties": { "Id": 0 }, "geometry": { "type": "MultiLineString", "coordinates": [ [ [ 26.140232815186721, 44.419439277371566 ], [ 26.140281114258354, 44.419439270127135 ] ] ] } },
{ "type": "Feature", "properties": { "Id": 0 }, "geometry": { "type": "MultiLineString", "coordinates": [ [ [ 26.140232811589442, 44.419413488862119 ], [ 26.140281110390305, 44.419413481617717 ] ] ] } },
{ "type": "Feature", "properties": { "Id": 0 }, "geometry": { "type": "MultiLineString", "coordinates": [ [ [ 26.139976856890939, 44.419730868603494 ], [ 26.139960122880151, 44.419730848200054 ] ] ] } },
{ "type": "Feature", "properties": { "Id": 0 }, "geometry": { "type": "MultiLineString", "coordinates": [ [ [ 26.139976826314012, 44.419756006904322 ], [ 26.139960092503387, 44.419755986387713 ] ] ] } },
{ "type": "Feature", "properties": { "Id": 0 }, "geometry": { "type": "MultiLineString", "coordinates": [ [ [ 26.139976795287453, 44.419781296739643 ], [ 26.139960061376602, 44.419781276111451 ] ] ] } },
{ "type": "Feature", "properties": { "Id": 0 }, "geometry": { "type": "MultiLineString", "coordinates": [ [ [ 26.140069581040905, 44.419882447537077 ], [ 26.140089073846156, 44.41988244753702 ] ] ] } },
{ "type": "Feature", "properties": { "Id": 0 }, "geometry": { "type": "MultiLineString", "coordinates": [ [ [ 26.140069581040905, 44.419906075425502 ], [ 26.140089073846156, 44.419906075425388 ] ] ] } },
{ "type": "Feature", "properties": { "Id": 0 }, "geometry": { "type": "MultiLineString", "coordinates": [ [ [ 26.140069581040905, 44.4199298337154 ], [ 26.140089073846156, 44.419929833715287 ] ] ] } },
{ "type": "Feature", "properties": { "Id": 0 }, "geometry": { "type": "MultiLineString", "coordinates": [ [ [ 26.140069581040905, 44.419953540742483 ], [ 26.140089073846156, 44.419953540742426 ] ] ] } },
{ "type": "Feature", "properties": { "Id": 0 }, "geometry": { "type": "MultiLineString", "coordinates": [ [ [ 26.140069581040905, 44.419977273402765 ], [ 26.140089073846156, 44.419977273402765 ] ] ] } },
{ "type": "Feature", "properties": { "Id": 0 }, "geometry": { "type": "MultiLineString", "coordinates": [ [ [ 26.140069581040905, 44.420001006063046 ], [ 26.140089073846156, 44.420001006063103 ] ] ] } },
{ "type": "Feature", "properties": { "Id": 0 }, "geometry": { "type": "MultiLineString", "coordinates": [ [ [ 26.139976891514834, 44.419991569926424 ], [ 26.13996006385031, 44.419991569926424 ] ] ] } },
{ "type": "Feature", "properties": { "Id": 0 }, "geometry": { "type": "MultiLineString", "coordinates": [ [ [ 26.139976891514834, 44.420017501875975 ], [ 26.13996006385031, 44.420017501875918 ] ] ] } },
{ "type": "Feature", "properties": { "Id": 0 }, "geometry": { "type": "MultiLineString", "coordinates": [ [ [ 26.139976891514834, 44.419965618637434 ], [ 26.13996006385031, 44.419965618637434 ] ] ] } },
{ "type": "Feature", "properties": { "Id": 0 }, "geometry": { "type": "MultiLineString", "coordinates": [ [ [ 26.139976891514834, 44.41993962913142 ], [ 26.13996006385031, 44.419939629131477 ] ] ] } },
{ "type": "Feature", "properties": { "Id": 0 }, "geometry": { "type": "MultiLineString", "coordinates": [ [ [ 26.139976891514834, 44.419913639621882 ], [ 26.13996006385031, 44.419913639621882 ] ] ] } },
{ "type": "Feature", "properties": { "Id": 0 }, "geometry": { "type": "MultiLineString", "coordinates": [ [ [ 26.139976891514834, 44.41988772296105 ], [ 26.13996006385031, 44.419887722960993 ] ] ] } },
{ "type": "Feature", "properties": { "Id": 0 }, "geometry": { "type": "MultiLineString", "coordinates": [ [ [ 26.139976764710468, 44.419806414354809 ], [ 26.139960030575814, 44.419806393670122 ] ] ] } },
{ "type": "Feature", "properties": { "Id": 0 }, "geometry": { "type": "MultiLineString", "coordinates": [ [ [ 26.1401475819398, 44.419882447537077 ], [ 26.14012807429566, 44.41988244753702 ] ] ] } },
{ "type": "Feature", "properties": { "Id": 0 }, "geometry": { "type": "MultiLineString", "coordinates": [ [ [ 26.1401475819398, 44.419906075425502 ], [ 26.14012807429566, 44.419906075425388 ] ] ] } },
{ "type": "Feature", "properties": { "Id": 0 }, "geometry": { "type": "MultiLineString", "coordinates": [ [ [ 26.1401475819398, 44.4199298337154 ], [ 26.14012807429566, 44.419929833715287 ] ] ] } },
{ "type": "Feature", "properties": { "Id": 0 }, "geometry": { "type": "MultiLineString", "coordinates": [ [ [ 26.1401475819398, 44.419953540742483 ], [ 26.14012807429566, 44.419953540742426 ] ] ] } },
{ "type": "Feature", "properties": { "Id": 0 }, "geometry": { "type": "MultiLineString", "coordinates": [ [ [ 26.1401475819398, 44.419977273402765 ], [ 26.14012807429566, 44.419977273402765 ] ] ] } },
{ "type": "Feature", "properties": { "Id": 0 }, "geometry": { "type": "MultiLineString", "coordinates": [ [ [ 26.1401475819398, 44.420001006063046 ], [ 26.14012807429566, 44.420001006063103 ] ] ] } },
{ "type": "Feature", "properties": { "Id": 0 }, "geometry": { "type": "MultiLineString", "coordinates": [ [ [ 26.1401475819398, 44.420024738721736 ], [ 26.14012807429566, 44.420024738721622 ] ] ] } },
{ "type": "Feature", "properties": { "Id": 0 }, "geometry": { "type": "MultiLineString", "coordinates": [ [ [ 26.1401475819398, 44.420048548272518 ], [ 26.14012807429566, 44.420048548272462 ] ] ] } },
{ "type": "Feature", "properties": { "Id": 0 }, "geometry": { "type": "MultiLineString", "coordinates": [ [ [ 26.1401475819398, 44.420072306562417 ], [ 26.14012807429566, 44.420072306562361 ] ] ] } },
{ "type": "Feature", "properties": { "Id": 0 }, "geometry": { "type": "MultiLineString", "coordinates": [ [ [ 26.140069581040905, 44.420024738721736 ], [ 26.140089073846156, 44.420024738721622 ] ] ] } },
{ "type": "Feature", "properties": { "Id": 0 }, "geometry": { "type": "MultiLineString", "coordinates": [ [ [ 26.140069581040905, 44.420048548272518 ], [ 26.140089073846156, 44.420048548272462 ] ] ] } },
{ "type": "Feature", "properties": { "Id": 0 }, "geometry": { "type": "MultiLineString", "coordinates": [ [ [ 26.140069581040905, 44.420072306562417 ], [ 26.140089073846156, 44.420072306562361 ] ] ] } },
{ "type": "Feature", "properties": { "Id": 0 }, "geometry": { "type": "MultiLineString", "coordinates": [ [ [ 26.140221344783811, 44.419913241223242 ], [ 26.140238381065711, 44.419913245494108 ] ] ] } },
{ "type": "Feature", "properties": { "Id": 0 }, "geometry": { "type": "MultiLineString", "coordinates": [ [ [ 26.140221455400422, 44.420034031414616 ], [ 26.140238283064775, 44.420034053897325 ] ] ] } },
{ "type": "Feature", "properties": { "Id": 0 }, "geometry": { "type": "MultiLineString", "coordinates": [ [ [ 26.140221420776527, 44.420060091070013 ], [ 26.14023824844088, 44.420060113552609 ] ] ] } },
{ "type": "Feature", "properties": { "Id": 0 }, "geometry": { "type": "MultiLineString", "coordinates": [ [ [ 26.140221386602263, 44.42008609991359 ], [ 26.140238214163997, 44.420086122171391 ] ] ] } },
{ "type": "Feature", "properties": { "Id": 0 }, "geometry": { "type": "MultiLineString", "coordinates": [ [ [ 26.140221352428, 44.42011205794563 ], [ 26.140238180194423, 44.420112080203786 ] ] ] } },
{ "type": "Feature", "properties": { "Id": 0 }, "geometry": { "type": "MultiLineString", "coordinates": [ [ [ 26.140221317804162, 44.420138041157827 ], [ 26.140238145693136, 44.420138063245972 ] ] ] } },
{ "type": "Feature", "properties": { "Id": 0 }, "geometry": { "type": "MultiLineString", "coordinates": [ [ [ 26.140221283629899, 44.420163998738587 ], [ 26.140238111621112, 44.420164021051818 ] ] ] } },
{ "type": "Feature", "properties": { "Id": 0 }, "geometry": { "type": "MultiLineString", "coordinates": [ [ [ 26.1401475819398, 44.420095967276211 ], [ 26.14012807429566, 44.420095967276211 ] ] ] } },
{ "type": "Feature", "properties": { "Id": 0 }, "geometry": { "type": "MultiLineString", "coordinates": [ [ [ 26.140069581040905, 44.420095967276211 ], [ 26.140089073846156, 44.420095967276211 ] ] ] } },
{ "type": "Feature", "properties": { "Id": 0 }, "geometry": { "type": "MultiLineString", "coordinates": [ [ [ 26.139976891514834, 44.420043491832985 ], [ 26.13996006385031, 44.420043491832985 ] ] ] } },
{ "type": "Feature", "properties": { "Id": 0 }, "geometry": { "type": "MultiLineString", "coordinates": [ [ [ 26.139976891514834, 44.420069442670922 ], [ 26.139960063850307, 44.420069442670865 ] ] ] } },
{ "type": "Feature", "properties": { "Id": 0 }, "geometry": { "type": "MultiLineString", "coordinates": [ [ [ 26.139976891514834, 44.420095394407326 ], [ 26.13996006385031, 44.420095394407326 ] ] ] } },
{ "type": "Feature", "properties": { "Id": 0 }, "geometry": { "type": "MultiLineString", "coordinates": [ [ [ 26.139976891514834, 44.420121402801669 ], [ 26.13996006385031, 44.420121402801669 ] ] ] } },
{ "type": "Feature", "properties": { "Id": 0 }, "geometry": { "type": "MultiLineString", "coordinates": [ [ [ 26.139976891514834, 44.420147296530615 ], [ 26.13996006385031, 44.420147296530558 ] ] ] } },
{ "type": "Feature", "properties": { "Id": 0 }, "geometry": { "type": "MultiLineString", "coordinates": [ [ [ 26.139976891514834, 44.420173267151824 ], [ 26.13996006385031, 44.420173267151768 ] ] ] } },
{ "type": "Feature", "properties": { "Id": 0 }, "geometry": { "type": "MultiLineString", "coordinates": [ [ [ 26.139976891514834, 44.420199180216628 ], [ 26.13996006385031, 44.420199180216521 ] ] ] } },
{ "type": "Feature", "properties": { "Id": 0 }, "geometry": { "type": "MultiLineString", "coordinates": [ [ [ 26.139976891514834, 44.420225227282629 ], [ 26.13996006385031, 44.420225227282579 ] ] ] } },
{ "type": "Feature", "properties": { "Id": 0 }, "geometry": { "type": "MultiLineString", "coordinates": [ [ [ 26.139976891514834, 44.420251121011574 ], [ 26.13996006385031, 44.420251121011461 ] ] ] } },
{ "type": "Feature", "properties": { "Id": 0 }, "geometry": { "type": "MultiLineString", "coordinates": [ [ [ 26.139976891514834, 44.420277091185312 ], [ 26.13996006385031, 44.420277091185199 ] ] ] } },
{ "type": "Feature", "properties": { "Id": 0 }, "geometry": { "type": "MultiLineString", "coordinates": [ [ [ 26.139976891514834, 44.420303081142322 ], [ 26.13996006385031, 44.420303081142265 ] ] ] } },
{ "type": "Feature", "properties": { "Id": 0 }, "geometry": { "type": "MultiLineString", "coordinates": [ [ [ 26.140080791539731, 44.420262397612532 ], [ 26.140080798005325, 44.420245384358992 ] ] ] } },
{ "type": "Feature", "properties": { "Id": 0 }, "geometry": { "type": "MultiLineString", "coordinates": [ [ [ 26.140080898109431, 44.420190655993849 ], [ 26.140080892038952, 44.420207706343376 ] ] ] } },
{ "type": "Feature", "properties": { "Id": 0 }, "geometry": { "type": "MultiLineString", "coordinates": [ [ [ 26.140106869181125, 44.420190664986819 ], [ 26.140106863110645, 44.420207715337206 ] ] ] } },
{ "type": "Feature", "properties": { "Id": 0 }, "geometry": { "type": "MultiLineString", "coordinates": [ [ [ 26.140106794087785, 44.420262407504197 ], [ 26.140106800382995, 44.42024539412887 ] ] ] } },
{ "type": "Feature", "properties": { "Id": 0 }, "geometry": { "type": "MultiLineString", "coordinates": [ [ [ 26.140132764260102, 44.420262417395804 ], [ 26.140132770780152, 44.420245404126049 ] ] ] } },
{ "type": "Feature", "properties": { "Id": 0 }, "geometry": { "type": "MultiLineString", "coordinates": [ [ [ 26.140132750320674, 44.42019067442925 ], [ 26.140132744249936, 44.42020772478017 ] ] ] } },
{ "type": "Feature", "properties": { "Id": 0 }, "geometry": { "type": "MultiLineString", "coordinates": [ [ [ 26.140158739828451, 44.420190683871624 ], [ 26.140158733758085, 44.420207734016074 ] ] ] } },
{ "type": "Feature", "properties": { "Id": 0 }, "geometry": { "type": "MultiLineString", "coordinates": [ [ [ 26.140158856290668, 44.420262426838235 ], [ 26.140158862865324, 44.420245413792124 ] ] ] } },
{ "type": "Feature", "properties": { "Id": 0 }, "geometry": { "type": "MultiLineString", "coordinates": [ [ [ 26.140184652444191, 44.420190692864821 ], [ 26.140184646598627, 44.420207743112762 ] ] ] } },
{ "type": "Feature", "properties": { "Id": 0 }, "geometry": { "type": "MultiLineString", "coordinates": [ [ [ 26.140210642401712, 44.42019070276001 ], [ 26.140210636052448, 44.42020775278155 ] ] ] } },
{ "type": "Feature", "properties": { "Id": 0 }, "geometry": { "type": "MultiLineString", "coordinates": [ [ [ 26.140236627862635, 44.42019071175315 ], [ 26.14023662179207, 44.420207762103132 ] ] ] } },
{ "type": "Feature", "properties": { "Id": 0 }, "geometry": { "type": "MultiLineString", "coordinates": [ [ [ 26.140312551777413, 44.419771671747981 ], [ 26.140328318241757, 44.4197733350411 ] ] ] } },
{ "type": "Feature", "properties": { "Id": 0 }, "geometry": { "type": "MultiLineString", "coordinates": [ [ [ 26.140285407989609, 44.419804858527698 ], [ 26.140285413385065, 44.41982070458198 ] ] ] } },
{ "type": "Feature", "properties": { "Id": 0 }, "geometry": { "type": "MultiLineString", "coordinates": [ [ [ 26.140226389081079, 44.41980487966066 ], [ 26.140226394476983, 44.419820725715908 ] ] ] } }
]
}
