{
  "features": [
    {
      "geometry": {
        "coordinates": [
          [
            -122.80778311148858,
            53.886156517596085
          ],
          [
            -122.8085499412056,
            53.8860040383974
          ]
        ],
        "type": "LineString"
      },
      "properties": {
        "access_type": "public",
        "from_level_id": null,
        "is_accessible": true,
        "level_id": 0.5,
        "network_type": "ramp",
        "to_level_id": null,
        "vertical_connection_id": "3ApLBQ2Ov0KAY5kWXD1uN5"
      },
      "type": "Feature"
    },
    {
      "geometry": {
        "coordinates": [
          [
            -122.80778311148858,
            53.886156517596085
          ],
          [
            -122.80873665272684,
            53.885987744664995
          ]
        ],
        "type": "LineString"
      },
      "properties": {
        "access_type": "public",
        "from_level_id": null,
        "is_accessible": true,
        "level_id": 0.5,
        "network_type": "ramp",
        "to_level_id": null,
        "vertical_connection_id": "3ApLBQ2Ov0KAY5kWXD1uYl"
      },
      "type": "Feature"
    },
    {
      "geometry": {
        "coordinates": [
          [
            -122.80778311148858,
            53.886156517596085
          ],
          [
            -122.8083189584778,
            53.885057082284604
          ]
        ],
        "type": "LineString"
      },
      "properties": {
        "access_type": "public",
        "from_level_id": null,
        "is_accessible": true,
        "level_id": 0.5,
        "network_type": "ramp",
        "to_level_id": null,
        "vertical_connection_id": "2aCcQ2Dq55d9b6fkJqaRq9"
      },
      "type": "Feature"
    },
    {
      "geometry": {
        "coordinates": [
          [
            -122.80778311148858,
            53.886156517596085
          ],
          [
            -122.8083189584778,
            53.885057082284604
          ]
        ],
        "type": "LineString"
      },
      "properties": {
        "access_type": "public",
        "from_level_id": null,
        "is_accessible": false,
        "level_id": 0.5,
        "network_type": "stairs",
        "to_level_id": null,
        "vertical_connection_id": "0OgLb85LH0ch2osRZyULam"
      },
      "type": "Feature"
    },
    {
      "geometry": {
        "coordinates": [
          [
            -122.80778311148858,
            53.886156517596085
          ],
          [
            -122.8083189584778,
            53.885057082284604
          ]
        ],
        "type": "LineString"
      },
      "properties": {
        "access_type": "public",
        "from_level_id": null,
        "is_accessible": false,
        "level_id": 0.5,
        "network_type": "stairs",
        "to_level_id": null,
        "vertical_connection_id": "0RPjGS3pn71PpLc4jrlCQA"
      },
      "type": "Feature"
    },
    {
      "geometry": {
        "coordinates": [
          [
            -122.80778311148858,
            53.886156517596085
          ],
          [
            -122.8083189584778,
            53.885057082284604
          ]
        ],
        "type": "LineString"
      },
      "properties": {
        "access_type": "public",
        "from_level_id": null,
        "is_accessible": false,
        "level_id": 0.5,
        "network_type": "stairs",
        "to_level_id": null,
        "vertical_connection_id": "1$dOSmXOn1gwt1_R1$axKI"
      },
      "type": "Feature"
    },
    {
      "geometry": {
        "coordinates": [
          [
            -122.80778311148858,
            53.886156517596085
          ],
          [
            -122.8083189584778,
            53.885057082284604
          ]
        ],
        "type": "LineString"
      },
      "properties": {
        "access_type": "public",
        "from_level_id": null,
        "is_accessible": false,
        "level_id": 0.5,
        "network_type": "stairs",
        "to_level_id": null,
        "vertical_connection_id": "1$dOSmXOn1gwt1_R1$auKX"
      },
      "type": "Feature"
    },
    {
      "geometry": {
        "coordinates": [
          [
            -122.80778311148858,
            53.886156517596085
          ],
          [
            -122.8083189584778,
            53.885057082284604
          ]
        ],
        "type": "LineString"
      },
      "properties": {
        "access_type": "public",
        "from_level_id": null,
        "is_accessible": false,
        "level_id": 0.5,
        "network_type": "stairs",
        "to_level_id": null,
        "vertical_connection_id": "3bKFgvFOPERfDgMm1IBrCE"
      },
      "type": "Feature"
    },
    {
      "geometry": {
        "coordinates": [
          [
            -122.80778311148858,
            53.886156517596085
          ],
          [
            -122.8083189584778,
            53.885057082284604
          ]
        ],
        "type": "LineString"
      },
      "properties": {
        "access_type": "public",
        "from_level_id": null,
        "is_accessible": false,
        "level_id": 0.5,
        "network_type": "stairs",
        "to_level_id": null,
        "vertical_connection_id": "3rOuXmKrz8jR5lG8l_o9TG"
      },
      "type": "Feature"
    },
    {
      "geometry": {
        "coordinates": [
          [
            -122.80778311148858,
            53.886156517596085
          ],
          [
            -122.8083189584778,
            53.885057082284604
          ]
        ],
        "type": "LineString"
      },
      "properties": {
        "access_type": "public",
        "from_level_id": null,
        "is_accessible": false,
        "level_id": 0.5,
        "network_type": "stairs",
        "to_level_id": null,
        "vertical_connection_id": "3rOuXmKrz8jR5lG8l_oFkn"
      },
      "type": "Feature"
    },
    {
      "geometry": {
        "coordinates": [
          [
            -122.80778311148858,
            53.886156517596085
          ],
          [
            -122.8083189584778,
            53.885057082284604
          ]
        ],
        "type": "LineString"
      },
      "properties": {
        "access_type": "public",
        "from_level_id": null,
        "is_accessible": false,
        "level_id": 0.5,
        "network_type": "stairs",
        "to_level_id": null,
        "vertical_connection_id": "3rOuXmKrz8jR5lG8l_oFdj"
      },
      "type": "Feature"
    },
    {
      "geometry": {
        "coordinates": [
          [
            -122.80778311148858,
            53.886156517596085
          ],
          [
            -122.8083189584778,
            53.885057082284604
          ]
        ],
        "type": "LineString"
      },
      "properties": {
        "access_type": "public",
        "from_level_id": null,
        "is_accessible": false,
        "level_id": 0.5,
        "network_type": "stairs",
        "to_level_id": null,
        "vertical_connection_id": "3rOuXmKrz8jR5lG8l_oFas"
      },
      "type": "Feature"
    },
    {
      "geometry": {
        "coordinates": [
          [
            -122.80759127206584,
            53.8864997687959
          ],
          [
            -122.80772651400213,
            53.8863145134474
          ]
        ],
        "type": "LineString"
      },
      "properties": {
        "access_type": "public",
        "from_level_id": null,
        "is_accessible": true,
        "level_id": 0,
        "network_type": "ramp",
        "to_level_id": null,
        "vertical_connection_id": "0RPjGS3pn71PpLc4jrlCHD"
      },
      "type": "Feature"
    },
    {
      "geometry": {
        "coordinates": [
          [
            -122.80759127206584,
            53.8864997687959
          ],
          [
            -122.80851367549792,
            53.885887793047914
          ]
        ],
        "type": "LineString"
      },
      "properties": {
        "access_type": "public",
        "from_level_id": null,
        "is_accessible": true,
        "level_id": 0,
        "network_type": "ramp",
        "to_level_id": null,
        "vertical_connection_id": "3rOuXmKrz8jR5lG8l_oFqs"
      },
      "type": "Feature"
    },
    {
      "geometry": {
        "coordinates": [
          [
            -122.80759127206584,
            53.8864997687959
          ],
          [
            -122.8085143491988,
            53.885809883302656
          ]
        ],
        "type": "LineString"
      },
      "properties": {
        "access_type": "public",
        "from_level_id": null,
        "is_accessible": true,
        "level_id": 0,
        "network_type": "ramp",
        "to_level_id": null,
        "vertical_connection_id": "3rOuXmKrz8jR5lG8l_oFey"
      },
      "type": "Feature"
    },
    {
      "geometry": {
        "coordinates": [
          [
            -122.80759127206584,
            53.8864997687959
          ],
          [
            -122.8085143491988,
            53.885775573789225
          ]
        ],
        "type": "LineString"
      },
      "properties": {
        "access_type": "public",
        "from_level_id": null,
        "is_accessible": true,
        "level_id": 0,
        "network_type": "ramp",
        "to_level_id": null,
        "vertical_connection_id": "3rOuXmKrz8jR5lG8l_oFfK"
      },
      "type": "Feature"
    },
    {
      "geometry": {
        "coordinates": [
          [
            -122.80759127206584,
            53.8864997687959
          ],
          [
            -122.80851420781448,
            53.8856973840447
          ]
        ],
        "type": "LineString"
      },
      "properties": {
        "access_type": "public",
        "from_level_id": null,
        "is_accessible": true,
        "level_id": 0,
        "network_type": "ramp",
        "to_level_id": null,
        "vertical_connection_id": "3rOuXmKrz8jR5lG8l_oFfi"
      },
      "type": "Feature"
    },
    {
      "geometry": {
        "coordinates": [
          [
            -122.80759127206584,
            53.8864997687959
          ],
          [
            -122.8085146955904,
            53.885663068214235
          ]
        ],
        "type": "LineString"
      },
      "properties": {
        "access_type": "public",
        "from_level_id": null,
        "is_accessible": true,
        "level_id": 0,
        "network_type": "ramp",
        "to_level_id": null,
        "vertical_connection_id": "3rOuXmKrz8jR5lG8l_oFk4"
      },
      "type": "Feature"
    },
    {
      "geometry": {
        "coordinates": [
          [
            -122.80759127206584,
            53.8864997687959
          ],
          [
            -122.80851476561874,
            53.88558508828121
          ]
        ],
        "type": "LineString"
      },
      "properties": {
        "access_type": "public",
        "from_level_id": null,
        "is_accessible": true,
        "level_id": 0,
        "network_type": "ramp",
        "to_level_id": null,
        "vertical_connection_id": "3rOuXmKrz8jR5lG8l_oFkS"
      },
      "type": "Feature"
    },
    {
      "geometry": {
        "coordinates": [
          [
            -122.80759127206584,
            53.8864997687959
          ],
          [
            -122.80836198380568,
            53.88507211437811
          ]
        ],
        "type": "LineString"
      },
      "properties": {
        "access_type": "public",
        "from_level_id": null,
        "is_accessible": true,
        "level_id": 0,
        "network_type": "ramp",
        "to_level_id": null,
        "vertical_connection_id": "0PLApxEh92RekZh0dQATzz"
      },
      "type": "Feature"
    },
    {
      "geometry": {
        "coordinates": [
          [
            -122.80759127206584,
            53.8864997687959
          ],
          [
            -122.80825178986636,
            53.885031083315035
          ]
        ],
        "type": "LineString"
      },
      "properties": {
        "access_type": "public",
        "from_level_id": null,
        "is_accessible": true,
        "level_id": 0,
        "network_type": "ramp",
        "to_level_id": null,
        "vertical_connection_id": "0PLApxEh92RekZh0dQATd7"
      },
      "type": "Feature"
    },
    {
      "geometry": {
        "coordinates": [
          [
            -122.80759127206584,
            53.8864997687959
          ],
          [
            -122.8083189584778,
            53.885057082284604
          ]
        ],
        "type": "LineString"
      },
      "properties": {
        "access_type": "public",
        "from_level_id": null,
        "is_accessible": false,
        "level_id": 0,
        "network_type": "stairs",
        "to_level_id": null,
        "vertical_connection_id": "3bt_NE7dvASx9UlB1bNAIX"
      },
      "type": "Feature"
    },
    {
      "geometry": {
        "coordinates": [
          [
            -122.80795768307775,
            53.885550787866045
          ],
          [
            -122.8083189584778,
            53.885057082284604
          ]
        ],
        "type": "LineString"
      },
      "properties": {
        "access_type": "public",
        "from_level_id": null,
        "is_accessible": false,
        "level_id": 1,
        "network_type": "stairs",
        "to_level_id": null,
        "vertical_connection_id": "0pdAZ60GfCvBFEBhqxxAgG"
      },
      "type": "Feature"
    },
    {
      "geometry": {
        "coordinates": [
          [
            -122.80795768307775,
            53.885550787866045
          ],
          [
            -122.8083189584778,
            53.885057082284604
          ]
        ],
        "type": "LineString"
      },
      "properties": {
        "access_type": "public",
        "from_level_id": null,
        "is_accessible": false,
        "level_id": 1,
        "network_type": "stairs",
        "to_level_id": null,
        "vertical_connection_id": "0pdAZ60GfCvBFEBhqxxACT"
      },
      "type": "Feature"
    },
    {
      "geometry": {
        "coordinates": [
          [
            -122.80795768307775,
            53.885550787866045
          ],
          [
            -122.8083189584778,
            53.885057082284604
          ]
        ],
        "type": "LineString"
      },
      "properties": {
        "access_type": "public",
        "from_level_id": null,
        "is_accessible": false,
        "level_id": 1,
        "network_type": "stairs",
        "to_level_id": null,
        "vertical_connection_id": "0pdAZ60GfCvBFEBhqxxBJX"
      },
      "type": "Feature"
    },
    {
      "geometry": {
        "coordinates": [
          [
            -122.80795768307775,
            53.885550787866045
          ],
          [
            -122.8083189584778,
            53.885057082284604
          ]
        ],
        "type": "LineString"
      },
      "properties": {
        "access_type": "public",
        "from_level_id": null,
        "is_accessible": false,
        "level_id": 1,
        "network_type": "stairs",
        "to_level_id": null,
        "vertical_connection_id": "0pdAZ60GfCvBFEBhqxx4m1"
      },
      "type": "Feature"
    },
    {
      "geometry": {
        "coordinates": [
          [
            -122.80795768307775,
            53.885550787866045
          ],
          [
            -122.8083189584778,
            53.885057082284604
          ]
        ],
        "type": "LineString"
      },
      "properties": {
        "access_type": "public",
        "from_level_id": null,
        "is_accessible": false,
        "level_id": 1,
        "network_type": "stairs",
        "to_level_id": null,
        "vertical_connection_id": "0pdAZ60GfCvBFEBhqxx45L"
      },
      "type": "Feature"
    },
    {
      "geometry": {
        "coordinates": [
          [
            -122.80795768307775,
            53.885550787866045
          ],
          [
            -122.8083189584778,
            53.885057082284604
          ]
        ],
        "type": "LineString"
      },
      "properties": {
        "access_type": "public",
        "from_level_id": null,
        "is_accessible": false,
        "level_id": 1,
        "network_type": "stairs",
        "to_level_id": null,
        "vertical_connection_id": "3O3efkzBD8PgTTF_bLSDsx"
      },
      "type": "Feature"
    },
    {
      "geometry": {
        "coordinates": [
          [
            -122.80795768307775,
            53.885550787866045
          ],
          [
            -122.8083189584778,
            53.885057082284604
          ]
        ],
        "type": "LineString"
      },
      "properties": {
        "access_type": "public",
        "from_level_id": null,
        "is_accessible": false,
        "level_id": 1,
        "network_type": "stairs",
        "to_level_id": null,
        "vertical_connection_id": "1qiEANE3P4TP03dJvYZllA"
      },
      "type": "Feature"
    },
    {
      "geometry": {
        "coordinates": [
          [
            -122.80795768307775,
            53.885550787866045
          ],
          [
            -122.8083189584778,
            53.885057082284604
          ]
        ],
        "type": "LineString"
      },
      "properties": {
        "access_type": "public",
        "from_level_id": null,
        "is_accessible": false,
        "level_id": 1,
        "network_type": "stairs",
        "to_level_id": null,
        "vertical_connection_id": "0_VuAhE4zEMwYl4sDa2lYL"
      },
      "type": "Feature"
    },
    {
      "geometry": {
        "coordinates": [
          [
            -122.80795768307775,
            53.885550787866045
          ],
          [
            -122.8083189584778,
            53.885057082284604
          ]
        ],
        "type": "LineString"
      },
      "properties": {
        "access_type": "public",
        "from_level_id": null,
        "is_accessible": false,
        "level_id": 1,
        "network_type": "stairs",
        "to_level_id": null,
        "vertical_connection_id": "02aKGQjYz9YgiOAdI86V0K"
      },
      "type": "Feature"
    },
    {
      "geometry": {
        "coordinates": [
          [
            -122.80795768307775,
            53.885550787866045
          ],
          [
            -122.8083189584778,
            53.885057082284604
          ]
        ],
        "type": "LineString"
      },
      "properties": {
        "access_type": "public",
        "from_level_id": null,
        "is_accessible": false,
        "level_id": 1,
        "network_type": "stairs",
        "to_level_id": null,
        "vertical_connection_id": "1NzY6wDWDDmxnPZD7Xa1qV"
      },
      "type": "Feature"
    },
    {
      "geometry": {
        "coordinates": [
          [
            -122.80795768307775,
            53.885550787866045
          ],
          [
            -122.8083189584778,
            53.885057082284604
          ]
        ],
        "type": "LineString"
      },
      "properties": {
        "access_type": "public",
        "from_level_id": null,
        "is_accessible": false,
        "level_id": 1,
        "network_type": "stairs",
        "to_level_id": null,
        "vertical_connection_id": "3ApLBQ2Ov0KAY5kWXD1uh6"
      },
      "type": "Feature"
    },
    {
      "geometry": {
        "coordinates": [
          [
            -122.80795768307775,
            53.885550787866045
          ],
          [
            -122.8083189584778,
            53.885057082284604
          ]
        ],
        "type": "LineString"
      },
      "properties": {
        "access_type": "public",
        "from_level_id": null,
        "is_accessible": false,
        "level_id": 1,
        "network_type": "stairs",
        "to_level_id": null,
        "vertical_connection_id": "2aCcQ2Dq55d9b6fkJqaSPw"
      },
      "type": "Feature"
    },
    {
      "geometry": {
        "coordinates": [
          [
            -122.80795768307775,
            53.885550787866045
          ],
          [
            -122.8083189584778,
            53.885057082284604
          ]
        ],
        "type": "LineString"
      },
      "properties": {
        "access_type": "public",
        "from_level_id": null,
        "is_accessible": false,
        "level_id": 1,
        "network_type": "stairs",
        "to_level_id": null,
        "vertical_connection_id": "3Jrgbur357whPn_qSR908N"
      },
      "type": "Feature"
    },
    {
      "geometry": {
        "coordinates": [
          [
            -122.80795768307775,
            53.885550787866045
          ],
          [
            -122.8083189584778,
            53.885057082284604
          ]
        ],
        "type": "LineString"
      },
      "properties": {
        "access_type": "public",
        "from_level_id": null,
        "is_accessible": false,
        "level_id": 1,
        "network_type": "stairs",
        "to_level_id": null,
        "vertical_connection_id": "23ANnEbtr7RQUX5$JSM79d"
      },
      "type": "Feature"
    },
    {
      "geometry": {
        "coordinates": [
          [
            -122.80795768307775,
            53.885550787866045
          ],
          [
            -122.8083189584778,
            53.885057082284604
          ]
        ],
        "type": "LineString"
      },
      "properties": {
        "access_type": "public",
        "from_level_id": null,
        "is_accessible": false,
        "level_id": 1,
        "network_type": "stairs",
        "to_level_id": null,
        "vertical_connection_id": "0jyM5LJFr3pvbchXS4itbm"
      },
      "type": "Feature"
    },
    {
      "geometry": {
        "coordinates": [
          [
            -122.80795768307775,
            53.885550787866045
          ],
          [
            -122.8083189584778,
            53.885057082284604
          ]
        ],
        "type": "LineString"
      },
      "properties": {
        "access_type": "public",
        "from_level_id": null,
        "is_accessible": false,
        "level_id": 1,
        "network_type": "stairs",
        "to_level_id": null,
        "vertical_connection_id": "2IYVPnb7X4NRq3pg9QDtHM"
      },
      "type": "Feature"
    },
    {
      "geometry": {
        "coordinates": [
          [
            -122.80795768307775,
            53.885550787866045
          ],
          [
            -122.8083189584778,
            53.885057082284604
          ]
        ],
        "type": "LineString"
      },
      "properties": {
        "access_type": "public",
        "from_level_id": null,
        "is_accessible": false,
        "level_id": 1,
        "network_type": "stairs",
        "to_level_id": null,
        "vertical_connection_id": "0e9n0d93L2$ufdyyEWIWUP"
      },
      "type": "Feature"
    },
    {
      "geometry": {
        "coordinates": [
          [
            -122.80795768307775,
            53.885550787866045
          ],
          [
            -122.8083189584778,
            53.885057082284604
          ]
        ],
        "type": "LineString"
      },
      "properties": {
        "access_type": "public",
        "from_level_id": null,
        "is_accessible": false,
        "level_id": 1,
        "network_type": "stairs",
        "to_level_id": null,
        "vertical_connection_id": "0mwljKGqH04e9NBs3BHPdy"
      },
      "type": "Feature"
    },
    {
      "geometry": {
        "coordinates": [
          [
            -122.80795768307775,
            53.885550787866045
          ],
          [
            -122.8083189584778,
            53.885057082284604
          ]
        ],
        "type": "LineString"
      },
      "properties": {
        "access_type": "public",
        "from_level_id": null,
        "is_accessible": false,
        "level_id": 1,
        "network_type": "stairs",
        "to_level_id": null,
        "vertical_connection_id": "1SeeveeEbFwOFwia3GyJye"
      },
      "type": "Feature"
    },
    {
      "geometry": {
        "coordinates": [
          [
            -122.80795768307775,
            53.885550787866045
          ],
          [
            -122.8083189584778,
            53.885057082284604
          ]
        ],
        "type": "LineString"
      },
      "properties": {
        "access_type": "public",
        "from_level_id": null,
        "is_accessible": false,
        "level_id": 1,
        "network_type": "stairs",
        "to_level_id": null,
        "vertical_connection_id": "0udoS07695XxQhI6DWx7No"
      },
      "type": "Feature"
    },
    {
      "geometry": {
        "coordinates": [
          [
            -122.80796855691862,
            53.88588195696984
          ],
          [
            -122.8083189584778,
            53.885057082284604
          ]
        ],
        "type": "LineString"
      },
      "properties": {
        "access_type": "public",
        "from_level_id": null,
        "is_accessible": false,
        "level_id": 3,
        "network_type": "stairs",
        "to_level_id": null,
        "vertical_connection_id": "3O3efkzBD8PgTTF_bLSAQV"
      },
      "type": "Feature"
    },
    {
      "geometry": {
        "coordinates": [
          [
            -122.80796855691862,
            53.88588195696984
          ],
          [
            -122.8083189584778,
            53.885057082284604
          ]
        ],
        "type": "LineString"
      },
      "properties": {
        "access_type": "public",
        "from_level_id": null,
        "is_accessible": false,
        "level_id": 3,
        "network_type": "stairs",
        "to_level_id": null,
        "vertical_connection_id": "1R6ac6tXQsBWKcRvdgjSKl"
      },
      "type": "Feature"
    },
    {
      "geometry": {
        "coordinates": [
          [
            -122.80796855691862,
            53.88588195696984
          ],
          [
            -122.8083189584778,
            53.885057082284604
          ]
        ],
        "type": "LineString"
      },
      "properties": {
        "access_type": "public",
        "from_level_id": null,
        "is_accessible": false,
        "level_id": 3,
        "network_type": "stairs",
        "to_level_id": null,
        "vertical_connection_id": "0_VuAhE4zEMwYl4sDa2k4Q"
      },
      "type": "Feature"
    },
    {
      "geometry": {
        "coordinates": [
          [
            -122.80796855691862,
            53.88588195696984
          ],
          [
            -122.8083189584778,
            53.885057082284604
          ]
        ],
        "type": "LineString"
      },
      "properties": {
        "access_type": "public",
        "from_level_id": null,
        "is_accessible": false,
        "level_id": 3,
        "network_type": "stairs",
        "to_level_id": null,
        "vertical_connection_id": "31RHzaJ8v3$g0VLVRGElzu"
      },
      "type": "Feature"
    },
    {
      "geometry": {
        "coordinates": [
          [
            -122.80796855691862,
            53.88588195696984
          ],
          [
            -122.8083189584778,
            53.885057082284604
          ]
        ],
        "type": "LineString"
      },
      "properties": {
        "access_type": "public",
        "from_level_id": null,
        "is_accessible": false,
        "level_id": 3,
        "network_type": "stairs",
        "to_level_id": null,
        "vertical_connection_id": "31RHzaJ8v3$g0VLVRGElQ2"
      },
      "type": "Feature"
    },
    {
      "geometry": {
        "coordinates": [
          [
            -122.80796855691862,
            53.88588195696984
          ],
          [
            -122.8083189584778,
            53.885057082284604
          ]
        ],
        "type": "LineString"
      },
      "properties": {
        "access_type": "public",
        "from_level_id": null,
        "is_accessible": false,
        "level_id": 3,
        "network_type": "stairs",
        "to_level_id": null,
        "vertical_connection_id": "31RHzaJ8v3$g0VLVRGElSZ"
      },
      "type": "Feature"
    },
    {
      "geometry": {
        "coordinates": [
          [
            -122.80796855691862,
            53.88588195696984
          ],
          [
            -122.8083189584778,
            53.885057082284604
          ]
        ],
        "type": "LineString"
      },
      "properties": {
        "access_type": "public",
        "from_level_id": null,
        "is_accessible": false,
        "level_id": 3,
        "network_type": "stairs",
        "to_level_id": null,
        "vertical_connection_id": "31RHzaJ8v3$g0VLVRGElS7"
      },
      "type": "Feature"
    },
    {
      "geometry": {
        "coordinates": [
          [
            -122.80796855691862,
            53.88588195696984
          ],
          [
            -122.8083189584778,
            53.885057082284604
          ]
        ],
        "type": "LineString"
      },
      "properties": {
        "access_type": "public",
        "from_level_id": null,
        "is_accessible": false,
        "level_id": 3,
        "network_type": "stairs",
        "to_level_id": null,
        "vertical_connection_id": "31Scm7brOLGegGHo7PwxD6"
      },
      "type": "Feature"
    },
    {
      "geometry": {
        "coordinates": [
          [
            -122.80796855691862,
            53.88588195696984
          ],
          [
            -122.8083189584778,
            53.885057082284604
          ]
        ],
        "type": "LineString"
      },
      "properties": {
        "access_type": "public",
        "from_level_id": null,
        "is_accessible": false,
        "level_id": 3,
        "network_type": "stairs",
        "to_level_id": null,
        "vertical_connection_id": "31RHzaJ8v3$g0VLVRGEixw"
      },
      "type": "Feature"
    },
    {
      "geometry": {
        "coordinates": [
          [
            -122.80796855691862,
            53.88588195696984
          ],
          [
            -122.8083189584778,
            53.885057082284604
          ]
        ],
        "type": "LineString"
      },
      "properties": {
        "access_type": "public",
        "from_level_id": null,
        "is_accessible": false,
        "level_id": 3,
        "network_type": "stairs",
        "to_level_id": null,
        "vertical_connection_id": "1l82OPgNbCsQg02BSgj8Dl"
      },
      "type": "Feature"
    },
    {
      "geometry": {
        "coordinates": [
          [
            -122.80796855691862,
            53.88588195696984
          ],
          [
            -122.8083189584778,
            53.885057082284604
          ]
        ],
        "type": "LineString"
      },
      "properties": {
        "access_type": "public",
        "from_level_id": null,
        "is_accessible": false,
        "level_id": 3,
        "network_type": "stairs",
        "to_level_id": null,
        "vertical_connection_id": "2$GVyBEMXEW8c3ILh5b5OE"
      },
      "type": "Feature"
    },
    {
      "geometry": {
        "coordinates": [
          [
            -122.80796855691862,
            53.88588195696984
          ],
          [
            -122.8083189584778,
            53.885057082284604
          ]
        ],
        "type": "LineString"
      },
      "properties": {
        "access_type": "public",
        "from_level_id": null,
        "is_accessible": false,
        "level_id": 3,
        "network_type": "stairs",
        "to_level_id": null,
        "vertical_connection_id": "1IukIbylVeAf6_OG5kInB3"
      },
      "type": "Feature"
    },
    {
      "geometry": {
        "coordinates": [
          [
            -122.80796855691862,
            53.88588195696984
          ],
          [
            -122.8083189584778,
            53.885057082284604
          ]
        ],
        "type": "LineString"
      },
      "properties": {
        "access_type": "public",
        "from_level_id": null,
        "is_accessible": false,
        "level_id": 3,
        "network_type": "stairs",
        "to_level_id": null,
        "vertical_connection_id": "06_rC$FIi7TUZrXLZ7WJJE"
      },
      "type": "Feature"
    },
    {
      "geometry": {
        "coordinates": [
          [
            -122.80796855691862,
            53.88588195696984
          ],
          [
            -122.8083189584778,
            53.885057082284604
          ]
        ],
        "type": "LineString"
      },
      "properties": {
        "access_type": "public",
        "from_level_id": null,
        "is_accessible": false,
        "level_id": 3,
        "network_type": "stairs",
        "to_level_id": null,
        "vertical_connection_id": "3T2efmC9Ye7AlL9pWr8C7S"
      },
      "type": "Feature"
    },
    {
      "geometry": {
        "coordinates": [
          [
            -122.80796855691862,
            53.88588195696984
          ],
          [
            -122.8083189584778,
            53.885057082284604
          ]
        ],
        "type": "LineString"
      },
      "properties": {
        "access_type": "public",
        "from_level_id": null,
        "is_accessible": false,
        "level_id": 3,
        "network_type": "stairs",
        "to_level_id": null,
        "vertical_connection_id": "1SeeveeEbFwOFwia3GyIFQ"
      },
      "type": "Feature"
    },
    {
      "geometry": {
        "coordinates": [
          [
            -122.80796855691862,
            53.88588195696984
          ],
          [
            -122.8083189584778,
            53.885057082284604
          ]
        ],
        "type": "LineString"
      },
      "properties": {
        "access_type": "public",
        "from_level_id": null,
        "is_accessible": false,
        "level_id": 3,
        "network_type": "stairs",
        "to_level_id": null,
        "vertical_connection_id": "0vXO2hRDUCNTLdfuYsTL9u"
      },
      "type": "Feature"
    },
    {
      "geometry": {
        "coordinates": [
          [
            -122.80796855691862,
            53.88588195696984
          ],
          [
            -122.8083189584778,
            53.885057082284604
          ]
        ],
        "type": "LineString"
      },
      "properties": {
        "access_type": "public",
        "from_level_id": null,
        "is_accessible": false,
        "level_id": 3,
        "network_type": "stairs",
        "to_level_id": null,
        "vertical_connection_id": "3WJwi44T6$X$GCqfvpV5L8"
      },
      "type": "Feature"
    },
    {
      "geometry": {
        "coordinates": [
          [
            -122.80809395293025,
            53.88584512791082
          ],
          [
            -122.8083189584778,
            53.885057082284604
          ]
        ],
        "type": "LineString"
      },
      "properties": {
        "access_type": "public",
        "from_level_id": null,
        "is_accessible": false,
        "level_id": 2,
        "network_type": "stairs",
        "to_level_id": null,
        "vertical_connection_id": "0yWEMr1FP0Ugf3XmxVe3v9"
      },
      "type": "Feature"
    },
    {
      "geometry": {
        "coordinates": [
          [
            -122.80809395293025,
            53.88584512791082
          ],
          [
            -122.8083189584778,
            53.885057082284604
          ]
        ],
        "type": "LineString"
      },
      "properties": {
        "access_type": "public",
        "from_level_id": null,
        "is_accessible": false,
        "level_id": 2,
        "network_type": "stairs",
        "to_level_id": null,
        "vertical_connection_id": "1qiEANE3P4TP03dJvYZjUo"
      },
      "type": "Feature"
    },
    {
      "geometry": {
        "coordinates": [
          [
            -122.80809395293025,
            53.88584512791082
          ],
          [
            -122.8083189584778,
            53.885057082284604
          ]
        ],
        "type": "LineString"
      },
      "properties": {
        "access_type": "public",
        "from_level_id": null,
        "is_accessible": false,
        "level_id": 2,
        "network_type": "stairs",
        "to_level_id": null,
        "vertical_connection_id": "0_VuAhE4zEMwYl4sDa2k29"
      },
      "type": "Feature"
    },
    {
      "geometry": {
        "coordinates": [
          [
            -122.80809395293025,
            53.88584512791082
          ],
          [
            -122.8083189584778,
            53.885057082284604
          ]
        ],
        "type": "LineString"
      },
      "properties": {
        "access_type": "public",
        "from_level_id": null,
        "is_accessible": false,
        "level_id": 2,
        "network_type": "stairs",
        "to_level_id": null,
        "vertical_connection_id": "31RHzaJ8v3$g0VLVRGEivb"
      },
      "type": "Feature"
    },
    {
      "geometry": {
        "coordinates": [
          [
            -122.80809395293025,
            53.88584512791082
          ],
          [
            -122.8083189584778,
            53.885057082284604
          ]
        ],
        "type": "LineString"
      },
      "properties": {
        "access_type": "public",
        "from_level_id": null,
        "is_accessible": false,
        "level_id": 2,
        "network_type": "stairs",
        "to_level_id": null,
        "vertical_connection_id": "31RHzaJ8v3$g0VLVRGEiuc"
      },
      "type": "Feature"
    },
    {
      "geometry": {
        "coordinates": [
          [
            -122.80809395293025,
            53.88584512791082
          ],
          [
            -122.8083189584778,
            53.885057082284604
          ]
        ],
        "type": "LineString"
      },
      "properties": {
        "access_type": "public",
        "from_level_id": null,
        "is_accessible": false,
        "level_id": 2,
        "network_type": "stairs",
        "to_level_id": null,
        "vertical_connection_id": "31RHzaJ8v3$g0VLVRGEixU"
      },
      "type": "Feature"
    },
    {
      "geometry": {
        "coordinates": [
          [
            -122.80809395293025,
            53.88584512791082
          ],
          [
            -122.8083189584778,
            53.885057082284604
          ]
        ],
        "type": "LineString"
      },
      "properties": {
        "access_type": "public",
        "from_level_id": null,
        "is_accessible": false,
        "level_id": 2,
        "network_type": "stairs",
        "to_level_id": null,
        "vertical_connection_id": "17$q3IJvv158Hw2Idk75_t"
      },
      "type": "Feature"
    },
    {
      "geometry": {
        "coordinates": [
          [
            -122.80809395293025,
            53.88584512791082
          ],
          [
            -122.8083189584778,
            53.885057082284604
          ]
        ],
        "type": "LineString"
      },
      "properties": {
        "access_type": "public",
        "from_level_id": null,
        "is_accessible": false,
        "level_id": 2,
        "network_type": "stairs",
        "to_level_id": null,
        "vertical_connection_id": "3Jrgbur357whPn_qSR91rv"
      },
      "type": "Feature"
    },
    {
      "geometry": {
        "coordinates": [
          [
            -122.80809395293025,
            53.88584512791082
          ],
          [
            -122.8083189584778,
            53.885057082284604
          ]
        ],
        "type": "LineString"
      },
      "properties": {
        "access_type": "public",
        "from_level_id": null,
        "is_accessible": false,
        "level_id": 2,
        "network_type": "stairs",
        "to_level_id": null,
        "vertical_connection_id": "1qzIRGMOj1KQG46ptLd8rT"
      },
      "type": "Feature"
    },
    {
      "geometry": {
        "coordinates": [
          [
            -122.80809395293025,
            53.88584512791082
          ],
          [
            -122.8083189584778,
            53.885057082284604
          ]
        ],
        "type": "LineString"
      },
      "properties": {
        "access_type": "public",
        "from_level_id": null,
        "is_accessible": false,
        "level_id": 2,
        "network_type": "stairs",
        "to_level_id": null,
        "vertical_connection_id": "2DIGqAO$r3AOgmfxj9FtN1"
      },
      "type": "Feature"
    },
    {
      "geometry": {
        "coordinates": [
          [
            -122.80809395293025,
            53.88584512791082
          ],
          [
            -122.8083189584778,
            53.885057082284604
          ]
        ],
        "type": "LineString"
      },
      "properties": {
        "access_type": "public",
        "from_level_id": null,
        "is_accessible": false,
        "level_id": 2,
        "network_type": "stairs",
        "to_level_id": null,
        "vertical_connection_id": "2DIGqAO$r3AOgmfxj9FtLq"
      },
      "type": "Feature"
    },
    {
      "geometry": {
        "coordinates": [
          [
            -122.80809395293025,
            53.88584512791082
          ],
          [
            -122.8083189584778,
            53.885057082284604
          ]
        ],
        "type": "LineString"
      },
      "properties": {
        "access_type": "public",
        "from_level_id": null,
        "is_accessible": false,
        "level_id": 2,
        "network_type": "stairs",
        "to_level_id": null,
        "vertical_connection_id": "2DIGqAO$r3AOgmfxj9FtIk"
      },
      "type": "Feature"
    },
    {
      "geometry": {
        "coordinates": [
          [
            -122.80809395293025,
            53.88584512791082
          ],
          [
            -122.8083189584778,
            53.885057082284604
          ]
        ],
        "type": "LineString"
      },
      "properties": {
        "access_type": "public",
        "from_level_id": null,
        "is_accessible": false,
        "level_id": 2,
        "network_type": "stairs",
        "to_level_id": null,
        "vertical_connection_id": "2DIGqAO$r3AOgmfxj9FtIO"
      },
      "type": "Feature"
    },
    {
      "geometry": {
        "coordinates": [
          [
            -122.80809395293025,
            53.88584512791082
          ],
          [
            -122.8083189584778,
            53.885057082284604
          ]
        ],
        "type": "LineString"
      },
      "properties": {
        "access_type": "public",
        "from_level_id": null,
        "is_accessible": false,
        "level_id": 2,
        "network_type": "stairs",
        "to_level_id": null,
        "vertical_connection_id": "2DIGqAO$r3AOgmfxj9FtGR"
      },
      "type": "Feature"
    },
    {
      "geometry": {
        "coordinates": [
          [
            -122.80809395293025,
            53.88584512791082
          ],
          [
            -122.8083189584778,
            53.885057082284604
          ]
        ],
        "type": "LineString"
      },
      "properties": {
        "access_type": "public",
        "from_level_id": null,
        "is_accessible": false,
        "level_id": 2,
        "network_type": "stairs",
        "to_level_id": null,
        "vertical_connection_id": "0ZSraayR90sAgHtHtWfiuZ"
      },
      "type": "Feature"
    },
    {
      "geometry": {
        "coordinates": [
          [
            -122.80809395293025,
            53.88584512791082
          ],
          [
            -122.8083189584778,
            53.885057082284604
          ]
        ],
        "type": "LineString"
      },
      "properties": {
        "access_type": "public",
        "from_level_id": null,
        "is_accessible": false,
        "level_id": 2,
        "network_type": "stairs",
        "to_level_id": null,
        "vertical_connection_id": "2zGkaY_nf40PM3ROtXTbFp"
      },
      "type": "Feature"
    },
    {
      "geometry": {
        "coordinates": [
          [
            -122.80809395293025,
            53.88584512791082
          ],
          [
            -122.8083189584778,
            53.885057082284604
          ]
        ],
        "type": "LineString"
      },
      "properties": {
        "access_type": "public",
        "from_level_id": null,
        "is_accessible": false,
        "level_id": 2,
        "network_type": "stairs",
        "to_level_id": null,
        "vertical_connection_id": "0lFRJnUIb2PR9eNvbVIp_Y"
      },
      "type": "Feature"
    },
    {
      "geometry": {
        "coordinates": [
          [
            -122.80809395293025,
            53.88584512791082
          ],
          [
            -122.8083189584778,
            53.885057082284604
          ]
        ],
        "type": "LineString"
      },
      "properties": {
        "access_type": "public",
        "from_level_id": null,
        "is_accessible": false,
        "level_id": 2,
        "network_type": "stairs",
        "to_level_id": null,
        "vertical_connection_id": "0lFRJnUIb2PR9eNvbVIph7"
      },
      "type": "Feature"
    },
    {
      "geometry": {
        "coordinates": [
          [
            -122.80809395293025,
            53.88584512791082
          ],
          [
            -122.8083189584778,
            53.885057082284604
          ]
        ],
        "type": "LineString"
      },
      "properties": {
        "access_type": "public",
        "from_level_id": null,
        "is_accessible": false,
        "level_id": 2,
        "network_type": "stairs",
        "to_level_id": null,
        "vertical_connection_id": "1SeeveeEbFwOFwia3GyI45"
      },
      "type": "Feature"
    },
    {
      "geometry": {
        "coordinates": [
          [
            -122.80809395293025,
            53.88584512791082
          ],
          [
            -122.8083189584778,
            53.885057082284604
          ]
        ],
        "type": "LineString"
      },
      "properties": {
        "access_type": "public",
        "from_level_id": null,
        "is_accessible": false,
        "level_id": 2,
        "network_type": "stairs",
        "to_level_id": null,
        "vertical_connection_id": "2XKCSFC25C88SC7qEEHvbH"
      },
      "type": "Feature"
    },
    {
      "geometry": {
        "coordinates": [
          [
            -122.80809395293025,
            53.88584512791082
          ],
          [
            -122.8083189584778,
            53.885057082284604
          ]
        ],
        "type": "LineString"
      },
      "properties": {
        "access_type": "public",
        "from_level_id": null,
        "is_accessible": false,
        "level_id": 2,
        "network_type": "stairs",
        "to_level_id": null,
        "vertical_connection_id": "08PQaDD8f2FBLNru5bYEjK"
      },
      "type": "Feature"
    },
    {
      "geometry": {
        "coordinates": [
          [
            -122.80809395293025,
            53.88584512791082
          ],
          [
            -122.8083189584778,
            53.885057082284604
          ]
        ],
        "type": "LineString"
      },
      "properties": {
        "access_type": "public",
        "from_level_id": null,
        "is_accessible": false,
        "level_id": 2,
        "network_type": "stairs",
        "to_level_id": null,
        "vertical_connection_id": "08PQaDD8f2FBLNru5bYDyJ"
      },
      "type": "Feature"
    },
    {
      "geometry": {
        "coordinates": [
          [
            -122.8083004345842,
            53.88545714802173
          ],
          [
            -122.8083189584778,
            53.885057082284604
          ]
        ],
        "type": "LineString"
      },
      "properties": {
        "access_type": "public",
        "from_level_id": null,
        "is_accessible": false,
        "level_id": 1.5,
        "network_type": "stairs",
        "to_level_id": null,
        "vertical_connection_id": "1C$I8a5r5E1AUHaWET1Qun"
      },
      "type": "Feature"
    },
    {
      "geometry": {
        "coordinates": [
          [
            -122.8083004345842,
            53.88545714802173
          ],
          [
            -122.8083189584778,
            53.885057082284604
          ]
        ],
        "type": "LineString"
      },
      "properties": {
        "access_type": "public",
        "from_level_id": null,
        "is_accessible": false,
        "level_id": 1.5,
        "network_type": "stairs",
        "to_level_id": null,
        "vertical_connection_id": "1C$I8a5r5E1AUHaWET1RAX"
      },
      "type": "Feature"
    },
    {
      "geometry": {
        "coordinates": [
          [
            -122.8083004345842,
            53.88545714802173
          ],
          [
            -122.8083189584778,
            53.885057082284604
          ]
        ],
        "type": "LineString"
      },
      "properties": {
        "access_type": "public",
        "from_level_id": null,
        "is_accessible": false,
        "level_id": 1.5,
        "network_type": "stairs",
        "to_level_id": null,
        "vertical_connection_id": "3UYkkqfe16QQ4wX1RQ6OMI"
      },
      "type": "Feature"
    },
    {
      "geometry": {
        "coordinates": [
          [
            -122.8083004345842,
            53.88545714802173
          ],
          [
            -122.8083189584778,
            53.885057082284604
          ]
        ],
        "type": "LineString"
      },
      "properties": {
        "access_type": "public",
        "from_level_id": null,
        "is_accessible": false,
        "level_id": 1.5,
        "network_type": "stairs",
        "to_level_id": null,
        "vertical_connection_id": "3mr2ulURfCpvHpEvBk0Mns"
      },
      "type": "Feature"
    },
    {
      "geometry": {
        "coordinates": [
          [
            -122.8083004345842,
            53.88545714802173
          ],
          [
            -122.8083189584778,
            53.885057082284604
          ]
        ],
        "type": "LineString"
      },
      "properties": {
        "access_type": "public",
        "from_level_id": null,
        "is_accessible": false,
        "level_id": 1.5,
        "network_type": "stairs",
        "to_level_id": null,
        "vertical_connection_id": "3mr2ulURfCpvHpEvBk0LQi"
      },
      "type": "Feature"
    },
    {
      "geometry": {
        "coordinates": [
          [
            -122.8083004345842,
            53.88545714802173
          ],
          [
            -122.8083189584778,
            53.885057082284604
          ]
        ],
        "type": "LineString"
      },
      "properties": {
        "access_type": "public",
        "from_level_id": null,
        "is_accessible": false,
        "level_id": 1.5,
        "network_type": "stairs",
        "to_level_id": null,
        "vertical_connection_id": "0e9n0d93L2$ufdyyEWIZYw"
      },
      "type": "Feature"
    },
    {
      "geometry": {
        "coordinates": [
          [
            -122.8083004345842,
            53.88545714802173
          ],
          [
            -122.8083189584778,
            53.885057082284604
          ]
        ],
        "type": "LineString"
      },
      "properties": {
        "access_type": "public",
        "from_level_id": null,
        "is_accessible": false,
        "level_id": 1.5,
        "network_type": "stairs",
        "to_level_id": null,
        "vertical_connection_id": "04cSIL2cbCDvimujr8XISm"
      },
      "type": "Feature"
    },
    {
      "geometry": {
        "coordinates": [
          [
            -122.8083004345842,
            53.88545714802173
          ],
          [
            -122.8083189584778,
            53.885057082284604
          ]
        ],
        "type": "LineString"
      },
      "properties": {
        "access_type": "public",
        "from_level_id": null,
        "is_accessible": false,
        "level_id": 1.5,
        "network_type": "stairs",
        "to_level_id": null,
        "vertical_connection_id": "04cSIL2cbCDvimujr8XHKm"
      },
      "type": "Feature"
    },
    {
      "geometry": {
        "coordinates": [
          [
            -122.8083004345842,
            53.88545714802173
          ],
          [
            -122.8083189584778,
            53.885057082284604
          ]
        ],
        "type": "LineString"
      },
      "properties": {
        "access_type": "public",
        "from_level_id": null,
        "is_accessible": false,
        "level_id": 1.5,
        "network_type": "stairs",
        "to_level_id": null,
        "vertical_connection_id": "0sybfFbD141uNShY1vAdLk"
      },
      "type": "Feature"
    },
    {
      "geometry": {
        "coordinates": [
          [
            -122.8083004345842,
            53.88545714802173
          ],
          [
            -122.8083189584778,
            53.885057082284604
          ]
        ],
        "type": "LineString"
      },
      "properties": {
        "access_type": "public",
        "from_level_id": null,
        "is_accessible": false,
        "level_id": 1.5,
        "network_type": "stairs",
        "to_level_id": null,
        "vertical_connection_id": "0lFRJnUIb2PR9eNvbVIp4G"
      },
      "type": "Feature"
    },
    {
      "geometry": {
        "coordinates": [
          [
            -122.80805649953871,
            53.88502211860009
          ],
          [
            -122.8083189584778,
            53.885057082284604
          ]
        ],
        "type": "LineString"
      },
      "properties": {
        "access_type": "public",
        "from_level_id": null,
        "is_accessible": false,
        "level_id": 4,
        "network_type": "stairs",
        "to_level_id": null,
        "vertical_connection_id": "31RHzaJ8v3$g0VLVRGElz5"
      },
      "type": "Feature"
    },
    {
      "geometry": {
        "coordinates": [
          [
            -122.80805649953871,
            53.88502211860009
          ],
          [
            -122.8083189584778,
            53.885057082284604
          ]
        ],
        "type": "LineString"
      },
      "properties": {
        "access_type": "public",
        "from_level_id": null,
        "is_accessible": false,
        "level_id": 4,
        "network_type": "stairs",
        "to_level_id": null,
        "vertical_connection_id": "20PjmL01C_Pp8RVHPxCyui"
      },
      "type": "Feature"
    },
    {
      "geometry": {
        "coordinates": [
          [
            -122.80805649953871,
            53.88502211860009
          ],
          [
            -122.8083189584778,
            53.885057082284604
          ]
        ],
        "type": "LineString"
      },
      "properties": {
        "access_type": "public",
        "from_level_id": null,
        "is_accessible": false,
        "level_id": 4,
        "network_type": "stairs",
        "to_level_id": null,
        "vertical_connection_id": "31RHzaJ8v3$g0VLVRGEjPY"
      },
      "type": "Feature"
    },
    {
      "geometry": {
        "coordinates": [
          [
            -122.80805649953871,
            53.88502211860009
          ],
          [
            -122.8083189584778,
            53.885057082284604
          ]
        ],
        "type": "LineString"
      },
      "properties": {
        "access_type": "public",
        "from_level_id": null,
        "is_accessible": false,
        "level_id": 4,
        "network_type": "stairs",
        "to_level_id": null,
        "vertical_connection_id": "2sYCUK$mENOD_KNjZvxHMf"
      },
      "type": "Feature"
    },
    {
      "geometry": {
        "coordinates": [
          [
            -122.80805649953871,
            53.88502211860009
          ],
          [
            -122.8083189584778,
            53.885057082284604
          ]
        ],
        "type": "LineString"
      },
      "properties": {
        "access_type": "public",
        "from_level_id": null,
        "is_accessible": false,
        "level_id": 4,
        "network_type": "stairs",
        "to_level_id": null,
        "vertical_connection_id": "1SeeveeEbFwOFwia3GyDaE"
      },
      "type": "Feature"
    },
    {
      "geometry": {
        "coordinates": [
          [
            -122.8078966758826,
            53.886707198262094
          ],
          [
            -122.8083189584778,
            53.885057082284604
          ]
        ],
        "type": "LineString"
      },
      "properties": {
        "access_type": "public",
        "from_level_id": null,
        "is_accessible": false,
        "level_id": 1.25,
        "network_type": "stairs",
        "to_level_id": null,
        "vertical_connection_id": "1l82OPgNbCsQg02BSgjBcE"
      },
      "type": "Feature"
    },
    {
      "geometry": {
        "coordinates": [
          [
            -122.8078966758826,
            53.886707198262094
          ],
          [
            -122.8083189584778,
            53.885057082284604
          ]
        ],
        "type": "LineString"
      },
      "properties": {
        "access_type": "public",
        "from_level_id": null,
        "is_accessible": false,
        "level_id": 1.25,
        "network_type": "stairs",
        "to_level_id": null,
        "vertical_connection_id": "0sybfFbD141uNShY1vAdca"
      },
      "type": "Feature"
    },
    {
      "geometry": {
        "coordinates": [
          [
            -122.8078966758826,
            53.886707198262094
          ],
          [
            -122.8083189584778,
            53.885057082284604
          ]
        ],
        "type": "LineString"
      },
      "properties": {
        "access_type": "public",
        "from_level_id": null,
        "is_accessible": false,
        "level_id": 1.25,
        "network_type": "stairs",
        "to_level_id": null,
        "vertical_connection_id": "1UOxJgB2v8_OQ9h_fGxJlO"
      },
      "type": "Feature"
    },
    {
      "geometry": {
        "coordinates": [
          [
            -122.8078966758826,
            53.886707198262094
          ],
          [
            -122.8083189584778,
            53.885057082284604
          ]
        ],
        "type": "LineString"
      },
      "properties": {
        "access_type": "public",
        "from_level_id": null,
        "is_accessible": false,
        "level_id": 1.25,
        "network_type": "stairs",
        "to_level_id": null,
        "vertical_connection_id": "0IJLgteqj8Y8ayrbA1VSyA"
      },
      "type": "Feature"
    },
    {
      "geometry": {
        "coordinates": [
          [
            -122.8078966758826,
            53.886707198262094
          ],
          [
            -122.8083189584778,
            53.885057082284604
          ]
        ],
        "type": "LineString"
      },
      "properties": {
        "access_type": "public",
        "from_level_id": null,
        "is_accessible": false,
        "level_id": 1.25,
        "network_type": "stairs",
        "to_level_id": null,
        "vertical_connection_id": "2XKCSFC25C88SC7qEEHuzC"
      },
      "type": "Feature"
    },
    {
      "geometry": {
        "coordinates": [
          [
            -122.8078966758826,
            53.886707198262094
          ],
          [
            -122.8083189584778,
            53.885057082284604
          ]
        ],
        "type": "LineString"
      },
      "properties": {
        "access_type": "public",
        "from_level_id": null,
        "is_accessible": false,
        "level_id": 1.25,
        "network_type": "stairs",
        "to_level_id": null,
        "vertical_connection_id": "2XKCSFC25C88SC7qEEHvRZ"
      },
      "type": "Feature"
    },
    {
      "geometry": {
        "coordinates": [
          [
            -122.8078966758826,
            53.886707198262094
          ],
          [
            -122.8083189584778,
            53.885057082284604
          ]
        ],
        "type": "LineString"
      },
      "properties": {
        "access_type": "public",
        "from_level_id": null,
        "is_accessible": false,
        "level_id": 1.25,
        "network_type": "stairs",
        "to_level_id": null,
        "vertical_connection_id": "2XKCSFC25C88SC7qEEHvat"
      },
      "type": "Feature"
    },
    {
      "geometry": {
        "coordinates": [
          [
            -122.8078966758826,
            53.886707198262094
          ],
          [
            -122.8083189584778,
            53.885057082284604
          ]
        ],
        "type": "LineString"
      },
      "properties": {
        "access_type": "public",
        "from_level_id": null,
        "is_accessible": false,
        "level_id": 1.25,
        "network_type": "stairs",
        "to_level_id": null,
        "vertical_connection_id": "1BRD7Jckz4DOeYpgXMwVsy"
      },
      "type": "Feature"
    },
    {
      "geometry": {
        "coordinates": [
          [
            -122.8083189584778,
            53.885057082284604
          ],
          [
            -122.8083189584778,
            53.885057082284604
          ]
        ],
        "type": "LineString"
      },
      "properties": {
        "access_type": "public",
        "cost": 0.02,
        "from_level_id": 0,
        "is_accessible": false,
        "level_id": 0,
        "network_type": "stairs",
        "to_level_id": 0.5,
        "vertical_connection_id": "stairs-0-0.5"
      },
      "type": "Feature"
    },
    {
      "geometry": {
        "coordinates": [
          [
            -122.8083189584778,
            53.885057082284604
          ],
          [
            -122.8083189584778,
            53.885057082284604
          ]
        ],
        "type": "LineString"
      },
      "properties": {
        "access_type": "public",
        "cost": 0.02,
        "from_level_id": 0.5,
        "is_accessible": false,
        "level_id": 0.5,
        "network_type": "stairs",
        "to_level_id": 1,
        "vertical_connection_id": "stairs-0.5-1"
      },
      "type": "Feature"
    },
    {
      "geometry": {
        "coordinates": [
          [
            -122.8083189584778,
            53.885057082284604
          ],
          [
            -122.8083189584778,
            53.885057082284604
          ]
        ],
        "type": "LineString"
      },
      "properties": {
        "access_type": "public",
        "cost": 0.02,
        "from_level_id": 1,
        "is_accessible": false,
        "level_id": 1,
        "network_type": "stairs",
        "to_level_id": 1.25,
        "vertical_connection_id": "stairs-1-1.25"
      },
      "type": "Feature"
    },
    {
      "geometry": {
        "coordinates": [
          [
            -122.8083189584778,
            53.885057082284604
          ],
          [
            -122.8083189584778,
            53.885057082284604
          ]
        ],
        "type": "LineString"
      },
      "properties": {
        "access_type": "public",
        "cost": 0.02,
        "from_level_id": 1.25,
        "is_accessible": false,
        "level_id": 1.25,
        "network_type": "stairs",
        "to_level_id": 1.5,
        "vertical_connection_id": "stairs-1.25-1.5"
      },
      "type": "Feature"
    },
    {
      "geometry": {
        "coordinates": [
          [
            -122.8083189584778,
            53.885057082284604
          ],
          [
            -122.8083189584778,
            53.885057082284604
          ]
        ],
        "type": "LineString"
      },
      "properties": {
        "access_type": "public",
        "cost": 0.02,
        "from_level_id": 1.5,
        "is_accessible": false,
        "level_id": 1.5,
        "network_type": "stairs",
        "to_level_id": 2,
        "vertical_connection_id": "stairs-1.5-2"
      },
      "type": "Feature"
    },
    {
      "geometry": {
        "coordinates": [
          [
            -122.8083189584778,
            53.885057082284604
          ],
          [
            -122.8083189584778,
            53.885057082284604
          ]
        ],
        "type": "LineString"
      },
      "properties": {
        "access_type": "public",
        "cost": 0.02,
        "from_level_id": 2,
        "is_accessible": false,
        "level_id": 2,
        "network_type": "stairs",
        "to_level_id": 3,
        "vertical_connection_id": "stairs-2-3"
      },
      "type": "Feature"
    }
  ],
  "type": "FeatureCollection"
}