{
  "features": [
    {
      "geometry": {
        "coordinates": [
          -122.80759127206584,
          53.8864997687959
        ],
        "type": "Point"
      },
      "id": 26,
      "properties": {
        "building_id": "unbc",
        "floor": 0,
        "id": 26,
        "metadata": {
          "ifc_class": "IfcBuildingStorey",
          "ifc_express_id": 26,
          "ifc_global_id": "3bt_NE7dvASx9UlB1bNAkP"
        },
        "name": "Floor 0 overview",
        "type": "floor"
      },
      "type": "Feature"
    },
    {
      "geometry": {
        "coordinates": [
          -122.80778311148858,
          53.886156517596085
        ],
        "type": "Point"
      },
      "id": 30,
      "properties": {
        "building_id": "unbc",
        "floor": 0.5,
        "id": 30,
        "metadata": {
          "ifc_class": "IfcBuildingStorey",
          "ifc_express_id": 30,
          "ifc_global_id": "0zuJwDC090iwcBNP5lON$e"
        },
        "name": "Floor 0.5 overview",
        "type": "floor"
      },
      "type": "Feature"
    },
    {
      "geometry": {
        "coordinates": [
          -122.80795768307775,
          53.885550787866045
        ],
        "type": "Point"
      },
      "id": 33,
      "properties": {
        "building_id": "unbc",
        "floor": 1,
        "id": 33,
        "metadata": {
          "ifc_class": "IfcBuildingStorey",
          "ifc_express_id": 33,
          "ifc_global_id": "3Zu5Bv0LOHrPC10026FoQQ"
        },
        "name": "Floor 1 overview",
        "type": "floor"
      },
      "type": "Feature"
    },
    {
      "geometry": {
        "coordinates": [
          -122.8078966758826,
          53.886707198262094
        ],
        "type": "Point"
      },
      "id": 37,
      "properties": {
        "building_id": "unbc",
        "floor": 1.25,
        "id": 37,
        "metadata": {
          "ifc_class": "IfcBuildingStorey",
          "ifc_express_id": 37,
          "ifc_global_id": "2UCeDFWADBhvny6ok01a2n"
        },
        "name": "Floor 1.25 overview",
        "type": "floor"
      },
      "type": "Feature"
    },
    {
      "geometry": {
        "coordinates": [
          -122.8083004345842,
          53.88545714802173
        ],
        "type": "Point"
      },
      "id": 41,
      "properties": {
        "building_id": "unbc",
        "floor": 1.5,
        "id": 41,
        "metadata": {
          "ifc_class": "IfcBuildingStorey",
          "ifc_express_id": 41,
          "ifc_global_id": "1C$I8a5r5E1AUHaWET1Q6_"
        },
        "name": "Floor 1.5 overview",
        "type": "floor"
      },
      "type": "Feature"
    },
    {
      "geometry": {
        "coordinates": [
          -122.80809395293025,
          53.88584512791082
        ],
        "type": "Point"
      },
      "id": 45,
      "properties": {
        "building_id": "unbc",
        "floor": 2,
        "id": 45,
        "metadata": {
          "ifc_class": "IfcBuildingStorey",
          "ifc_express_id": 45,
          "ifc_global_id": "15Z0v90RiHrPC20026FoKR"
        },
        "name": "Floor 2 overview",
        "type": "floor"
      },
      "type": "Feature"
    },
    {
      "geometry": {
        "coordinates": [
          -122.80796855691862,
          53.88588195696984
        ],
        "type": "Point"
      },
      "id": 53,
      "properties": {
        "building_id": "unbc",
        "floor": 3,
        "id": 53,
        "metadata": {
          "ifc_class": "IfcBuildingStorey",
          "ifc_express_id": 53,
          "ifc_global_id": "3yKwgC$51EeQNhnfJuhm3$"
        },
        "name": "Floor 3 overview",
        "type": "floor"
      },
      "type": "Feature"
    },
    {
      "geometry": {
        "coordinates": [
          -122.80925630981709,
          53.88488668786372
        ],
        "type": "Point"
      },
      "id": 57,
      "properties": {
        "building_id": "unbc",
        "floor": 3.5,
        "id": 57,
        "metadata": {
          "ifc_class": "IfcBuildingStorey",
          "ifc_express_id": 57,
          "ifc_global_id": "17Dv5w$cz80AYpmtaDkdEz"
        },
        "name": "Floor 3.5 overview",
        "type": "floor"
      },
      "type": "Feature"
    },
    {
      "geometry": {
        "coordinates": [
          -122.80805649953871,
          53.88502211860009
        ],
        "type": "Point"
      },
      "id": 61,
      "properties": {
        "building_id": "unbc",
        "floor": 4,
        "id": 61,
        "metadata": {
          "ifc_class": "IfcBuildingStorey",
          "ifc_express_id": 61,
          "ifc_global_id": "3hcNWo4x978R2MI7zrqJZG"
        },
        "name": "Floor 4 overview",
        "type": "floor"
      },
      "type": "Feature"
    },
    {
      "geometry": {
        "coordinates": [
          -122.80911386028495,
          53.88483569105534
        ],
        "type": "Point"
      },
      "id": 65,
      "properties": {
        "building_id": "unbc",
        "floor": 4.5,
        "id": 65,
        "metadata": {
          "ifc_class": "IfcBuildingStorey",
          "ifc_express_id": 65,
          "ifc_global_id": "1zqs7b76LAGPcXUq57dhhM"
        },
        "name": "Floor 4.5 overview",
        "type": "floor"
      },
      "type": "Feature"
    },
    {
      "geometry": {
        "coordinates": [
          -122.80808102123413,
          53.88502975967655
        ],
        "type": "Point"
      },
      "id": 69,
      "properties": {
        "building_id": "unbc",
        "floor": 5,
        "id": 69,
        "metadata": {
          "ifc_class": "IfcBuildingStorey",
          "ifc_express_id": 69,
          "ifc_global_id": "0MCmY$9vf5EhiJsBPKDVR4"
        },
        "name": "Floor 5 overview",
        "type": "floor"
      },
      "type": "Feature"
    },
    {
      "geometry": {
        "coordinates": [
          -122.8079110555076,
          53.88675521690864
        ],
        "type": "Point"
      },
      "id": 73,
      "properties": {
        "building_id": "unbc",
        "floor": 6,
        "id": 73,
        "metadata": {
          "ifc_class": "IfcBuildingStorey",
          "ifc_express_id": 73,
          "ifc_global_id": "3tPJmw05P0sPhlJRffQ26k"
        },
        "name": "Floor 6 overview",
        "type": "floor"
      },
      "type": "Feature"
    },
    {
      "geometry": {
        "coordinates": [
          -122.8085499412056,
          53.8860040383974
        ],
        "type": "Point"
      },
      "id": 100001,
      "properties": {
        "building_id": "unbc",
        "floor": 0.5,
        "id": 100001,
        "metadata": {
          "ifc_class": "IfcRamp",
          "ifc_express_id": 509717,
          "ifc_global_id": "3ApLBQ2Ov0KAY5kWXD1uN5",
          "is_accessible": true
        },
        "name": "Ramp:Ramp 1:1586431",
        "type": "ramp"
      },
      "type": "Feature"
    },
    {
      "geometry": {
        "coordinates": [
          -122.80873665272684,
          53.885987744664995
        ],
        "type": "Point"
      },
      "id": 100002,
      "properties": {
        "building_id": "unbc",
        "floor": 0.5,
        "id": 100002,
        "metadata": {
          "ifc_class": "IfcRamp",
          "ifc_express_id": 512280,
          "ifc_global_id": "3ApLBQ2Ov0KAY5kWXD1uYl",
          "is_accessible": true
        },
        "name": "Ramp:Ramp 1:1587605",
        "type": "ramp"
      },
      "type": "Feature"
    },
    {
      "geometry": {
        "coordinates": [
          -122.8083189584778,
          53.885057082284604
        ],
        "type": "Point"
      },
      "id": 100003,
      "properties": {
        "building_id": "unbc",
        "floor": 0.5,
        "id": 100003,
        "metadata": {
          "ifc_class": "IfcRamp",
          "ifc_express_id": 515787,
          "ifc_global_id": "2aCcQ2Dq55d9b6fkJqaRq9",
          "is_accessible": true
        },
        "name": "Ramp:Ramp 1:1622190",
        "type": "ramp"
      },
      "type": "Feature"
    },
    {
      "geometry": {
        "coordinates": [
          -122.8083189584778,
          53.885057082284604
        ],
        "type": "Point"
      },
      "id": 100046,
      "properties": {
        "building_id": "unbc",
        "floor": 0.5,
        "id": 100046,
        "metadata": {
          "ifc_class": "IfcStair",
          "ifc_express_id": 442502,
          "ifc_global_id": "0OgLb85LH0ch2osRZyULam",
          "is_accessible": false
        },
        "name": "Assembled Stair:Stair:1523099",
        "type": "stairs"
      },
      "type": "Feature"
    },
    {
      "geometry": {
        "coordinates": [
          -122.8083189584778,
          53.885057082284604
        ],
        "type": "Point"
      },
      "id": 100050,
      "properties": {
        "building_id": "unbc",
        "floor": 0.5,
        "id": 100050,
        "metadata": {
          "ifc_class": "IfcStair",
          "ifc_express_id": 526614,
          "ifc_global_id": "0RPjGS3pn71PpLc4jrlCQA",
          "is_accessible": false
        },
        "name": "Assembled Stair:Stair:1644499",
        "type": "stairs"
      },
      "type": "Feature"
    },
    {
      "geometry": {
        "coordinates": [
          -122.8083189584778,
          53.885057082284604
        ],
        "type": "Point"
      },
      "id": 100072,
      "properties": {
        "building_id": "unbc",
        "floor": 0.5,
        "id": 100072,
        "metadata": {
          "ifc_class": "IfcStair",
          "ifc_express_id": 645186,
          "ifc_global_id": "1$dOSmXOn1gwt1_R1$axKI",
          "is_accessible": false
        },
        "name": "Assembled Stair:Stair:1972504",
        "type": "stairs"
      },
      "type": "Feature"
    },
    {
      "geometry": {
        "coordinates": [
          -122.8083189584778,
          53.885057082284604
        ],
        "type": "Point"
      },
      "id": 100073,
      "properties": {
        "building_id": "unbc",
        "floor": 0.5,
        "id": 100073,
        "metadata": {
          "ifc_class": "IfcStair",
          "ifc_express_id": 646200,
          "ifc_global_id": "1$dOSmXOn1gwt1_R1$auKX",
          "is_accessible": false
        },
        "name": "Assembled Stair:Stair:1976619",
        "type": "stairs"
      },
      "type": "Feature"
    },
    {
      "geometry": {
        "coordinates": [
          -122.8083189584778,
          53.885057082284604
        ],
        "type": "Point"
      },
      "id": 100084,
      "properties": {
        "building_id": "unbc",
        "floor": 0.5,
        "id": 100084,
        "metadata": {
          "ifc_class": "IfcStair",
          "ifc_express_id": 666573,
          "ifc_global_id": "3bKFgvFOPERfDgMm1IBrCE",
          "is_accessible": false
        },
        "name": "Assembled Stair:Stair:2072647",
        "type": "stairs"
      },
      "type": "Feature"
    },
    {
      "geometry": {
        "coordinates": [
          -122.8083189584778,
          53.885057082284604
        ],
        "type": "Point"
      },
      "id": 100085,
      "properties": {
        "building_id": "unbc",
        "floor": 0.5,
        "id": 100085,
        "metadata": {
          "ifc_class": "IfcStair",
          "ifc_express_id": 667626,
          "ifc_global_id": "3rOuXmKrz8jR5lG8l_o9TG",
          "is_accessible": false
        },
        "name": "Assembled Stair:Stair:2075088",
        "type": "stairs"
      },
      "type": "Feature"
    },
    {
      "geometry": {
        "coordinates": [
          -122.8083189584778,
          53.885057082284604
        ],
        "type": "Point"
      },
      "id": 100086,
      "properties": {
        "building_id": "unbc",
        "floor": 0.5,
        "id": 100086,
        "metadata": {
          "ifc_class": "IfcStair",
          "ifc_express_id": 669473,
          "ifc_global_id": "3rOuXmKrz8jR5lG8l_oFkn",
          "is_accessible": false
        },
        "name": "Assembled Stair:Stair:2082097",
        "type": "stairs"
      },
      "type": "Feature"
    },
    {
      "geometry": {
        "coordinates": [
          -122.8083189584778,
          53.885057082284604
        ],
        "type": "Point"
      },
      "id": 100087,
      "properties": {
        "building_id": "unbc",
        "floor": 0.5,
        "id": 100087,
        "metadata": {
          "ifc_class": "IfcStair",
          "ifc_express_id": 669667,
          "ifc_global_id": "3rOuXmKrz8jR5lG8l_oFdj",
          "is_accessible": false
        },
        "name": "Assembled Stair:Stair:2082669",
        "type": "stairs"
      },
      "type": "Feature"
    },
    {
      "geometry": {
        "coordinates": [
          -122.8083189584778,
          53.885057082284604
        ],
        "type": "Point"
      },
      "id": 100088,
      "properties": {
        "building_id": "unbc",
        "floor": 0.5,
        "id": 100088,
        "metadata": {
          "ifc_class": "IfcStair",
          "ifc_express_id": 669861,
          "ifc_global_id": "3rOuXmKrz8jR5lG8l_oFas",
          "is_accessible": false
        },
        "name": "Assembled Stair:Stair:2082742",
        "type": "stairs"
      },
      "type": "Feature"
    },
    {
      "geometry": {
        "coordinates": [
          -122.80772651400213,
          53.8863145134474
        ],
        "type": "Point"
      },
      "id": 100004,
      "properties": {
        "building_id": "unbc",
        "floor": 0,
        "id": 100004,
        "metadata": {
          "ifc_class": "IfcRamp",
          "ifc_express_id": 526607,
          "ifc_global_id": "0RPjGS3pn71PpLc4jrlCHD",
          "is_accessible": true
        },
        "name": "Ramp:Ramp 1:1643796",
        "type": "ramp"
      },
      "type": "Feature"
    },
    {
      "geometry": {
        "coordinates": [
          -122.80851367549792,
          53.885887793047914
        ],
        "type": "Point"
      },
      "id": 100005,
      "properties": {
        "building_id": "unbc",
        "floor": 0,
        "id": 100005,
        "metadata": {
          "ifc_class": "IfcRamp",
          "ifc_express_id": 669351,
          "ifc_global_id": "3rOuXmKrz8jR5lG8l_oFqs",
          "is_accessible": true
        },
        "name": "Ramp:Ramp 1:2081718",
        "type": "ramp"
      },
      "type": "Feature"
    },
    {
      "geometry": {
        "coordinates": [
          -122.8085143491988,
          53.885809883302656
        ],
        "type": "Point"
      },
      "id": 100006,
      "properties": {
        "building_id": "unbc",
        "floor": 0,
        "id": 100006,
        "metadata": {
          "ifc_class": "IfcRamp",
          "ifc_express_id": 669374,
          "ifc_global_id": "3rOuXmKrz8jR5lG8l_oFey",
          "is_accessible": true
        },
        "name": "Ramp:Ramp 1:2081980",
        "type": "ramp"
      },
      "type": "Feature"
    },
    {
      "geometry": {
        "coordinates": [
          -122.8085143491988,
          53.885775573789225
        ],
        "type": "Point"
      },
      "id": 100007,
      "properties": {
        "building_id": "unbc",
        "floor": 0,
        "id": 100007,
        "metadata": {
          "ifc_class": "IfcRamp",
          "ifc_express_id": 669397,
          "ifc_global_id": "3rOuXmKrz8jR5lG8l_oFfK",
          "is_accessible": true
        },
        "name": "Ramp:Ramp 1:2082004",
        "type": "ramp"
      },
      "type": "Feature"
    },
    {
      "geometry": {
        "coordinates": [
          -122.80851420781448,
          53.8856973840447
        ],
        "type": "Point"
      },
      "id": 100008,
      "properties": {
        "building_id": "unbc",
        "floor": 0,
        "id": 100008,
        "metadata": {
          "ifc_class": "IfcRamp",
          "ifc_express_id": 669420,
          "ifc_global_id": "3rOuXmKrz8jR5lG8l_oFfi",
          "is_accessible": true
        },
        "name": "Ramp:Ramp 1:2082028",
        "type": "ramp"
      },
      "type": "Feature"
    },
    {
      "geometry": {
        "coordinates": [
          -122.8085146955904,
          53.885663068214235
        ],
        "type": "Point"
      },
      "id": 100009,
      "properties": {
        "building_id": "unbc",
        "floor": 0,
        "id": 100009,
        "metadata": {
          "ifc_class": "IfcRamp",
          "ifc_express_id": 669443,
          "ifc_global_id": "3rOuXmKrz8jR5lG8l_oFk4",
          "is_accessible": true
        },
        "name": "Ramp:Ramp 1:2082052",
        "type": "ramp"
      },
      "type": "Feature"
    },
    {
      "geometry": {
        "coordinates": [
          -122.80851476561874,
          53.88558508828121
        ],
        "type": "Point"
      },
      "id": 100010,
      "properties": {
        "building_id": "unbc",
        "floor": 0,
        "id": 100010,
        "metadata": {
          "ifc_class": "IfcRamp",
          "ifc_express_id": 669466,
          "ifc_global_id": "3rOuXmKrz8jR5lG8l_oFkS",
          "is_accessible": true
        },
        "name": "Ramp:Ramp 1:2082076",
        "type": "ramp"
      },
      "type": "Feature"
    },
    {
      "geometry": {
        "coordinates": [
          -122.80836198380568,
          53.88507211437811
        ],
        "type": "Point"
      },
      "id": 100011,
      "properties": {
        "building_id": "unbc",
        "floor": 0,
        "id": 100011,
        "metadata": {
          "ifc_class": "IfcRamp",
          "ifc_express_id": 851378,
          "ifc_global_id": "0PLApxEh92RekZh0dQATzz",
          "is_accessible": true
        },
        "name": "Ramp:Ramp 1:2374473",
        "type": "ramp"
      },
      "type": "Feature"
    },
    {
      "geometry": {
        "coordinates": [
          -122.80825178986636,
          53.885031083315035
        ],
        "type": "Point"
      },
      "id": 100012,
      "properties": {
        "building_id": "unbc",
        "floor": 0,
        "id": 100012,
        "metadata": {
          "ifc_class": "IfcRamp",
          "ifc_express_id": 851968,
          "ifc_global_id": "0PLApxEh92RekZh0dQATd7",
          "is_accessible": true
        },
        "name": "Ramp:Ramp 1:2375155",
        "type": "ramp"
      },
      "type": "Feature"
    },
    {
      "geometry": {
        "coordinates": [
          -122.8083189584778,
          53.885057082284604
        ],
        "type": "Point"
      },
      "id": 100098,
      "properties": {
        "building_id": "unbc",
        "floor": 0,
        "id": 100098,
        "metadata": {
          "ifc_class": "IfcStair",
          "ifc_express_id": 775929,
          "ifc_global_id": "3bt_NE7dvASx9UlB1bNAIX",
          "is_accessible": false
        },
        "name": "Assembled Stair:Stair:2296425",
        "type": "stairs"
      },
      "type": "Feature"
    },
    {
      "geometry": {
        "coordinates": [
          -122.8083189584778,
          53.885057082284604
        ],
        "type": "Point"
      },
      "id": 100013,
      "properties": {
        "building_id": "unbc",
        "floor": 1,
        "id": 100013,
        "metadata": {
          "ifc_class": "IfcStair",
          "ifc_express_id": 216855,
          "ifc_global_id": "0pdAZ60GfCvBFEBhqxxAgG",
          "is_accessible": false
        },
        "name": "Assembled Stair:Stair:1270216",
        "type": "stairs"
      },
      "type": "Feature"
    },
    {
      "geometry": {
        "coordinates": [
          -122.8083189584778,
          53.885057082284604
        ],
        "type": "Point"
      },
      "id": 100014,
      "properties": {
        "building_id": "unbc",
        "floor": 1,
        "id": 100014,
        "metadata": {
          "ifc_class": "IfcStair",
          "ifc_express_id": 217199,
          "ifc_global_id": "0pdAZ60GfCvBFEBhqxxACT",
          "is_accessible": false
        },
        "name": "Assembled Stair:Stair:1271877",
        "type": "stairs"
      },
      "type": "Feature"
    },
    {
      "geometry": {
        "coordinates": [
          -122.8083189584778,
          53.885057082284604
        ],
        "type": "Point"
      },
      "id": 100015,
      "properties": {
        "building_id": "unbc",
        "floor": 1,
        "id": 100015,
        "metadata": {
          "ifc_class": "IfcStair",
          "ifc_express_id": 231423,
          "ifc_global_id": "0pdAZ60GfCvBFEBhqxxBJX",
          "is_accessible": false
        },
        "name": "Assembled Stair:Stair:1277881",
        "type": "stairs"
      },
      "type": "Feature"
    },
    {
      "geometry": {
        "coordinates": [
          -122.8083189584778,
          53.885057082284604
        ],
        "type": "Point"
      },
      "id": 100016,
      "properties": {
        "building_id": "unbc",
        "floor": 1,
        "id": 100016,
        "metadata": {
          "ifc_class": "IfcStair",
          "ifc_express_id": 231882,
          "ifc_global_id": "0pdAZ60GfCvBFEBhqxx4m1",
          "is_accessible": false
        },
        "name": "Assembled Stair:Stair:1279833",
        "type": "stairs"
      },
      "type": "Feature"
    },
    {
      "geometry": {
        "coordinates": [
          -122.8083189584778,
          53.885057082284604
        ],
        "type": "Point"
      },
      "id": 100017,
      "properties": {
        "building_id": "unbc",
        "floor": 1,
        "id": 100017,
        "metadata": {
          "ifc_class": "IfcStair",
          "ifc_express_id": 232426,
          "ifc_global_id": "0pdAZ60GfCvBFEBhqxx45L",
          "is_accessible": false
        },
        "name": "Assembled Stair:Stair:1280525",
        "type": "stairs"
      },
      "type": "Feature"
    },
    {
      "geometry": {
        "coordinates": [
          -122.8083189584778,
          53.885057082284604
        ],
        "type": "Point"
      },
      "id": 100018,
      "properties": {
        "building_id": "unbc",
        "floor": 1,
        "id": 100018,
        "metadata": {
          "ifc_class": "IfcStair",
          "ifc_express_id": 241476,
          "ifc_global_id": "3O3efkzBD8PgTTF_bLSDsx",
          "is_accessible": false
        },
        "name": "Assembled Stair:Stair:1293690",
        "type": "stairs"
      },
      "type": "Feature"
    },
    {
      "geometry": {
        "coordinates": [
          -122.8083189584778,
          53.885057082284604
        ],
        "type": "Point"
      },
      "id": 100023,
      "properties": {
        "building_id": "unbc",
        "floor": 1,
        "id": 100023,
        "metadata": {
          "ifc_class": "IfcStair",
          "ifc_express_id": 248207,
          "ifc_global_id": "1qiEANE3P4TP03dJvYZllA",
          "is_accessible": false
        },
        "name": "Assembled Stair:Stair:1303394",
        "type": "stairs"
      },
      "type": "Feature"
    },
    {
      "geometry": {
        "coordinates": [
          -122.8083189584778,
          53.885057082284604
        ],
        "type": "Point"
      },
      "id": 100024,
      "properties": {
        "building_id": "unbc",
        "floor": 1,
        "id": 100024,
        "metadata": {
          "ifc_class": "IfcStair",
          "ifc_express_id": 249002,
          "ifc_global_id": "0_VuAhE4zEMwYl4sDa2lYL",
          "is_accessible": false
        },
        "name": "Assembled Stair:Stair:1305141",
        "type": "stairs"
      },
      "type": "Feature"
    },
    {
      "geometry": {
        "coordinates": [
          -122.8083189584778,
          53.885057082284604
        ],
        "type": "Point"
      },
      "id": 100027,
      "properties": {
        "building_id": "unbc",
        "floor": 1,
        "id": 100027,
        "metadata": {
          "ifc_class": "IfcStair",
          "ifc_express_id": 258811,
          "ifc_global_id": "02aKGQjYz9YgiOAdI86V0K",
          "is_accessible": false
        },
        "name": "Assembled Stair:Stair:1372994",
        "type": "stairs"
      },
      "type": "Feature"
    },
    {
      "geometry": {
        "coordinates": [
          -122.8083189584778,
          53.885057082284604
        ],
        "type": "Point"
      },
      "id": 100030,
      "properties": {
        "building_id": "unbc",
        "floor": 1,
        "id": 100030,
        "metadata": {
          "ifc_class": "IfcStair",
          "ifc_express_id": 269048,
          "ifc_global_id": "1NzY6wDWDDmxnPZD7Xa1qV",
          "is_accessible": false
        },
        "name": "Assembled Stair:Stair:1460777",
        "type": "stairs"
      },
      "type": "Feature"
    },
    {
      "geometry": {
        "coordinates": [
          -122.8083189584778,
          53.885057082284604
        ],
        "type": "Point"
      },
      "id": 100047,
      "properties": {
        "building_id": "unbc",
        "floor": 1,
        "id": 100047,
        "metadata": {
          "ifc_class": "IfcStair",
          "ifc_express_id": 512287,
          "ifc_global_id": "3ApLBQ2Ov0KAY5kWXD1uh6",
          "is_accessible": false
        },
        "name": "Assembled Stair:Stair:1588220",
        "type": "stairs"
      },
      "type": "Feature"
    },
    {
      "geometry": {
        "coordinates": [
          -122.8083189584778,
          53.885057082284604
        ],
        "type": "Point"
      },
      "id": 100048,
      "properties": {
        "building_id": "unbc",
        "floor": 1,
        "id": 100048,
        "metadata": {
          "ifc_class": "IfcStair",
          "ifc_express_id": 515429,
          "ifc_global_id": "2aCcQ2Dq55d9b6fkJqaSPw",
          "is_accessible": false
        },
        "name": "Assembled Stair:Stair:1620957",
        "type": "stairs"
      },
      "type": "Feature"
    },
    {
      "geometry": {
        "coordinates": [
          -122.8083189584778,
          53.885057082284604
        ],
        "type": "Point"
      },
      "id": 100052,
      "properties": {
        "building_id": "unbc",
        "floor": 1,
        "id": 100052,
        "metadata": {
          "ifc_class": "IfcStair",
          "ifc_express_id": 534039,
          "ifc_global_id": "3Jrgbur357whPn_qSR908N",
          "is_accessible": false
        },
        "name": "Assembled Stair:Stair:1693246",
        "type": "stairs"
      },
      "type": "Feature"
    },
    {
      "geometry": {
        "coordinates": [
          -122.8083189584778,
          53.885057082284604
        ],
        "type": "Point"
      },
      "id": 100062,
      "properties": {
        "building_id": "unbc",
        "floor": 1,
        "id": 100062,
        "metadata": {
          "ifc_class": "IfcStair",
          "ifc_express_id": 592062,
          "ifc_global_id": "23ANnEbtr7RQUX5$JSM79d",
          "is_accessible": false
        },
        "name": "Assembled Stair:Stair:1801478",
        "type": "stairs"
      },
      "type": "Feature"
    },
    {
      "geometry": {
        "coordinates": [
          -122.8083189584778,
          53.885057082284604
        ],
        "type": "Point"
      },
      "id": 100063,
      "properties": {
        "building_id": "unbc",
        "floor": 1,
        "id": 100063,
        "metadata": {
          "ifc_class": "IfcStair",
          "ifc_express_id": 595318,
          "ifc_global_id": "0jyM5LJFr3pvbchXS4itbm",
          "is_accessible": false
        },
        "name": "Assembled Stair:Stair:1808228",
        "type": "stairs"
      },
      "type": "Feature"
    },
    {
      "geometry": {
        "coordinates": [
          -122.8083189584778,
          53.885057082284604
        ],
        "type": "Point"
      },
      "id": 100064,
      "properties": {
        "building_id": "unbc",
        "floor": 1,
        "id": 100064,
        "metadata": {
          "ifc_class": "IfcStair",
          "ifc_express_id": 600841,
          "ifc_global_id": "2IYVPnb7X4NRq3pg9QDtHM",
          "is_accessible": false
        },
        "name": "Assembled Stair:Stair:1821194",
        "type": "stairs"
      },
      "type": "Feature"
    },
    {
      "geometry": {
        "coordinates": [
          -122.8083189584778,
          53.885057082284604
        ],
        "type": "Point"
      },
      "id": 100065,
      "properties": {
        "building_id": "unbc",
        "floor": 1,
        "id": 100065,
        "metadata": {
          "ifc_class": "IfcStair",
          "ifc_express_id": 604870,
          "ifc_global_id": "0e9n0d93L2$ufdyyEWIWUP",
          "is_accessible": false
        },
        "name": "Assembled Stair:Stair:1842431",
        "type": "stairs"
      },
      "type": "Feature"
    },
    {
      "geometry": {
        "coordinates": [
          -122.8083189584778,
          53.885057082284604
        ],
        "type": "Point"
      },
      "id": 100071,
      "properties": {
        "building_id": "unbc",
        "floor": 1,
        "id": 100071,
        "metadata": {
          "ifc_class": "IfcStair",
          "ifc_express_id": 636268,
          "ifc_global_id": "0mwljKGqH04e9NBs3BHPdy",
          "is_accessible": false
        },
        "name": "Assembled Stair:Stair:1949419",
        "type": "stairs"
      },
      "type": "Feature"
    },
    {
      "geometry": {
        "coordinates": [
          -122.8083189584778,
          53.885057082284604
        ],
        "type": "Point"
      },
      "id": 100090,
      "properties": {
        "building_id": "unbc",
        "floor": 1,
        "id": 100090,
        "metadata": {
          "ifc_class": "IfcStair",
          "ifc_express_id": 690126,
          "ifc_global_id": "1SeeveeEbFwOFwia3GyJye",
          "is_accessible": false
        },
        "name": "Assembled Stair:Stair:2156084",
        "type": "stairs"
      },
      "type": "Feature"
    },
    {
      "geometry": {
        "coordinates": [
          -122.8083189584778,
          53.885057082284604
        ],
        "type": "Point"
      },
      "id": 100103,
      "properties": {
        "building_id": "unbc",
        "floor": 1,
        "id": 100103,
        "metadata": {
          "ifc_class": "IfcStair",
          "ifc_express_id": 879119,
          "ifc_global_id": "0udoS07695XxQhI6DWx7No",
          "is_accessible": false
        },
        "name": "Assembled Stair:Stair:2439748",
        "type": "stairs"
      },
      "type": "Feature"
    },
    {
      "geometry": {
        "coordinates": [
          -122.8083189584778,
          53.885057082284604
        ],
        "type": "Point"
      },
      "id": 100019,
      "properties": {
        "building_id": "unbc",
        "floor": 3,
        "id": 100019,
        "metadata": {
          "ifc_class": "IfcStair",
          "ifc_express_id": 242267,
          "ifc_global_id": "3O3efkzBD8PgTTF_bLSAQV",
          "is_accessible": false
        },
        "name": "Assembled Stair:Stair:1295966",
        "type": "stairs"
      },
      "type": "Feature"
    },
    {
      "geometry": {
        "coordinates": [
          -122.8083189584778,
          53.885057082284604
        ],
        "type": "Point"
      },
      "id": 100022,
      "properties": {
        "building_id": "unbc",
        "floor": 3,
        "id": 100022,
        "metadata": {
          "ifc_class": "IfcStair",
          "ifc_express_id": 248132,
          "ifc_global_id": "1R6ac6tXQsBWKcRvdgjSKl",
          "is_accessible": false
        },
        "name": "Assembled Stair:Stair:1298202:2",
        "type": "stairs"
      },
      "type": "Feature"
    },
    {
      "geometry": {
        "coordinates": [
          -122.8083189584778,
          53.885057082284604
        ],
        "type": "Point"
      },
      "id": 100026,
      "properties": {
        "building_id": "unbc",
        "floor": 3,
        "id": 100026,
        "metadata": {
          "ifc_class": "IfcStair",
          "ifc_express_id": 249830,
          "ifc_global_id": "0_VuAhE4zEMwYl4sDa2k4Q",
          "is_accessible": false
        },
        "name": "Assembled Stair:Stair:1307578",
        "type": "stairs"
      },
      "type": "Feature"
    },
    {
      "geometry": {
        "coordinates": [
          -122.8083189584778,
          53.885057082284604
        ],
        "type": "Point"
      },
      "id": 100032,
      "properties": {
        "building_id": "unbc",
        "floor": 3,
        "id": 100032,
        "metadata": {
          "ifc_class": "IfcStair",
          "ifc_express_id": 283273,
          "ifc_global_id": "31RHzaJ8v3$g0VLVRGElzu",
          "is_accessible": false
        },
        "name": "Assembled Stair:Stair:1496322",
        "type": "stairs"
      },
      "type": "Feature"
    },
    {
      "geometry": {
        "coordinates": [
          -122.8083189584778,
          53.885057082284604
        ],
        "type": "Point"
      },
      "id": 100034,
      "properties": {
        "building_id": "unbc",
        "floor": 3,
        "id": 100034,
        "metadata": {
          "ifc_class": "IfcStair",
          "ifc_express_id": 289890,
          "ifc_global_id": "31RHzaJ8v3$g0VLVRGElQ2",
          "is_accessible": false
        },
        "name": "Assembled Stair:Stair:1498360",
        "type": "stairs"
      },
      "type": "Feature"
    },
    {
      "geometry": {
        "coordinates": [
          -122.8083189584778,
          53.885057082284604
        ],
        "type": "Point"
      },
      "id": 100036,
      "properties": {
        "building_id": "unbc",
        "floor": 3,
        "id": 100036,
        "metadata": {
          "ifc_class": "IfcStair",
          "ifc_express_id": 290336,
          "ifc_global_id": "31RHzaJ8v3$g0VLVRGElSZ",
          "is_accessible": false
        },
        "name": "Assembled Stair:Stair:1498457",
        "type": "stairs"
      },
      "type": "Feature"
    },
    {
      "geometry": {
        "coordinates": [
          -122.8083189584778,
          53.885057082284604
        ],
        "type": "Point"
      },
      "id": 100037,
      "properties": {
        "building_id": "unbc",
        "floor": 3,
        "id": 100037,
        "metadata": {
          "ifc_class": "IfcStair",
          "ifc_express_id": 290681,
          "ifc_global_id": "31RHzaJ8v3$g0VLVRGElS7",
          "is_accessible": false
        },
        "name": "Assembled Stair:Stair:1498493",
        "type": "stairs"
      },
      "type": "Feature"
    },
    {
      "geometry": {
        "coordinates": [
          -122.8083189584778,
          53.885057082284604
        ],
        "type": "Point"
      },
      "id": 100040,
      "properties": {
        "building_id": "unbc",
        "floor": 3,
        "id": 100040,
        "metadata": {
          "ifc_class": "IfcStair",
          "ifc_express_id": 309829,
          "ifc_global_id": "31Scm7brOLGegGHo7PwxD6",
          "is_accessible": false
        },
        "name": "Assembled Stair:Stair:1500252:2",
        "type": "stairs"
      },
      "type": "Feature"
    },
    {
      "geometry": {
        "coordinates": [
          -122.8083189584778,
          53.885057082284604
        ],
        "type": "Point"
      },
      "id": 100041,
      "properties": {
        "building_id": "unbc",
        "floor": 3,
        "id": 100041,
        "metadata": {
          "ifc_class": "IfcStair",
          "ifc_express_id": 309934,
          "ifc_global_id": "31RHzaJ8v3$g0VLVRGEixw",
          "is_accessible": false
        },
        "name": "Assembled Stair:Stair:1500288",
        "type": "stairs"
      },
      "type": "Feature"
    },
    {
      "geometry": {
        "coordinates": [
          -122.8083189584778,
          53.885057082284604
        ],
        "type": "Point"
      },
      "id": 100044,
      "properties": {
        "building_id": "unbc",
        "floor": 3,
        "id": 100044,
        "metadata": {
          "ifc_class": "IfcStair",
          "ifc_express_id": 389970,
          "ifc_global_id": "1l82OPgNbCsQg02BSgj8Dl",
          "is_accessible": false
        },
        "name": "Assembled Stair:Stair:1514126",
        "type": "stairs"
      },
      "type": "Feature"
    },
    {
      "geometry": {
        "coordinates": [
          -122.8083189584778,
          53.885057082284604
        ],
        "type": "Point"
      },
      "id": 100053,
      "properties": {
        "building_id": "unbc",
        "floor": 3,
        "id": 100053,
        "metadata": {
          "ifc_class": "IfcStair",
          "ifc_express_id": 534511,
          "ifc_global_id": "2$GVyBEMXEW8c3ILh5b5OE",
          "is_accessible": false
        },
        "name": "Assembled Stair:Stair:1696006",
        "type": "stairs"
      },
      "type": "Feature"
    },
    {
      "geometry": {
        "coordinates": [
          -122.8083189584778,
          53.885057082284604
        ],
        "type": "Point"
      },
      "id": 100070,
      "properties": {
        "building_id": "unbc",
        "floor": 3,
        "id": 100070,
        "metadata": {
          "ifc_class": "IfcStair",
          "ifc_express_id": 624412,
          "ifc_global_id": "1IukIbylVeAf6_OG5kInB3",
          "is_accessible": false
        },
        "name": "Assembled Stair:Stair:1903824:2",
        "type": "stairs"
      },
      "type": "Feature"
    },
    {
      "geometry": {
        "coordinates": [
          -122.8083189584778,
          53.885057082284604
        ],
        "type": "Point"
      },
      "id": 100077,
      "properties": {
        "building_id": "unbc",
        "floor": 3,
        "id": 100077,
        "metadata": {
          "ifc_class": "IfcStair",
          "ifc_express_id": 648433,
          "ifc_global_id": "06_rC$FIi7TUZrXLZ7WJJE",
          "is_accessible": false
        },
        "name": "Assembled Stair:Stair:1988738:2",
        "type": "stairs"
      },
      "type": "Feature"
    },
    {
      "geometry": {
        "coordinates": [
          -122.8083189584778,
          53.885057082284604
        ],
        "type": "Point"
      },
      "id": 100083,
      "properties": {
        "building_id": "unbc",
        "floor": 3,
        "id": 100083,
        "metadata": {
          "ifc_class": "IfcStair",
          "ifc_express_id": 660482,
          "ifc_global_id": "3T2efmC9Ye7AlL9pWr8C7S",
          "is_accessible": false
        },
        "name": "Assembled Stair:Stair:2047572:2",
        "type": "stairs"
      },
      "type": "Feature"
    },
    {
      "geometry": {
        "coordinates": [
          -122.8083189584778,
          53.885057082284604
        ],
        "type": "Point"
      },
      "id": 100092,
      "properties": {
        "building_id": "unbc",
        "floor": 3,
        "id": 100092,
        "metadata": {
          "ifc_class": "IfcStair",
          "ifc_express_id": 691255,
          "ifc_global_id": "1SeeveeEbFwOFwia3GyIFQ",
          "is_accessible": false
        },
        "name": "Assembled Stair:Stair:2161350",
        "type": "stairs"
      },
      "type": "Feature"
    },
    {
      "geometry": {
        "coordinates": [
          -122.8083189584778,
          53.885057082284604
        ],
        "type": "Point"
      },
      "id": 100100,
      "properties": {
        "building_id": "unbc",
        "floor": 3,
        "id": 100100,
        "metadata": {
          "ifc_class": "IfcStair",
          "ifc_express_id": 830338,
          "ifc_global_id": "0vXO2hRDUCNTLdfuYsTL9u",
          "is_accessible": false
        },
        "name": "Assembled Stair:Stair:2349441:2",
        "type": "stairs"
      },
      "type": "Feature"
    },
    {
      "geometry": {
        "coordinates": [
          -122.8083189584778,
          53.885057082284604
        ],
        "type": "Point"
      },
      "id": 100102,
      "properties": {
        "building_id": "unbc",
        "floor": 3,
        "id": 100102,
        "metadata": {
          "ifc_class": "IfcStair",
          "ifc_express_id": 831229,
          "ifc_global_id": "3WJwi44T6$X$GCqfvpV5L8",
          "is_accessible": false
        },
        "name": "Assembled Stair:Stair:2354630:2",
        "type": "stairs"
      },
      "type": "Feature"
    },
    {
      "geometry": {
        "coordinates": [
          -122.8083189584778,
          53.885057082284604
        ],
        "type": "Point"
      },
      "id": 100020,
      "properties": {
        "building_id": "unbc",
        "floor": 2,
        "id": 100020,
        "metadata": {
          "ifc_class": "IfcStair",
          "ifc_express_id": 242843,
          "ifc_global_id": "0yWEMr1FP0Ugf3XmxVe3v9",
          "is_accessible": false
        },
        "name": "Assembled Stair:Stair:1295966:2",
        "type": "stairs"
      },
      "type": "Feature"
    },
    {
      "geometry": {
        "coordinates": [
          -122.8083189584778,
          53.885057082284604
        ],
        "type": "Point"
      },
      "id": 100021,
      "properties": {
        "building_id": "unbc",
        "floor": 2,
        "id": 100021,
        "metadata": {
          "ifc_class": "IfcStair",
          "ifc_express_id": 243041,
          "ifc_global_id": "1qiEANE3P4TP03dJvYZjUo",
          "is_accessible": false
        },
        "name": "Assembled Stair:Stair:1298202",
        "type": "stairs"
      },
      "type": "Feature"
    },
    {
      "geometry": {
        "coordinates": [
          -122.8083189584778,
          53.885057082284604
        ],
        "type": "Point"
      },
      "id": 100025,
      "properties": {
        "building_id": "unbc",
        "floor": 2,
        "id": 100025,
        "metadata": {
          "ifc_class": "IfcStair",
          "ifc_express_id": 249416,
          "ifc_global_id": "0_VuAhE4zEMwYl4sDa2k29",
          "is_accessible": false
        },
        "name": "Assembled Stair:Stair:1307177",
        "type": "stairs"
      },
      "type": "Feature"
    },
    {
      "geometry": {
        "coordinates": [
          -122.8083189584778,
          53.885057082284604
        ],
        "type": "Point"
      },
      "id": 100038,
      "properties": {
        "building_id": "unbc",
        "floor": 2,
        "id": 100038,
        "metadata": {
          "ifc_class": "IfcStair",
          "ifc_express_id": 309092,
          "ifc_global_id": "31RHzaJ8v3$g0VLVRGEivb",
          "is_accessible": false
        },
        "name": "Assembled Stair:Stair:1500191",
        "type": "stairs"
      },
      "type": "Feature"
    },
    {
      "geometry": {
        "coordinates": [
          -122.8083189584778,
          53.885057082284604
        ],
        "type": "Point"
      },
      "id": 100039,
      "properties": {
        "building_id": "unbc",
        "floor": 2,
        "id": 100039,
        "metadata": {
          "ifc_class": "IfcStair",
          "ifc_express_id": 309460,
          "ifc_global_id": "31RHzaJ8v3$g0VLVRGEiuc",
          "is_accessible": false
        },
        "name": "Assembled Stair:Stair:1500252",
        "type": "stairs"
      },
      "type": "Feature"
    },
    {
      "geometry": {
        "coordinates": [
          -122.8083189584778,
          53.885057082284604
        ],
        "type": "Point"
      },
      "id": 100042,
      "properties": {
        "building_id": "unbc",
        "floor": 2,
        "id": 100042,
        "metadata": {
          "ifc_class": "IfcStair",
          "ifc_express_id": 310279,
          "ifc_global_id": "31RHzaJ8v3$g0VLVRGEixU",
          "is_accessible": false
        },
        "name": "Assembled Stair:Stair:1500324",
        "type": "stairs"
      },
      "type": "Feature"
    },
    {
      "geometry": {
        "coordinates": [
          -122.8083189584778,
          53.885057082284604
        ],
        "type": "Point"
      },
      "id": 100049,
      "properties": {
        "building_id": "unbc",
        "floor": 2,
        "id": 100049,
        "metadata": {
          "ifc_class": "IfcStair",
          "ifc_express_id": 524089,
          "ifc_global_id": "17$q3IJvv158Hw2Idk75_t",
          "is_accessible": false
        },
        "name": "Assembled Stair:Stair:1638837",
        "type": "stairs"
      },
      "type": "Feature"
    },
    {
      "geometry": {
        "coordinates": [
          -122.8083189584778,
          53.885057082284604
        ],
        "type": "Point"
      },
      "id": 100051,
      "properties": {
        "building_id": "unbc",
        "floor": 2,
        "id": 100051,
        "metadata": {
          "ifc_class": "IfcStair",
          "ifc_express_id": 533793,
          "ifc_global_id": "3Jrgbur357whPn_qSR91rv",
          "is_accessible": false
        },
        "name": "Assembled Stair:Stair:1689936",
        "type": "stairs"
      },
      "type": "Feature"
    },
    {
      "geometry": {
        "coordinates": [
          -122.8083189584778,
          53.885057082284604
        ],
        "type": "Point"
      },
      "id": 100054,
      "properties": {
        "building_id": "unbc",
        "floor": 2,
        "id": 100054,
        "metadata": {
          "ifc_class": "IfcStair",
          "ifc_express_id": 537035,
          "ifc_global_id": "1qzIRGMOj1KQG46ptLd8rT",
          "is_accessible": false
        },
        "name": "Assembled Stair:Stair:1717000",
        "type": "stairs"
      },
      "type": "Feature"
    },
    {
      "geometry": {
        "coordinates": [
          -122.8083189584778,
          53.885057082284604
        ],
        "type": "Point"
      },
      "id": 100057,
      "properties": {
        "building_id": "unbc",
        "floor": 2,
        "id": 100057,
        "metadata": {
          "ifc_class": "IfcStair",
          "ifc_express_id": 573649,
          "ifc_global_id": "2DIGqAO$r3AOgmfxj9FtN1",
          "is_accessible": false
        },
        "name": "Assembled Stair:Stair:1779326",
        "type": "stairs"
      },
      "type": "Feature"
    },
    {
      "geometry": {
        "coordinates": [
          -122.8083189584778,
          53.885057082284604
        ],
        "type": "Point"
      },
      "id": 100058,
      "properties": {
        "building_id": "unbc",
        "floor": 2,
        "id": 100058,
        "metadata": {
          "ifc_class": "IfcStair",
          "ifc_express_id": 575267,
          "ifc_global_id": "2DIGqAO$r3AOgmfxj9FtLq",
          "is_accessible": false
        },
        "name": "Assembled Stair:Stair:1779403",
        "type": "stairs"
      },
      "type": "Feature"
    },
    {
      "geometry": {
        "coordinates": [
          -122.8083189584778,
          53.885057082284604
        ],
        "type": "Point"
      },
      "id": 100059,
      "properties": {
        "building_id": "unbc",
        "floor": 2,
        "id": 100059,
        "metadata": {
          "ifc_class": "IfcStair",
          "ifc_express_id": 575708,
          "ifc_global_id": "2DIGqAO$r3AOgmfxj9FtIk",
          "is_accessible": false
        },
        "name": "Assembled Stair:Stair:1779473",
        "type": "stairs"
      },
      "type": "Feature"
    },
    {
      "geometry": {
        "coordinates": [
          -122.8083189584778,
          53.885057082284604
        ],
        "type": "Point"
      },
      "id": 100060,
      "properties": {
        "building_id": "unbc",
        "floor": 2,
        "id": 100060,
        "metadata": {
          "ifc_class": "IfcStair",
          "ifc_express_id": 576434,
          "ifc_global_id": "2DIGqAO$r3AOgmfxj9FtIO",
          "is_accessible": false
        },
        "name": "Assembled Stair:Stair:1779495",
        "type": "stairs"
      },
      "type": "Feature"
    },
    {
      "geometry": {
        "coordinates": [
          -122.8083189584778,
          53.885057082284604
        ],
        "type": "Point"
      },
      "id": 100061,
      "properties": {
        "building_id": "unbc",
        "floor": 2,
        "id": 100061,
        "metadata": {
          "ifc_class": "IfcStair",
          "ifc_express_id": 577433,
          "ifc_global_id": "2DIGqAO$r3AOgmfxj9FtGR",
          "is_accessible": false
        },
        "name": "Assembled Stair:Stair:1779620",
        "type": "stairs"
      },
      "type": "Feature"
    },
    {
      "geometry": {
        "coordinates": [
          -122.8083189584778,
          53.885057082284604
        ],
        "type": "Point"
      },
      "id": 100069,
      "properties": {
        "building_id": "unbc",
        "floor": 2,
        "id": 100069,
        "metadata": {
          "ifc_class": "IfcStair",
          "ifc_express_id": 623788,
          "ifc_global_id": "0ZSraayR90sAgHtHtWfiuZ",
          "is_accessible": false
        },
        "name": "Assembled Stair:Stair:1903824",
        "type": "stairs"
      },
      "type": "Feature"
    },
    {
      "geometry": {
        "coordinates": [
          -122.8083189584778,
          53.885057082284604
        ],
        "type": "Point"
      },
      "id": 100076,
      "properties": {
        "building_id": "unbc",
        "floor": 2,
        "id": 100076,
        "metadata": {
          "ifc_class": "IfcStair",
          "ifc_express_id": 647803,
          "ifc_global_id": "2zGkaY_nf40PM3ROtXTbFp",
          "is_accessible": false
        },
        "name": "Assembled Stair:Stair:1988738",
        "type": "stairs"
      },
      "type": "Feature"
    },
    {
      "geometry": {
        "coordinates": [
          -122.8083189584778,
          53.885057082284604
        ],
        "type": "Point"
      },
      "id": 100081,
      "properties": {
        "building_id": "unbc",
        "floor": 2,
        "id": 100081,
        "metadata": {
          "ifc_class": "IfcStair",
          "ifc_express_id": 659642,
          "ifc_global_id": "0lFRJnUIb2PR9eNvbVIp_Y",
          "is_accessible": false
        },
        "name": "Assembled Stair:Stair:2046769",
        "type": "stairs"
      },
      "type": "Feature"
    },
    {
      "geometry": {
        "coordinates": [
          -122.8083189584778,
          53.885057082284604
        ],
        "type": "Point"
      },
      "id": 100082,
      "properties": {
        "building_id": "unbc",
        "floor": 2,
        "id": 100082,
        "metadata": {
          "ifc_class": "IfcStair",
          "ifc_express_id": 660056,
          "ifc_global_id": "0lFRJnUIb2PR9eNvbVIph7",
          "is_accessible": false
        },
        "name": "Assembled Stair:Stair:2047572",
        "type": "stairs"
      },
      "type": "Feature"
    },
    {
      "geometry": {
        "coordinates": [
          -122.8083189584778,
          53.885057082284604
        ],
        "type": "Point"
      },
      "id": 100091,
      "properties": {
        "building_id": "unbc",
        "floor": 2,
        "id": 100091,
        "metadata": {
          "ifc_class": "IfcStair",
          "ifc_express_id": 690725,
          "ifc_global_id": "1SeeveeEbFwOFwia3GyI45",
          "is_accessible": false
        },
        "name": "Assembled Stair:Stair:2160665",
        "type": "stairs"
      },
      "type": "Feature"
    },
    {
      "geometry": {
        "coordinates": [
          -122.8083189584778,
          53.885057082284604
        ],
        "type": "Point"
      },
      "id": 100096,
      "properties": {
        "building_id": "unbc",
        "floor": 2,
        "id": 100096,
        "metadata": {
          "ifc_class": "IfcStair",
          "ifc_express_id": 698057,
          "ifc_global_id": "2XKCSFC25C88SC7qEEHvbH",
          "is_accessible": false
        },
        "name": "Assembled Stair:Stair:2193439",
        "type": "stairs"
      },
      "type": "Feature"
    },
    {
      "geometry": {
        "coordinates": [
          -122.8083189584778,
          53.885057082284604
        ],
        "type": "Point"
      },
      "id": 100099,
      "properties": {
        "building_id": "unbc",
        "floor": 2,
        "id": 100099,
        "metadata": {
          "ifc_class": "IfcStair",
          "ifc_express_id": 830035,
          "ifc_global_id": "08PQaDD8f2FBLNru5bYEjK",
          "is_accessible": false
        },
        "name": "Assembled Stair:Stair:2349441",
        "type": "stairs"
      },
      "type": "Feature"
    },
    {
      "geometry": {
        "coordinates": [
          -122.8083189584778,
          53.885057082284604
        ],
        "type": "Point"
      },
      "id": 100101,
      "properties": {
        "building_id": "unbc",
        "floor": 2,
        "id": 100101,
        "metadata": {
          "ifc_class": "IfcStair",
          "ifc_express_id": 830845,
          "ifc_global_id": "08PQaDD8f2FBLNru5bYDyJ",
          "is_accessible": false
        },
        "name": "Assembled Stair:Stair:2354630",
        "type": "stairs"
      },
      "type": "Feature"
    },
    {
      "geometry": {
        "coordinates": [
          -122.8083189584778,
          53.885057082284604
        ],
        "type": "Point"
      },
      "id": 100028,
      "properties": {
        "building_id": "unbc",
        "floor": 1.5,
        "id": 100028,
        "metadata": {
          "ifc_class": "IfcStair",
          "ifc_express_id": 267086,
          "ifc_global_id": "1C$I8a5r5E1AUHaWET1Qun",
          "is_accessible": false
        },
        "name": "Assembled Stair:Stair:1429108",
        "type": "stairs"
      },
      "type": "Feature"
    },
    {
      "geometry": {
        "coordinates": [
          -122.8083189584778,
          53.885057082284604
        ],
        "type": "Point"
      },
      "id": 100029,
      "properties": {
        "building_id": "unbc",
        "floor": 1.5,
        "id": 100029,
        "metadata": {
          "ifc_class": "IfcStair",
          "ifc_express_id": 267247,
          "ifc_global_id": "1C$I8a5r5E1AUHaWET1RAX",
          "is_accessible": false
        },
        "name": "Assembled Stair:Stair:1430244",
        "type": "stairs"
      },
      "type": "Feature"
    },
    {
      "geometry": {
        "coordinates": [
          -122.8083189584778,
          53.885057082284604
        ],
        "type": "Point"
      },
      "id": 100031,
      "properties": {
        "building_id": "unbc",
        "floor": 1.5,
        "id": 100031,
        "metadata": {
          "ifc_class": "IfcStair",
          "ifc_express_id": 271447,
          "ifc_global_id": "3UYkkqfe16QQ4wX1RQ6OMI",
          "is_accessible": false
        },
        "name": "Assembled Stair:Stair:1470884",
        "type": "stairs"
      },
      "type": "Feature"
    },
    {
      "geometry": {
        "coordinates": [
          -122.8083189584778,
          53.885057082284604
        ],
        "type": "Point"
      },
      "id": 100055,
      "properties": {
        "building_id": "unbc",
        "floor": 1.5,
        "id": 100055,
        "metadata": {
          "ifc_class": "IfcStair",
          "ifc_express_id": 544593,
          "ifc_global_id": "3mr2ulURfCpvHpEvBk0Mns",
          "is_accessible": false
        },
        "name": "Assembled Stair:Stair:1727059",
        "type": "stairs"
      },
      "type": "Feature"
    },
    {
      "geometry": {
        "coordinates": [
          -122.8083189584778,
          53.885057082284604
        ],
        "type": "Point"
      },
      "id": 100056,
      "properties": {
        "building_id": "unbc",
        "floor": 1.5,
        "id": 100056,
        "metadata": {
          "ifc_class": "IfcStair",
          "ifc_express_id": 544818,
          "ifc_global_id": "3mr2ulURfCpvHpEvBk0LQi",
          "is_accessible": false
        },
        "name": "Assembled Stair:Stair:1728649",
        "type": "stairs"
      },
      "type": "Feature"
    },
    {
      "geometry": {
        "coordinates": [
          -122.8083189584778,
          53.885057082284604
        ],
        "type": "Point"
      },
      "id": 100066,
      "properties": {
        "building_id": "unbc",
        "floor": 1.5,
        "id": 100066,
        "metadata": {
          "ifc_class": "IfcStair",
          "ifc_express_id": 605098,
          "ifc_global_id": "0e9n0d93L2$ufdyyEWIZYw",
          "is_accessible": false
        },
        "name": "Assembled Stair:Stair:1844188",
        "type": "stairs"
      },
      "type": "Feature"
    },
    {
      "geometry": {
        "coordinates": [
          -122.8083189584778,
          53.885057082284604
        ],
        "type": "Point"
      },
      "id": 100067,
      "properties": {
        "building_id": "unbc",
        "floor": 1.5,
        "id": 100067,
        "metadata": {
          "ifc_class": "IfcStair",
          "ifc_express_id": 612415,
          "ifc_global_id": "04cSIL2cbCDvimujr8XISm",
          "is_accessible": false
        },
        "name": "Assembled Stair:Stair:1858181",
        "type": "stairs"
      },
      "type": "Feature"
    },
    {
      "geometry": {
        "coordinates": [
          -122.8083189584778,
          53.885057082284604
        ],
        "type": "Point"
      },
      "id": 100068,
      "properties": {
        "building_id": "unbc",
        "floor": 1.5,
        "id": 100068,
        "metadata": {
          "ifc_class": "IfcStair",
          "ifc_express_id": 612679,
          "ifc_global_id": "04cSIL2cbCDvimujr8XHKm",
          "is_accessible": false
        },
        "name": "Assembled Stair:Stair:1861765",
        "type": "stairs"
      },
      "type": "Feature"
    },
    {
      "geometry": {
        "coordinates": [
          -122.8083189584778,
          53.885057082284604
        ],
        "type": "Point"
      },
      "id": 100074,
      "properties": {
        "building_id": "unbc",
        "floor": 1.5,
        "id": 100074,
        "metadata": {
          "ifc_class": "IfcStair",
          "ifc_express_id": 646509,
          "ifc_global_id": "0sybfFbD141uNShY1vAdLk",
          "is_accessible": false
        },
        "name": "Assembled Stair:Stair:1979157",
        "type": "stairs"
      },
      "type": "Feature"
    },
    {
      "geometry": {
        "coordinates": [
          -122.8083189584778,
          53.885057082284604
        ],
        "type": "Point"
      },
      "id": 100080,
      "properties": {
        "building_id": "unbc",
        "floor": 1.5,
        "id": 100080,
        "metadata": {
          "ifc_class": "IfcStair",
          "ifc_express_id": 659357,
          "ifc_global_id": "0lFRJnUIb2PR9eNvbVIp4G",
          "is_accessible": false
        },
        "name": "Assembled Stair:Stair:2045315",
        "type": "stairs"
      },
      "type": "Feature"
    },
    {
      "geometry": {
        "coordinates": [
          -122.8083189584778,
          53.885057082284604
        ],
        "type": "Point"
      },
      "id": 100033,
      "properties": {
        "building_id": "unbc",
        "floor": 4,
        "id": 100033,
        "metadata": {
          "ifc_class": "IfcStair",
          "ifc_express_id": 283641,
          "ifc_global_id": "31RHzaJ8v3$g0VLVRGElz5",
          "is_accessible": false
        },
        "name": "Assembled Stair:Stair:1496383",
        "type": "stairs"
      },
      "type": "Feature"
    },
    {
      "geometry": {
        "coordinates": [
          -122.8083189584778,
          53.885057082284604
        ],
        "type": "Point"
      },
      "id": 100035,
      "properties": {
        "building_id": "unbc",
        "floor": 4,
        "id": 100035,
        "metadata": {
          "ifc_class": "IfcStair",
          "ifc_express_id": 290231,
          "ifc_global_id": "20PjmL01C_Pp8RVHPxCyui",
          "is_accessible": false
        },
        "name": "Assembled Stair:Stair:1498360:2",
        "type": "stairs"
      },
      "type": "Feature"
    },
    {
      "geometry": {
        "coordinates": [
          -122.8083189584778,
          53.885057082284604
        ],
        "type": "Point"
      },
      "id": 100043,
      "properties": {
        "building_id": "unbc",
        "floor": 4,
        "id": 100043,
        "metadata": {
          "ifc_class": "IfcStair",
          "ifc_express_id": 369246,
          "ifc_global_id": "31RHzaJ8v3$g0VLVRGEjPY",
          "is_accessible": false
        },
        "name": "Assembled Stair:Stair:1506328",
        "type": "stairs"
      },
      "type": "Feature"
    },
    {
      "geometry": {
        "coordinates": [
          -122.8083189584778,
          53.885057082284604
        ],
        "type": "Point"
      },
      "id": 100078,
      "properties": {
        "building_id": "unbc",
        "floor": 4,
        "id": 100078,
        "metadata": {
          "ifc_class": "IfcStair",
          "ifc_express_id": 648434,
          "ifc_global_id": "2sYCUK$mENOD_KNjZvxHMf",
          "is_accessible": false
        },
        "name": "Assembled Stair:Stair:1988738:3",
        "type": "stairs"
      },
      "type": "Feature"
    },
    {
      "geometry": {
        "coordinates": [
          -122.8083189584778,
          53.885057082284604
        ],
        "type": "Point"
      },
      "id": 100093,
      "properties": {
        "building_id": "unbc",
        "floor": 4,
        "id": 100093,
        "metadata": {
          "ifc_class": "IfcStair",
          "ifc_express_id": 691922,
          "ifc_global_id": "1SeeveeEbFwOFwia3GyDaE",
          "is_accessible": false
        },
        "name": "Assembled Stair:Stair:2162706",
        "type": "stairs"
      },
      "type": "Feature"
    },
    {
      "geometry": {
        "coordinates": [
          -122.8083189584778,
          53.885057082284604
        ],
        "type": "Point"
      },
      "id": 100045,
      "properties": {
        "building_id": "unbc",
        "floor": 1.25,
        "id": 100045,
        "metadata": {
          "ifc_class": "IfcStair",
          "ifc_express_id": 407087,
          "ifc_global_id": "1l82OPgNbCsQg02BSgjBcE",
          "is_accessible": false
        },
        "name": "Assembled Stair:Stair:1515631",
        "type": "stairs"
      },
      "type": "Feature"
    },
    {
      "geometry": {
        "coordinates": [
          -122.8083189584778,
          53.885057082284604
        ],
        "type": "Point"
      },
      "id": 100075,
      "properties": {
        "building_id": "unbc",
        "floor": 1.25,
        "id": 100075,
        "metadata": {
          "ifc_class": "IfcStair",
          "ifc_express_id": 647171,
          "ifc_global_id": "0sybfFbD141uNShY1vAdca",
          "is_accessible": false
        },
        "name": "Assembled Stair:Stair:1982431",
        "type": "stairs"
      },
      "type": "Feature"
    },
    {
      "geometry": {
        "coordinates": [
          -122.8083189584778,
          53.885057082284604
        ],
        "type": "Point"
      },
      "id": 100079,
      "properties": {
        "building_id": "unbc",
        "floor": 1.25,
        "id": 100079,
        "metadata": {
          "ifc_class": "IfcStair",
          "ifc_express_id": 654645,
          "ifc_global_id": "1UOxJgB2v8_OQ9h_fGxJlO",
          "is_accessible": false
        },
        "name": "Assembled Stair:Stair:2024027",
        "type": "stairs"
      },
      "type": "Feature"
    },
    {
      "geometry": {
        "coordinates": [
          -122.8083189584778,
          53.885057082284604
        ],
        "type": "Point"
      },
      "id": 100089,
      "properties": {
        "building_id": "unbc",
        "floor": 1.25,
        "id": 100089,
        "metadata": {
          "ifc_class": "IfcStair",
          "ifc_express_id": 681454,
          "ifc_global_id": "0IJLgteqj8Y8ayrbA1VSyA",
          "is_accessible": false
        },
        "name": "Assembled Stair:Stair:2140032",
        "type": "stairs"
      },
      "type": "Feature"
    },
    {
      "geometry": {
        "coordinates": [
          -122.8083189584778,
          53.885057082284604
        ],
        "type": "Point"
      },
      "id": 100094,
      "properties": {
        "building_id": "unbc",
        "floor": 1.25,
        "id": 100094,
        "metadata": {
          "ifc_class": "IfcStair",
          "ifc_express_id": 697178,
          "ifc_global_id": "2XKCSFC25C88SC7qEEHuzC",
          "is_accessible": false
        },
        "name": "Assembled Stair:Stair:2190850",
        "type": "stairs"
      },
      "type": "Feature"
    },
    {
      "geometry": {
        "coordinates": [
          -122.8083189584778,
          53.885057082284604
        ],
        "type": "Point"
      },
      "id": 100095,
      "properties": {
        "building_id": "unbc",
        "floor": 1.25,
        "id": 100095,
        "metadata": {
          "ifc_class": "IfcStair",
          "ifc_express_id": 697713,
          "ifc_global_id": "2XKCSFC25C88SC7qEEHvRZ",
          "is_accessible": false
        },
        "name": "Assembled Stair:Stair:2193325",
        "type": "stairs"
      },
      "type": "Feature"
    },
    {
      "geometry": {
        "coordinates": [
          -122.8083189584778,
          53.885057082284604
        ],
        "type": "Point"
      },
      "id": 100097,
      "properties": {
        "building_id": "unbc",
        "floor": 1.25,
        "id": 100097,
        "metadata": {
          "ifc_class": "IfcStair",
          "ifc_express_id": 698402,
          "ifc_global_id": "2XKCSFC25C88SC7qEEHvat",
          "is_accessible": false
        },
        "name": "Assembled Stair:Stair:2193529",
        "type": "stairs"
      },
      "type": "Feature"
    },
    {
      "geometry": {
        "coordinates": [
          -122.8083189584778,
          53.885057082284604
        ],
        "type": "Point"
      },
      "id": 100104,
      "properties": {
        "building_id": "unbc",
        "floor": 1.25,
        "id": 100104,
        "metadata": {
          "ifc_class": "IfcStair",
          "ifc_express_id": 904153,
          "ifc_global_id": "1BRD7Jckz4DOeYpgXMwVsy",
          "is_accessible": false
        },
        "name": "Assembled Stair:Stair:2474568",
        "type": "stairs"
      },
      "type": "Feature"
    }
  ],
  "type": "FeatureCollection"
}