{
  "type": "FeatureCollection",
  "features": [
    {
      "type": "Feature",
      "properties": {
        "access_type": "public",
        "from_level_id": null,
        "is_accessible": true,
        "level_id": 0,
        "network_type": "corridor",
        "to_level_id": null,
        "vertical_connection_id": null,
        "building_id": "science",
        "building_name": "Science Hall"
      },
      "geometry": {
        "type": "LineString",
        "coordinates": [
          [-0.1649155, 51.5076678],
          [-0.1649155, 51.5077037],
          [-0.1649155, 51.5077711]
        ]
      }
    },
    {
      "type": "Feature",
      "properties": {
        "access_type": "public",
        "from_level_id": null,
        "is_accessible": true,
        "level_id": 0,
        "network_type": "corridor",
        "to_level_id": null,
        "vertical_connection_id": null,
        "building_id": "science",
        "building_name": "Science Hall"
      },
      "geometry": {
        "type": "LineString",
        "coordinates": [
          [-0.1643671, 51.5076678],
          [-0.1643671, 51.5077037],
          [-0.1643671, 51.5077711]
        ]
      }
    },
    {
      "type": "Feature",
      "properties": {
        "access_type": "public",
        "from_level_id": null,
        "is_accessible": true,
        "level_id": 0,
        "network_type": "corridor",
        "to_level_id": null,
        "vertical_connection_id": null,
        "building_id": "science",
        "building_name": "Science Hall"
      },
      "geometry": {
        "type": "LineString",
        "coordinates": [
          [-0.1649371, 51.5076678],
          [-0.1649371, 51.5076319],
          [-0.1649371, 51.5075645]
        ]
      }
    },
    {
      "type": "Feature",
      "properties": {
        "access_type": "public",
        "from_level_id": null,
        "is_accessible": true,
        "level_id": 0,
        "network_type": "corridor",
        "to_level_id": null,
        "vertical_connection_id": null,
        "building_id": "science",
        "building_name": "Science Hall"
      },
      "geometry": {
        "type": "LineString",
        "coordinates": [
          [-0.1651825, 51.5076678],
          [-0.165067, 51.5076678],
          [-0.1649371, 51.5076678],
          [-0.1649155, 51.5076678],
          [-0.1646341, 51.5076678],
          [-0.1643671, 51.5076678],
          [-0.1642299, 51.5076678],
          [-0.1640856, 51.5076678]
        ]
      }
    },
    {
      "type": "Feature",
      "properties": {
        "access_type": "public",
        "from_level_id": null,
        "is_accessible": true,
        "level_id": 1,
        "network_type": "corridor",
        "to_level_id": null,
        "vertical_connection_id": null,
        "building_id": "science",
        "building_name": "Science Hall"
      },
      "geometry": {
        "type": "LineString",
        "coordinates": [
          [-0.1649153, 51.5076678],
          [-0.1649153, 51.5077037],
          [-0.1649153, 51.5077711]
        ]
      }
    },
    {
      "type": "Feature",
      "properties": {
        "access_type": "public",
        "from_level_id": null,
        "is_accessible": true,
        "level_id": 1,
        "network_type": "corridor",
        "to_level_id": null,
        "vertical_connection_id": null,
        "building_id": "science",
        "building_name": "Science Hall"
      },
      "geometry": {
        "type": "LineString",
        "coordinates": [
          [-0.16436689999999998, 51.5076678],
          [-0.16436689999999998, 51.5077037],
          [-0.16436689999999998, 51.5077711]
        ]
      }
    },
    {
      "type": "Feature",
      "properties": {
        "access_type": "public",
        "from_level_id": null,
        "is_accessible": true,
        "level_id": 1,
        "network_type": "corridor",
        "to_level_id": null,
        "vertical_connection_id": null,
        "building_id": "science",
        "building_name": "Science Hall"
      },
      "geometry": {
        "type": "LineString",
        "coordinates": [
          [-0.16464109999999998, 51.5076678],
          [-0.16464109999999998, 51.5076319],
          [-0.16464109999999998, 51.5075645]
        ]
      }
    },
    {
      "type": "Feature",
      "properties": {
        "access_type": "public",
        "from_level_id": null,
        "is_accessible": true,
        "level_id": 1,
        "network_type": "corridor",
        "to_level_id": null,
        "vertical_connection_id": null,
        "building_id": "science",
        "building_name": "Science Hall"
      },
      "geometry": {
        "type": "LineString",
        "coordinates": [
          [-0.1651823, 51.5076678],
          [-0.16506679999999999, 51.5076678],
          [-0.1649153, 51.5076678],
          [-0.16464109999999998, 51.5076678],
          [-0.16436689999999998, 51.5076678],
          [-0.1642297, 51.5076678],
          [-0.1640854, 51.5076678],
          [-0.1640566, 51.5076678]
        ]
      }
    },
    {
      "type": "Feature",
      "properties": {
        "access_type": "public",
        "from_level_id": null,
        "is_accessible": true,
        "level_id": 2,
        "network_type": "corridor",
        "to_level_id": null,
        "vertical_connection_id": null,
        "building_id": "science",
        "building_name": "Science Hall"
      },
      "geometry": {
        "type": "LineString",
        "coordinates": [
          [-0.16491509999999998, 51.5076678],
          [-0.16491509999999998, 51.5077037],
          [-0.16491509999999998, 51.5077711]
        ]
      }
    },
    {
      "type": "Feature",
      "properties": {
        "access_type": "public",
        "from_level_id": null,
        "is_accessible": true,
        "level_id": 2,
        "network_type": "corridor",
        "to_level_id": null,
        "vertical_connection_id": null,
        "building_id": "science",
        "building_name": "Science Hall"
      },
      "geometry": {
        "type": "LineString",
        "coordinates": [
          [-0.16436669999999998, 51.5076678],
          [-0.16436669999999998, 51.5077037],
          [-0.16436669999999998, 51.5077711]
        ]
      }
    },
    {
      "type": "Feature",
      "properties": {
        "access_type": "public",
        "from_level_id": null,
        "is_accessible": true,
        "level_id": 2,
        "network_type": "corridor",
        "to_level_id": null,
        "vertical_connection_id": null,
        "building_id": "science",
        "building_name": "Science Hall"
      },
      "geometry": {
        "type": "LineString",
        "coordinates": [
          [-0.16464089999999998, 51.5076678],
          [-0.16464089999999998, 51.5076319],
          [-0.16464089999999998, 51.5075645]
        ]
      }
    },
    {
      "type": "Feature",
      "properties": {
        "access_type": "public",
        "from_level_id": null,
        "is_accessible": true,
        "level_id": 2,
        "network_type": "corridor",
        "to_level_id": null,
        "vertical_connection_id": null,
        "building_id": "science",
        "building_name": "Science Hall"
      },
      "geometry": {
        "type": "LineString",
        "coordinates": [
          [-0.1651821, 51.5076678],
          [-0.16506659999999998, 51.5076678],
          [-0.16491509999999998, 51.5076678],
          [-0.16464089999999998, 51.5076678],
          [-0.16436669999999998, 51.5076678],
          [-0.1642295, 51.5076678],
          [-0.1640852, 51.5076678]
        ]
      }
    },
    {
      "type": "Feature",
      "properties": {
        "access_type": "public",
        "from_level_id": null,
        "is_accessible": true,
        "level_id": 3,
        "network_type": "corridor",
        "to_level_id": null,
        "vertical_connection_id": null,
        "building_id": "science",
        "building_name": "Science Hall"
      },
      "geometry": {
        "type": "LineString",
        "coordinates": [
          [-0.1646407, 51.5076678],
          [-0.1646407, 51.5077037],
          [-0.1646407, 51.5077711]
        ]
      }
    },
    {
      "type": "Feature",
      "properties": {
        "access_type": "public",
        "from_level_id": null,
        "is_accessible": true,
        "level_id": 3,
        "network_type": "corridor",
        "to_level_id": null,
        "vertical_connection_id": null,
        "building_id": "science",
        "building_name": "Science Hall"
      },
      "geometry": {
        "type": "LineString",
        "coordinates": [
          [-0.1646407, 51.5076678],
          [-0.1646407, 51.5076319],
          [-0.1646407, 51.5075645]
        ]
      }
    },
    {
      "type": "Feature",
      "properties": {
        "access_type": "public",
        "from_level_id": null,
        "is_accessible": true,
        "level_id": 3,
        "network_type": "corridor",
        "to_level_id": null,
        "vertical_connection_id": null,
        "building_id": "science",
        "building_name": "Science Hall"
      },
      "geometry": {
        "type": "LineString",
        "coordinates": [
          [-0.16518190000000002, 51.5076678],
          [-0.1650664, 51.5076678],
          [-0.1646407, 51.5076678],
          [-0.16422930000000002, 51.5076678],
          [-0.164085, 51.5076678]
        ]
      }
    },
    {
      "type": "Feature",
      "properties": {
        "access_type": "public",
        "from_level_id": null,
        "is_accessible": true,
        "level_id": 0,
        "network_type": "corridor",
        "to_level_id": null,
        "vertical_connection_id": null,
        "building_id": "science",
        "building_name": "Science Hall"
      },
      "geometry": {
        "type": "LineString",
        "coordinates": [
          [-0.1646341, 51.5076678],
          [-0.1646341, 51.5074881]
        ]
      }
    },
    {
      "type": "Feature",
      "properties": {
        "access_type": "public",
        "from_level_id": 0,
        "is_accessible": false,
        "level_id": null,
        "network_type": "stairs",
        "to_level_id": 1,
        "vertical_connection_id": "science-stairs",
        "cost": 60,
        "building_id": "science",
        "building_name": "Science Hall"
      },
      "geometry": {
        "type": "LineString",
        "coordinates": [
          [-0.165067, 51.5076678],
          [-0.16506679999999999, 51.5076678]
        ]
      }
    },
    {
      "type": "Feature",
      "properties": {
        "access_type": "public",
        "from_level_id": 1,
        "is_accessible": false,
        "level_id": null,
        "network_type": "stairs",
        "to_level_id": 2,
        "vertical_connection_id": "science-stairs",
        "cost": 60,
        "building_id": "science",
        "building_name": "Science Hall"
      },
      "geometry": {
        "type": "LineString",
        "coordinates": [
          [-0.16506679999999999, 51.5076678],
          [-0.16506659999999998, 51.5076678]
        ]
      }
    },
    {
      "type": "Feature",
      "properties": {
        "access_type": "public",
        "from_level_id": 2,
        "is_accessible": false,
        "level_id": null,
        "network_type": "stairs",
        "to_level_id": 3,
        "vertical_connection_id": "science-stairs",
        "cost": 60,
        "building_id": "science",
        "building_name": "Science Hall"
      },
      "geometry": {
        "type": "LineString",
        "coordinates": [
          [-0.16506659999999998, 51.5076678],
          [-0.1650664, 51.5076678]
        ]
      }
    },
    {
      "type": "Feature",
      "properties": {
        "access_type": "public",
        "from_level_id": 0,
        "is_accessible": true,
        "level_id": null,
        "network_type": "elevator",
        "to_level_id": 0,
        "vertical_connection_id": "science-elevator",
        "cost": 45,
        "building_id": "science",
        "building_name": "Science Hall"
      },
      "geometry": {
        "type": "LineString",
        "coordinates": [
          [-0.1642299, 51.5076678],
          [-0.1642299, 51.5076679]
        ]
      }
    },
    {
      "type": "Feature",
      "properties": {
        "access_type": "public",
        "from_level_id": 1,
        "is_accessible": true,
        "level_id": null,
        "network_type": "elevator",
        "to_level_id": 1,
        "vertical_connection_id": "science-elevator",
        "cost": 45,
        "building_id": "science",
        "building_name": "Science Hall"
      },
      "geometry": {
        "type": "LineString",
        "coordinates": [
          [-0.1642297, 51.5076678],
          [-0.1642297, 51.5076679]
        ]
      }
    },
    {
      "type": "Feature",
      "properties": {
        "access_type": "public",
        "from_level_id": 2,
        "is_accessible": true,
        "level_id": null,
        "network_type": "elevator",
        "to_level_id": 2,
        "vertical_connection_id": "science-elevator",
        "cost": 45,
        "building_id": "science",
        "building_name": "Science Hall"
      },
      "geometry": {
        "type": "LineString",
        "coordinates": [
          [-0.1642295, 51.5076678],
          [-0.1642295, 51.5076679]
        ]
      }
    },
    {
      "type": "Feature",
      "properties": {
        "access_type": "public",
        "from_level_id": 3,
        "is_accessible": true,
        "level_id": null,
        "network_type": "elevator",
        "to_level_id": 3,
        "vertical_connection_id": "science-elevator",
        "cost": 45,
        "building_id": "science",
        "building_name": "Science Hall"
      },
      "geometry": {
        "type": "LineString",
        "coordinates": [
          [-0.16422930000000002, 51.5076678],
          [-0.16422930000000002, 51.5076679]
        ]
      }
    },
    {
      "type": "Feature",
      "properties": {
        "access_type": "public",
        "from_level_id": 0,
        "is_accessible": true,
        "level_id": null,
        "network_type": "elevator",
        "to_level_id": 1,
        "vertical_connection_id": "science-elevator",
        "cost": 15,
        "building_id": "science",
        "building_name": "Science Hall"
      },
      "geometry": {
        "type": "LineString",
        "coordinates": [
          [-0.1642299, 51.5076679],
          [-0.1642297, 51.5076679]
        ]
      }
    },
    {
      "type": "Feature",
      "properties": {
        "access_type": "public",
        "from_level_id": 1,
        "is_accessible": true,
        "level_id": null,
        "network_type": "elevator",
        "to_level_id": 2,
        "vertical_connection_id": "science-elevator",
        "cost": 15,
        "building_id": "science",
        "building_name": "Science Hall"
      },
      "geometry": {
        "type": "LineString",
        "coordinates": [
          [-0.1642297, 51.5076679],
          [-0.1642295, 51.5076679]
        ]
      }
    },
    {
      "type": "Feature",
      "properties": {
        "access_type": "public",
        "from_level_id": 2,
        "is_accessible": true,
        "level_id": null,
        "network_type": "elevator",
        "to_level_id": 3,
        "vertical_connection_id": "science-elevator",
        "cost": 15,
        "building_id": "science",
        "building_name": "Science Hall"
      },
      "geometry": {
        "type": "LineString",
        "coordinates": [
          [-0.1642295, 51.5076679],
          [-0.16422930000000002, 51.5076679]
        ]
      }
    },
    {
      "type": "Feature",
      "properties": {
        "access_type": "public",
        "from_level_id": null,
        "is_accessible": true,
        "level_id": 0,
        "network_type": "corridor",
        "to_level_id": null,
        "vertical_connection_id": null,
        "building_id": "library",
        "building_name": "Library"
      },
      "geometry": {
        "type": "LineString",
        "coordinates": [
          [-0.1626063, 51.5076678],
          [-0.1626063, 51.5077037],
          [-0.1626063, 51.5077711]
        ]
      }
    },
    {
      "type": "Feature",
      "properties": {
        "access_type": "public",
        "from_level_id": null,
        "is_accessible": true,
        "level_id": 0,
        "network_type": "corridor",
        "to_level_id": null,
        "vertical_connection_id": null,
        "building_id": "library",
        "building_name": "Library"
      },
      "geometry": {
        "type": "LineString",
        "coordinates": [
          [-0.1620579, 51.5076678],
          [-0.1620579, 51.5077037],
          [-0.1620579, 51.5077711]
        ]
      }
    },
    {
      "type": "Feature",
      "properties": {
        "access_type": "public",
        "from_level_id": null,
        "is_accessible": true,
        "level_id": 0,
        "network_type": "corridor",
        "to_level_id": null,
        "vertical_connection_id": null,
        "building_id": "library",
        "building_name": "Library"
      },
      "geometry": {
        "type": "LineString",
        "coordinates": [
          [-0.1626279, 51.5076678],
          [-0.1626279, 51.5076319],
          [-0.1626279, 51.5075645]
        ]
      }
    },
    {
      "type": "Feature",
      "properties": {
        "access_type": "public",
        "from_level_id": null,
        "is_accessible": true,
        "level_id": 0,
        "network_type": "corridor",
        "to_level_id": null,
        "vertical_connection_id": null,
        "building_id": "library",
        "building_name": "Library"
      },
      "geometry": {
        "type": "LineString",
        "coordinates": [
          [-0.1628733, 51.5076678],
          [-0.162729, 51.5076678],
          [-0.1626279, 51.5076678],
          [-0.1626063, 51.5076678],
          [-0.1623249, 51.5076678],
          [-0.1620579, 51.5076678],
          [-0.1618919, 51.5076678],
          [-0.1617764, 51.5076678]
        ]
      }
    },
    {
      "type": "Feature",
      "properties": {
        "access_type": "public",
        "from_level_id": null,
        "is_accessible": true,
        "level_id": 1,
        "network_type": "corridor",
        "to_level_id": null,
        "vertical_connection_id": null,
        "building_id": "library",
        "building_name": "Library"
      },
      "geometry": {
        "type": "LineString",
        "coordinates": [
          [-0.1626061, 51.5076678],
          [-0.1626061, 51.5077037],
          [-0.1626061, 51.5077711]
        ]
      }
    },
    {
      "type": "Feature",
      "properties": {
        "access_type": "public",
        "from_level_id": null,
        "is_accessible": true,
        "level_id": 1,
        "network_type": "corridor",
        "to_level_id": null,
        "vertical_connection_id": null,
        "building_id": "library",
        "building_name": "Library"
      },
      "geometry": {
        "type": "LineString",
        "coordinates": [
          [-0.1620577, 51.5076678],
          [-0.1620577, 51.5077037],
          [-0.1620577, 51.5077711]
        ]
      }
    },
    {
      "type": "Feature",
      "properties": {
        "access_type": "public",
        "from_level_id": null,
        "is_accessible": true,
        "level_id": 1,
        "network_type": "corridor",
        "to_level_id": null,
        "vertical_connection_id": null,
        "building_id": "library",
        "building_name": "Library"
      },
      "geometry": {
        "type": "LineString",
        "coordinates": [
          [-0.1623319, 51.5076678],
          [-0.1623319, 51.5076319],
          [-0.1623319, 51.5075645]
        ]
      }
    },
    {
      "type": "Feature",
      "properties": {
        "access_type": "public",
        "from_level_id": null,
        "is_accessible": true,
        "level_id": 1,
        "network_type": "corridor",
        "to_level_id": null,
        "vertical_connection_id": null,
        "building_id": "library",
        "building_name": "Library"
      },
      "geometry": {
        "type": "LineString",
        "coordinates": [
          [-0.162902, 51.5076678],
          [-0.1628731, 51.5076678],
          [-0.1627288, 51.5076678],
          [-0.1626061, 51.5076678],
          [-0.1623319, 51.5076678],
          [-0.1620577, 51.5076678],
          [-0.1618917, 51.5076678],
          [-0.16177619999999998, 51.5076678]
        ]
      }
    },
    {
      "type": "Feature",
      "properties": {
        "access_type": "public",
        "from_level_id": null,
        "is_accessible": true,
        "level_id": 2,
        "network_type": "corridor",
        "to_level_id": null,
        "vertical_connection_id": null,
        "building_id": "library",
        "building_name": "Library"
      },
      "geometry": {
        "type": "LineString",
        "coordinates": [
          [-0.1623317, 51.5076678],
          [-0.1623317, 51.5077037],
          [-0.1623317, 51.5077711]
        ]
      }
    },
    {
      "type": "Feature",
      "properties": {
        "access_type": "public",
        "from_level_id": null,
        "is_accessible": true,
        "level_id": 2,
        "network_type": "corridor",
        "to_level_id": null,
        "vertical_connection_id": null,
        "building_id": "library",
        "building_name": "Library"
      },
      "geometry": {
        "type": "LineString",
        "coordinates": [
          [-0.1623317, 51.5076678],
          [-0.1623317, 51.5076319],
          [-0.1623317, 51.5075645]
        ]
      }
    },
    {
      "type": "Feature",
      "properties": {
        "access_type": "public",
        "from_level_id": null,
        "is_accessible": true,
        "level_id": 2,
        "network_type": "corridor",
        "to_level_id": null,
        "vertical_connection_id": null,
        "building_id": "library",
        "building_name": "Library"
      },
      "geometry": {
        "type": "LineString",
        "coordinates": [
          [-0.1628729, 51.5076678],
          [-0.1627286, 51.5076678],
          [-0.1623317, 51.5076678],
          [-0.1618915, 51.5076678],
          [-0.16177599999999998, 51.5076678]
        ]
      }
    },
    {
      "type": "Feature",
      "properties": {
        "access_type": "public",
        "from_level_id": null,
        "is_accessible": true,
        "level_id": 0,
        "network_type": "corridor",
        "to_level_id": null,
        "vertical_connection_id": null,
        "building_id": "library",
        "building_name": "Library"
      },
      "geometry": {
        "type": "LineString",
        "coordinates": [
          [-0.1623249, 51.5076678],
          [-0.1623249, 51.5074881]
        ]
      }
    },
    {
      "type": "Feature",
      "properties": {
        "access_type": "public",
        "from_level_id": 0,
        "is_accessible": true,
        "level_id": null,
        "network_type": "elevator",
        "to_level_id": 0,
        "vertical_connection_id": "library-elevator",
        "cost": 45,
        "building_id": "library",
        "building_name": "Library"
      },
      "geometry": {
        "type": "LineString",
        "coordinates": [
          [-0.162729, 51.5076678],
          [-0.162729, 51.5076679]
        ]
      }
    },
    {
      "type": "Feature",
      "properties": {
        "access_type": "public",
        "from_level_id": 1,
        "is_accessible": true,
        "level_id": null,
        "network_type": "elevator",
        "to_level_id": 1,
        "vertical_connection_id": "library-elevator",
        "cost": 45,
        "building_id": "library",
        "building_name": "Library"
      },
      "geometry": {
        "type": "LineString",
        "coordinates": [
          [-0.1627288, 51.5076678],
          [-0.1627288, 51.5076679]
        ]
      }
    },
    {
      "type": "Feature",
      "properties": {
        "access_type": "public",
        "from_level_id": 2,
        "is_accessible": true,
        "level_id": null,
        "network_type": "elevator",
        "to_level_id": 2,
        "vertical_connection_id": "library-elevator",
        "cost": 45,
        "building_id": "library",
        "building_name": "Library"
      },
      "geometry": {
        "type": "LineString",
        "coordinates": [
          [-0.1627286, 51.5076678],
          [-0.1627286, 51.5076679]
        ]
      }
    },
    {
      "type": "Feature",
      "properties": {
        "access_type": "public",
        "from_level_id": 0,
        "is_accessible": true,
        "level_id": null,
        "network_type": "elevator",
        "to_level_id": 1,
        "vertical_connection_id": "library-elevator",
        "cost": 15,
        "building_id": "library",
        "building_name": "Library"
      },
      "geometry": {
        "type": "LineString",
        "coordinates": [
          [-0.162729, 51.5076679],
          [-0.1627288, 51.5076679]
        ]
      }
    },
    {
      "type": "Feature",
      "properties": {
        "access_type": "public",
        "from_level_id": 1,
        "is_accessible": true,
        "level_id": null,
        "network_type": "elevator",
        "to_level_id": 2,
        "vertical_connection_id": "library-elevator",
        "cost": 15,
        "building_id": "library",
        "building_name": "Library"
      },
      "geometry": {
        "type": "LineString",
        "coordinates": [
          [-0.1627288, 51.5076679],
          [-0.1627286, 51.5076679]
        ]
      }
    },
    {
      "type": "Feature",
      "properties": {
        "access_type": "public",
        "from_level_id": 0,
        "is_accessible": false,
        "level_id": null,
        "network_type": "stairs",
        "to_level_id": 1,
        "vertical_connection_id": "library-stairs",
        "cost": 60,
        "building_id": "library",
        "building_name": "Library"
      },
      "geometry": {
        "type": "LineString",
        "coordinates": [
          [-0.1618919, 51.5076678],
          [-0.1618917, 51.5076678]
        ]
      }
    },
    {
      "type": "Feature",
      "properties": {
        "access_type": "public",
        "from_level_id": 1,
        "is_accessible": false,
        "level_id": null,
        "network_type": "stairs",
        "to_level_id": 2,
        "vertical_connection_id": "library-stairs",
        "cost": 60,
        "building_id": "library",
        "building_name": "Library"
      },
      "geometry": {
        "type": "LineString",
        "coordinates": [
          [-0.1618917, 51.5076678],
          [-0.1618915, 51.5076678]
        ]
      }
    },
    {
      "type": "Feature",
      "properties": {
        "access_type": "public",
        "from_level_id": null,
        "is_accessible": true,
        "level_id": 0,
        "network_type": "corridor",
        "to_level_id": null,
        "vertical_connection_id": null,
        "building_id": "union",
        "building_name": "Student Union"
      },
      "geometry": {
        "type": "LineString",
        "coordinates": [
          [-0.1638331, 51.5068593],
          [-0.1638331, 51.5068953],
          [-0.1638331, 51.5069626]
        ]
      }
    },
    {
      "type": "Feature",
      "properties": {
        "access_type": "public",
        "from_level_id": null,
        "is_accessible": true,
        "level_id": 0,
        "network_type": "corridor",
        "to_level_id": null,
        "vertical_connection_id": null,
        "building_id": "union",
        "building_name": "Student Union"
      },
      "geometry": {
        "type": "LineString",
        "coordinates": [
          [-0.1631114, 51.5068593],
          [-0.1631114, 51.5068953],
          [-0.1631114, 51.5069626]
        ]
      }
    },
    {
      "type": "Feature",
      "properties": {
        "access_type": "public",
        "from_level_id": null,
        "is_accessible": true,
        "level_id": 0,
        "network_type": "corridor",
        "to_level_id": null,
        "vertical_connection_id": null,
        "building_id": "union",
        "building_name": "Student Union"
      },
      "geometry": {
        "type": "LineString",
        "coordinates": [
          [-0.1638331, 51.5068593],
          [-0.1638331, 51.5068234],
          [-0.1638331, 51.506756]
        ]
      }
    },
    {
      "type": "Feature",
      "properties": {
        "access_type": "public",
        "from_level_id": null,
        "is_accessible": true,
        "level_id": 0,
        "network_type": "corridor",
        "to_level_id": null,
        "vertical_connection_id": null,
        "building_id": "union",
        "building_name": "Student Union"
      },
      "geometry": {
        "type": "LineString",
        "coordinates": [
          [-0.1631403, 51.5068593],
          [-0.1631403, 51.5068234],
          [-0.1631403, 51.506756]
        ]
      }
    },
    {
      "type": "Feature",
      "properties": {
        "access_type": "public",
        "from_level_id": null,
        "is_accessible": true,
        "level_id": 0,
        "network_type": "corridor",
        "to_level_id": null,
        "vertical_connection_id": null,
        "building_id": "union",
        "building_name": "Student Union"
      },
      "geometry": {
        "type": "LineString",
        "coordinates": [
          [-0.1641722, 51.5068593],
          [-0.1640568, 51.5068593],
          [-0.1638331, 51.5068593],
          [-0.1636959, 51.5068593],
          [-0.1634795, 51.5068593],
          [-0.1631403, 51.5068593],
          [-0.1631114, 51.5068593],
          [-0.1629022, 51.5068593],
          [-0.1627867, 51.5068593]
        ]
      }
    },
    {
      "type": "Feature",
      "properties": {
        "access_type": "public",
        "from_level_id": null,
        "is_accessible": true,
        "level_id": 1,
        "network_type": "corridor",
        "to_level_id": null,
        "vertical_connection_id": null,
        "building_id": "union",
        "building_name": "Student Union"
      },
      "geometry": {
        "type": "LineString",
        "coordinates": [
          [-0.1638329, 51.5068593],
          [-0.1638329, 51.5068953],
          [-0.1638329, 51.5069626]
        ]
      }
    },
    {
      "type": "Feature",
      "properties": {
        "access_type": "public",
        "from_level_id": null,
        "is_accessible": true,
        "level_id": 1,
        "network_type": "corridor",
        "to_level_id": null,
        "vertical_connection_id": null,
        "building_id": "union",
        "building_name": "Student Union"
      },
      "geometry": {
        "type": "LineString",
        "coordinates": [
          [-0.16314009999999998, 51.5068593],
          [-0.16314009999999998, 51.5068953],
          [-0.16314009999999998, 51.5069626]
        ]
      }
    },
    {
      "type": "Feature",
      "properties": {
        "access_type": "public",
        "from_level_id": null,
        "is_accessible": true,
        "level_id": 1,
        "network_type": "corridor",
        "to_level_id": null,
        "vertical_connection_id": null,
        "building_id": "union",
        "building_name": "Student Union"
      },
      "geometry": {
        "type": "LineString",
        "coordinates": [
          [-0.1634865, 51.5068593],
          [-0.1634865, 51.5068234],
          [-0.1634865, 51.506756]
        ]
      }
    },
    {
      "type": "Feature",
      "properties": {
        "access_type": "public",
        "from_level_id": null,
        "is_accessible": true,
        "level_id": 1,
        "network_type": "corridor",
        "to_level_id": null,
        "vertical_connection_id": null,
        "building_id": "union",
        "building_name": "Student Union"
      },
      "geometry": {
        "type": "LineString",
        "coordinates": [
          [-0.16417199999999998, 51.5068593],
          [-0.1640566, 51.5068593],
          [-0.1638329, 51.5068593],
          [-0.1636957, 51.5068593],
          [-0.1634865, 51.5068593],
          [-0.16314009999999998, 51.5068593],
          [-0.162902, 51.5068593],
          [-0.1627865, 51.5068593]
        ]
      }
    },
    {
      "type": "Feature",
      "properties": {
        "access_type": "public",
        "from_level_id": null,
        "is_accessible": true,
        "level_id": 0,
        "network_type": "corridor",
        "to_level_id": null,
        "vertical_connection_id": null,
        "building_id": "union",
        "building_name": "Student Union"
      },
      "geometry": {
        "type": "LineString",
        "coordinates": [
          [-0.1634795, 51.5068593],
          [-0.1634795, 51.507039]
        ]
      }
    },
    {
      "type": "Feature",
      "properties": {
        "access_type": "public",
        "from_level_id": 0,
        "is_accessible": false,
        "level_id": null,
        "network_type": "stairs",
        "to_level_id": 1,
        "vertical_connection_id": "union-stairs",
        "cost": 60,
        "building_id": "union",
        "building_name": "Student Union"
      },
      "geometry": {
        "type": "LineString",
        "coordinates": [
          [-0.1640568, 51.5068593],
          [-0.1640566, 51.5068593]
        ]
      }
    },
    {
      "type": "Feature",
      "properties": {
        "access_type": "public",
        "from_level_id": 0,
        "is_accessible": false,
        "level_id": null,
        "network_type": "escalator",
        "to_level_id": 1,
        "vertical_connection_id": "union-escalator",
        "cost": 45,
        "building_id": "union",
        "building_name": "Student Union"
      },
      "geometry": {
        "type": "LineString",
        "coordinates": [
          [-0.1636959, 51.5068593],
          [-0.1636957, 51.5068593]
        ]
      }
    },
    {
      "type": "Feature",
      "properties": {
        "access_type": "public",
        "from_level_id": 0,
        "is_accessible": true,
        "level_id": null,
        "network_type": "elevator",
        "to_level_id": 0,
        "vertical_connection_id": "union-elevator",
        "cost": 45,
        "building_id": "union",
        "building_name": "Student Union"
      },
      "geometry": {
        "type": "LineString",
        "coordinates": [
          [-0.1629022, 51.5068593],
          [-0.1629022, 51.5068594]
        ]
      }
    },
    {
      "type": "Feature",
      "properties": {
        "access_type": "public",
        "from_level_id": 1,
        "is_accessible": true,
        "level_id": null,
        "network_type": "elevator",
        "to_level_id": 1,
        "vertical_connection_id": "union-elevator",
        "cost": 45,
        "building_id": "union",
        "building_name": "Student Union"
      },
      "geometry": {
        "type": "LineString",
        "coordinates": [
          [-0.162902, 51.5068593],
          [-0.162902, 51.5068594]
        ]
      }
    },
    {
      "type": "Feature",
      "properties": {
        "access_type": "public",
        "from_level_id": 0,
        "is_accessible": true,
        "level_id": null,
        "network_type": "elevator",
        "to_level_id": 1,
        "vertical_connection_id": "union-elevator",
        "cost": 15,
        "building_id": "union",
        "building_name": "Student Union"
      },
      "geometry": {
        "type": "LineString",
        "coordinates": [
          [-0.1629022, 51.5068594],
          [-0.162902, 51.5068594]
        ]
      }
    },
    {
      "type": "Feature",
      "properties": {
        "access_type": "public",
        "from_level_id": null,
        "is_accessible": true,
        "level_id": 1,
        "network_type": "skybridge",
        "to_level_id": null,
        "vertical_connection_id": null,
        "building_id": null,
        "building_name": "Science\u2013Library Skybridge"
      },
      "geometry": {
        "type": "LineString",
        "coordinates": [
          [-0.1640566, 51.5076678],
          [-0.162902, 51.5076678]
        ]
      }
    },
    {
      "type": "Feature",
      "properties": {
        "access_type": "public",
        "from_level_id": null,
        "is_accessible": true,
        "level_id": 0,
        "network_type": "outdoor",
        "to_level_id": null,
        "vertical_connection_id": null,
        "building_id": null,
        "building_name": null
      },
      "geometry": {
        "type": "LineString",
        "coordinates": [
          [-0.1655, 51.5072636],
          [-0.1646341, 51.5072636],
          [-0.1634795, 51.5072636],
          [-0.1623249, 51.5072636],
          [-0.1613146, 51.5072636]
        ]
      }
    },
    {
      "type": "Feature",
      "properties": {
        "access_type": "public",
        "from_level_id": null,
        "is_accessible": true,
        "level_id": 0,
        "network_type": "outdoor",
        "to_level_id": null,
        "vertical_connection_id": null,
        "building_id": null,
        "building_name": null
      },
      "geometry": {
        "type": "LineString",
        "coordinates": [
          [-0.1646341, 51.5072636],
          [-0.1646341, 51.5074881]
        ]
      }
    },
    {
      "type": "Feature",
      "properties": {
        "access_type": "public",
        "from_level_id": null,
        "is_accessible": true,
        "level_id": 0,
        "network_type": "outdoor",
        "to_level_id": null,
        "vertical_connection_id": null,
        "building_id": null,
        "building_name": null
      },
      "geometry": {
        "type": "LineString",
        "coordinates": [
          [-0.1623249, 51.5072636],
          [-0.1623249, 51.5074881]
        ]
      }
    },
    {
      "type": "Feature",
      "properties": {
        "access_type": "public",
        "from_level_id": null,
        "is_accessible": true,
        "level_id": 0,
        "network_type": "outdoor",
        "to_level_id": null,
        "vertical_connection_id": null,
        "building_id": null,
        "building_name": null
      },
      "geometry": {
        "type": "LineString",
        "coordinates": [
          [-0.1634795, 51.5072636],
          [-0.1634795, 51.507039]
        ]
      }
    },
    {
      "type": "Feature",
      "properties": {
        "access_type": "public",
        "from_level_id": null,
        "is_accessible": true,
        "level_id": 0,
        "network_type": "outdoor",
        "to_level_id": null,
        "vertical_connection_id": null,
        "building_id": null,
        "building_name": null
      },
      "geometry": {
        "type": "LineString",
        "coordinates": [
          [-0.1634795, 51.5072636],
          [-0.1634795, 51.5073534]
        ]
      }
    }
  ]
}
