{
  "type": "FeatureCollection",
  "features": [
    {
      "type": "Feature",
      "id": "campus-lawn",
      "properties": {
        "feature_type": "area",
        "level_id": null,
        "name": "Campus grounds",
        "fill": "#dcebd5",
        "stroke": "#b7d3ab"
      },
      "geometry": {
        "type": "Polygon",
        "coordinates": [
          [
            [-0.1657886, 51.5064102],
            [-0.1610259, 51.5064102],
            [-0.1610259, 51.508072],
            [-0.1657886, 51.508072],
            [-0.1657886, 51.5064102]
          ]
        ]
      }
    },
    {
      "type": "Feature",
      "id": "campus-walk-spine",
      "properties": {
        "feature_type": "area",
        "level_id": null,
        "name": "Quad walkway",
        "fill": "#e8e2d4",
        "stroke": "#cfc6b0"
      },
      "geometry": {
        "type": "Polygon",
        "coordinates": [
          [
            [-0.1656443, 51.5072366],
            [-0.1611703, 51.5072366],
            [-0.1611703, 51.5072905],
            [-0.1656443, 51.5072905],
            [-0.1656443, 51.5072366]
          ]
        ]
      }
    },
    {
      "type": "Feature",
      "id": "campus-quad",
      "properties": {
        "feature_type": "area",
        "level_id": null,
        "name": "Main Quad",
        "fill": "#c9e2bf",
        "stroke": "#a9c99c"
      },
      "geometry": {
        "type": "Polygon",
        "coordinates": [
          [
            [-0.1637681, 51.5071468],
            [-0.1631908, 51.5071468],
            [-0.1631908, 51.5074163],
            [-0.1637681, 51.5074163],
            [-0.1637681, 51.5071468]
          ]
        ]
      }
    },
    {
      "type": "Feature",
      "id": "walk-science",
      "properties": {
        "feature_type": "area",
        "level_id": null,
        "name": "Science Hall walkway",
        "fill": "#e8e2d4",
        "stroke": "#cfc6b0"
      },
      "geometry": {
        "type": "Polygon",
        "coordinates": [
          [
            [-0.1646701, 51.5072636],
            [-0.164598, 51.5072636],
            [-0.164598, 51.5074881],
            [-0.1646701, 51.5074881],
            [-0.1646701, 51.5072636]
          ]
        ]
      }
    },
    {
      "type": "Feature",
      "id": "footprint-science",
      "properties": {
        "feature_type": "area",
        "level_id": null,
        "name": "Science Hall",
        "fill": "#cbd5e1",
        "stroke": "#94a3b8",
        "building_id": "science"
      },
      "geometry": {
        "type": "Polygon",
        "coordinates": [
          [
            [-0.1652114, 51.5074881],
            [-0.1640568, 51.5074881],
            [-0.1640568, 51.5078475],
            [-0.1652114, 51.5078475],
            [-0.1652114, 51.5074881]
          ]
        ]
      }
    },
    {
      "type": "Feature",
      "id": "walk-library",
      "properties": {
        "feature_type": "area",
        "level_id": null,
        "name": "Library walkway",
        "fill": "#e8e2d4",
        "stroke": "#cfc6b0"
      },
      "geometry": {
        "type": "Polygon",
        "coordinates": [
          [
            [-0.1623609, 51.5072636],
            [-0.1622888, 51.5072636],
            [-0.1622888, 51.5074881],
            [-0.1623609, 51.5074881],
            [-0.1623609, 51.5072636]
          ]
        ]
      }
    },
    {
      "type": "Feature",
      "id": "footprint-library",
      "properties": {
        "feature_type": "area",
        "level_id": null,
        "name": "Library",
        "fill": "#cbd5e1",
        "stroke": "#94a3b8",
        "building_id": "library"
      },
      "geometry": {
        "type": "Polygon",
        "coordinates": [
          [
            [-0.1629022, 51.5074881],
            [-0.1617476, 51.5074881],
            [-0.1617476, 51.5078475],
            [-0.1629022, 51.5078475],
            [-0.1629022, 51.5074881]
          ]
        ]
      }
    },
    {
      "type": "Feature",
      "id": "walk-union",
      "properties": {
        "feature_type": "area",
        "level_id": null,
        "name": "Student Union walkway",
        "fill": "#e8e2d4",
        "stroke": "#cfc6b0"
      },
      "geometry": {
        "type": "Polygon",
        "coordinates": [
          [
            [-0.1635155, 51.507039],
            [-0.1634434, 51.507039],
            [-0.1634434, 51.5072636],
            [-0.1635155, 51.5072636],
            [-0.1635155, 51.507039]
          ]
        ]
      }
    },
    {
      "type": "Feature",
      "id": "footprint-union",
      "properties": {
        "feature_type": "area",
        "level_id": null,
        "name": "Student Union",
        "fill": "#cbd5e1",
        "stroke": "#94a3b8",
        "building_id": "union"
      },
      "geometry": {
        "type": "Polygon",
        "coordinates": [
          [
            [-0.1642011, 51.5066797],
            [-0.1627578, 51.5066797],
            [-0.1627578, 51.507039],
            [-0.1642011, 51.507039],
            [-0.1642011, 51.5066797]
          ]
        ]
      }
    },
    {
      "type": "Feature",
      "id": "walk-bus",
      "properties": {
        "feature_type": "area",
        "level_id": null,
        "name": "Bus loop walkway",
        "fill": "#e8e2d4",
        "stroke": "#cfc6b0"
      },
      "geometry": {
        "type": "Polygon",
        "coordinates": [
          [
            [-0.1614012, 51.5072007],
            [-0.1611703, 51.5072007],
            [-0.1611703, 51.5073264],
            [-0.1614012, 51.5073264],
            [-0.1614012, 51.5072007]
          ]
        ]
      }
    },
    {
      "type": "Feature",
      "id": "science-outline-0",
      "properties": {
        "feature_type": "floor_outline",
        "level_id": 0,
        "name": "Science Hall outline",
        "building_id": "science"
      },
      "geometry": {
        "type": "Polygon",
        "coordinates": [
          [
            [-0.1652114, 51.5074881],
            [-0.1640568, 51.5074881],
            [-0.1640568, 51.5078475],
            [-0.1652114, 51.5078475],
            [-0.1652114, 51.5074881]
          ]
        ]
      }
    },
    {
      "type": "Feature",
      "id": "science-corridor-0",
      "properties": {
        "feature_type": "corridor",
        "level_id": 0,
        "name": "Science Hall corridor",
        "building_id": "science"
      },
      "geometry": {
        "type": "Polygon",
        "coordinates": [
          [
            [-0.1651825, 51.5076319],
            [-0.1640856, 51.5076319],
            [-0.1640856, 51.5077037],
            [-0.1651825, 51.5077037],
            [-0.1651825, 51.5076319]
          ]
        ]
      }
    },
    {
      "type": "Feature",
      "id": 1,
      "properties": {
        "feature_type": "unit",
        "level_id": 0,
        "name": "Science Lobby & Info Desk",
        "category": "information",
        "building_id": "science"
      },
      "geometry": {
        "type": "Polygon",
        "coordinates": [
          [
            [-0.1651825, 51.5077037],
            [-0.1646485, 51.5077037],
            [-0.1646485, 51.5078385],
            [-0.1651825, 51.5078385],
            [-0.1651825, 51.5077037]
          ]
        ]
      }
    },
    {
      "type": "Feature",
      "id": 2,
      "properties": {
        "feature_type": "unit",
        "level_id": 0,
        "name": "Chemistry Lab S110",
        "category": "laboratory",
        "building_id": "science"
      },
      "geometry": {
        "type": "Polygon",
        "coordinates": [
          [
            [-0.1646341, 51.5077037],
            [-0.1641001, 51.5077037],
            [-0.1641001, 51.5078385],
            [-0.1646341, 51.5078385],
            [-0.1646341, 51.5077037]
          ]
        ]
      }
    },
    {
      "type": "Feature",
      "id": 3,
      "properties": {
        "feature_type": "unit",
        "level_id": 0,
        "name": "Lecture Theatre S100",
        "category": "lecture-hall",
        "building_id": "science"
      },
      "geometry": {
        "type": "Polygon",
        "coordinates": [
          [
            [-0.1651825, 51.5074971],
            [-0.1646918, 51.5074971],
            [-0.1646918, 51.5076319],
            [-0.1651825, 51.5076319],
            [-0.1651825, 51.5074971]
          ]
        ]
      }
    },
    {
      "type": "Feature",
      "id": "science-outline-1",
      "properties": {
        "feature_type": "floor_outline",
        "level_id": 1,
        "name": "Science Hall outline",
        "building_id": "science"
      },
      "geometry": {
        "type": "Polygon",
        "coordinates": [
          [
            [-0.1652114, 51.5074881],
            [-0.1640568, 51.5074881],
            [-0.1640568, 51.5078475],
            [-0.1652114, 51.5078475],
            [-0.1652114, 51.5074881]
          ]
        ]
      }
    },
    {
      "type": "Feature",
      "id": "science-corridor-1",
      "properties": {
        "feature_type": "corridor",
        "level_id": 1,
        "name": "Science Hall corridor",
        "building_id": "science"
      },
      "geometry": {
        "type": "Polygon",
        "coordinates": [
          [
            [-0.1651825, 51.5076319],
            [-0.1640856, 51.5076319],
            [-0.1640856, 51.5077037],
            [-0.1651825, 51.5077037],
            [-0.1651825, 51.5076319]
          ]
        ]
      }
    },
    {
      "type": "Feature",
      "id": 4,
      "properties": {
        "feature_type": "unit",
        "level_id": 1,
        "name": "Biology Lab S210",
        "category": "laboratory",
        "building_id": "science"
      },
      "geometry": {
        "type": "Polygon",
        "coordinates": [
          [
            [-0.1651825, 51.5077037],
            [-0.1646485, 51.5077037],
            [-0.1646485, 51.5078385],
            [-0.1651825, 51.5078385],
            [-0.1651825, 51.5077037]
          ]
        ]
      }
    },
    {
      "type": "Feature",
      "id": 5,
      "properties": {
        "feature_type": "unit",
        "level_id": 1,
        "name": "Science Restrooms (Level 2)",
        "category": "restrooms",
        "building_id": "science"
      },
      "geometry": {
        "type": "Polygon",
        "coordinates": [
          [
            [-0.1646341, 51.5077037],
            [-0.1641001, 51.5077037],
            [-0.1641001, 51.5078385],
            [-0.1646341, 51.5078385],
            [-0.1646341, 51.5077037]
          ]
        ]
      }
    },
    {
      "type": "Feature",
      "id": 6,
      "properties": {
        "feature_type": "unit",
        "level_id": 1,
        "name": "Seminar Room S220",
        "category": "classroom",
        "building_id": "science"
      },
      "geometry": {
        "type": "Polygon",
        "coordinates": [
          [
            [-0.1651825, 51.5074971],
            [-0.1641001, 51.5074971],
            [-0.1641001, 51.5076319],
            [-0.1651825, 51.5076319],
            [-0.1651825, 51.5074971]
          ]
        ]
      }
    },
    {
      "type": "Feature",
      "id": "science-outline-2",
      "properties": {
        "feature_type": "floor_outline",
        "level_id": 2,
        "name": "Science Hall outline",
        "building_id": "science"
      },
      "geometry": {
        "type": "Polygon",
        "coordinates": [
          [
            [-0.1652114, 51.5074881],
            [-0.1640568, 51.5074881],
            [-0.1640568, 51.5078475],
            [-0.1652114, 51.5078475],
            [-0.1652114, 51.5074881]
          ]
        ]
      }
    },
    {
      "type": "Feature",
      "id": "science-corridor-2",
      "properties": {
        "feature_type": "corridor",
        "level_id": 2,
        "name": "Science Hall corridor",
        "building_id": "science"
      },
      "geometry": {
        "type": "Polygon",
        "coordinates": [
          [
            [-0.1651825, 51.5076319],
            [-0.1640856, 51.5076319],
            [-0.1640856, 51.5077037],
            [-0.1651825, 51.5077037],
            [-0.1651825, 51.5076319]
          ]
        ]
      }
    },
    {
      "type": "Feature",
      "id": 7,
      "properties": {
        "feature_type": "unit",
        "level_id": 2,
        "name": "Physics Lab S310",
        "category": "laboratory",
        "building_id": "science"
      },
      "geometry": {
        "type": "Polygon",
        "coordinates": [
          [
            [-0.1651825, 51.5077037],
            [-0.1646485, 51.5077037],
            [-0.1646485, 51.5078385],
            [-0.1651825, 51.5078385],
            [-0.1651825, 51.5077037]
          ]
        ]
      }
    },
    {
      "type": "Feature",
      "id": 8,
      "properties": {
        "feature_type": "unit",
        "level_id": 2,
        "name": "Graduate Lounge",
        "category": "lounge",
        "building_id": "science"
      },
      "geometry": {
        "type": "Polygon",
        "coordinates": [
          [
            [-0.1646341, 51.5077037],
            [-0.1641001, 51.5077037],
            [-0.1641001, 51.5078385],
            [-0.1646341, 51.5078385],
            [-0.1646341, 51.5077037]
          ]
        ]
      }
    },
    {
      "type": "Feature",
      "id": 9,
      "properties": {
        "feature_type": "unit",
        "level_id": 2,
        "name": "Classroom S320",
        "category": "classroom",
        "building_id": "science"
      },
      "geometry": {
        "type": "Polygon",
        "coordinates": [
          [
            [-0.1651825, 51.5074971],
            [-0.1641001, 51.5074971],
            [-0.1641001, 51.5076319],
            [-0.1651825, 51.5076319],
            [-0.1651825, 51.5074971]
          ]
        ]
      }
    },
    {
      "type": "Feature",
      "id": "science-outline-3",
      "properties": {
        "feature_type": "floor_outline",
        "level_id": 3,
        "name": "Science Hall outline",
        "building_id": "science"
      },
      "geometry": {
        "type": "Polygon",
        "coordinates": [
          [
            [-0.1652114, 51.5074881],
            [-0.1640568, 51.5074881],
            [-0.1640568, 51.5078475],
            [-0.1652114, 51.5078475],
            [-0.1652114, 51.5074881]
          ]
        ]
      }
    },
    {
      "type": "Feature",
      "id": "science-corridor-3",
      "properties": {
        "feature_type": "corridor",
        "level_id": 3,
        "name": "Science Hall corridor",
        "building_id": "science"
      },
      "geometry": {
        "type": "Polygon",
        "coordinates": [
          [
            [-0.1651825, 51.5076319],
            [-0.1640856, 51.5076319],
            [-0.1640856, 51.5077037],
            [-0.1651825, 51.5077037],
            [-0.1651825, 51.5076319]
          ]
        ]
      }
    },
    {
      "type": "Feature",
      "id": 10,
      "properties": {
        "feature_type": "unit",
        "level_id": 3,
        "name": "Dean of Science Office",
        "category": "office",
        "building_id": "science"
      },
      "geometry": {
        "type": "Polygon",
        "coordinates": [
          [
            [-0.1651825, 51.5077037],
            [-0.1641001, 51.5077037],
            [-0.1641001, 51.5078385],
            [-0.1651825, 51.5078385],
            [-0.1651825, 51.5077037]
          ]
        ]
      }
    },
    {
      "type": "Feature",
      "id": 11,
      "properties": {
        "feature_type": "unit",
        "level_id": 3,
        "name": "Observatory Deck",
        "category": "observatory",
        "building_id": "science"
      },
      "geometry": {
        "type": "Polygon",
        "coordinates": [
          [
            [-0.1651825, 51.5074971],
            [-0.1641001, 51.5074971],
            [-0.1641001, 51.5076319],
            [-0.1651825, 51.5076319],
            [-0.1651825, 51.5074971]
          ]
        ]
      }
    },
    {
      "type": "Feature",
      "id": "science-stairs-l0",
      "properties": {
        "feature_type": "vertical_connection",
        "level_id": 0,
        "name": "Science Stairs",
        "connection_type": "stairs",
        "vertical_connection_id": "science-stairs",
        "building_id": "science"
      },
      "geometry": {
        "type": "Polygon",
        "coordinates": [
          [
            [-0.1650959, 51.5076364],
            [-0.1650382, 51.5076364],
            [-0.1650382, 51.5076992],
            [-0.1650959, 51.5076992],
            [-0.1650959, 51.5076364]
          ]
        ]
      }
    },
    {
      "type": "Feature",
      "properties": {
        "connection_type": "stairs",
        "feature_type": "vertical_detail",
        "level_id": 0,
        "vertical_connection_id": "science-stairs"
      },
      "geometry": {
        "type": "LineString",
        "coordinates": [
          [-0.16508628333333333, 51.50764089155588],
          [-0.16508628333333333, 51.50769470844412]
        ]
      }
    },
    {
      "type": "Feature",
      "properties": {
        "connection_type": "stairs",
        "feature_type": "vertical_detail",
        "level_id": 0,
        "vertical_connection_id": "science-stairs"
      },
      "geometry": {
        "type": "LineString",
        "coordinates": [
          [-0.16507666666666665, 51.50764089155588],
          [-0.16507666666666665, 51.50769470844412]
        ]
      }
    },
    {
      "type": "Feature",
      "properties": {
        "connection_type": "stairs",
        "feature_type": "vertical_detail",
        "level_id": 0,
        "vertical_connection_id": "science-stairs"
      },
      "geometry": {
        "type": "LineString",
        "coordinates": [
          [-0.16506705, 51.50764089155588],
          [-0.16506705, 51.50769470844412]
        ]
      }
    },
    {
      "type": "Feature",
      "properties": {
        "connection_type": "stairs",
        "feature_type": "vertical_detail",
        "level_id": 0,
        "vertical_connection_id": "science-stairs"
      },
      "geometry": {
        "type": "LineString",
        "coordinates": [
          [-0.16505743333333334, 51.50764089155588],
          [-0.16505743333333334, 51.50769470844412]
        ]
      }
    },
    {
      "type": "Feature",
      "properties": {
        "connection_type": "stairs",
        "feature_type": "vertical_detail",
        "level_id": 0,
        "vertical_connection_id": "science-stairs"
      },
      "geometry": {
        "type": "LineString",
        "coordinates": [
          [-0.16504781666666665, 51.50764089155588],
          [-0.16504781666666665, 51.50769470844412]
        ]
      }
    },
    {
      "type": "Feature",
      "id": "science-stairs-l1",
      "properties": {
        "feature_type": "vertical_connection",
        "level_id": 1,
        "name": "Science Stairs",
        "connection_type": "stairs",
        "vertical_connection_id": "science-stairs",
        "building_id": "science"
      },
      "geometry": {
        "type": "Polygon",
        "coordinates": [
          [
            [-0.1650959, 51.5076364],
            [-0.1650382, 51.5076364],
            [-0.1650382, 51.5076992],
            [-0.1650959, 51.5076992],
            [-0.1650959, 51.5076364]
          ]
        ]
      }
    },
    {
      "type": "Feature",
      "properties": {
        "connection_type": "stairs",
        "feature_type": "vertical_detail",
        "level_id": 1,
        "vertical_connection_id": "science-stairs"
      },
      "geometry": {
        "type": "LineString",
        "coordinates": [
          [-0.16508628333333333, 51.50764089155588],
          [-0.16508628333333333, 51.50769470844412]
        ]
      }
    },
    {
      "type": "Feature",
      "properties": {
        "connection_type": "stairs",
        "feature_type": "vertical_detail",
        "level_id": 1,
        "vertical_connection_id": "science-stairs"
      },
      "geometry": {
        "type": "LineString",
        "coordinates": [
          [-0.16507666666666665, 51.50764089155588],
          [-0.16507666666666665, 51.50769470844412]
        ]
      }
    },
    {
      "type": "Feature",
      "properties": {
        "connection_type": "stairs",
        "feature_type": "vertical_detail",
        "level_id": 1,
        "vertical_connection_id": "science-stairs"
      },
      "geometry": {
        "type": "LineString",
        "coordinates": [
          [-0.16506705, 51.50764089155588],
          [-0.16506705, 51.50769470844412]
        ]
      }
    },
    {
      "type": "Feature",
      "properties": {
        "connection_type": "stairs",
        "feature_type": "vertical_detail",
        "level_id": 1,
        "vertical_connection_id": "science-stairs"
      },
      "geometry": {
        "type": "LineString",
        "coordinates": [
          [-0.16505743333333334, 51.50764089155588],
          [-0.16505743333333334, 51.50769470844412]
        ]
      }
    },
    {
      "type": "Feature",
      "properties": {
        "connection_type": "stairs",
        "feature_type": "vertical_detail",
        "level_id": 1,
        "vertical_connection_id": "science-stairs"
      },
      "geometry": {
        "type": "LineString",
        "coordinates": [
          [-0.16504781666666665, 51.50764089155588],
          [-0.16504781666666665, 51.50769470844412]
        ]
      }
    },
    {
      "type": "Feature",
      "id": "science-stairs-l2",
      "properties": {
        "feature_type": "vertical_connection",
        "level_id": 2,
        "name": "Science Stairs",
        "connection_type": "stairs",
        "vertical_connection_id": "science-stairs",
        "building_id": "science"
      },
      "geometry": {
        "type": "Polygon",
        "coordinates": [
          [
            [-0.1650959, 51.5076364],
            [-0.1650382, 51.5076364],
            [-0.1650382, 51.5076992],
            [-0.1650959, 51.5076992],
            [-0.1650959, 51.5076364]
          ]
        ]
      }
    },
    {
      "type": "Feature",
      "properties": {
        "connection_type": "stairs",
        "feature_type": "vertical_detail",
        "level_id": 2,
        "vertical_connection_id": "science-stairs"
      },
      "geometry": {
        "type": "LineString",
        "coordinates": [
          [-0.16508628333333333, 51.50764089155588],
          [-0.16508628333333333, 51.50769470844412]
        ]
      }
    },
    {
      "type": "Feature",
      "properties": {
        "connection_type": "stairs",
        "feature_type": "vertical_detail",
        "level_id": 2,
        "vertical_connection_id": "science-stairs"
      },
      "geometry": {
        "type": "LineString",
        "coordinates": [
          [-0.16507666666666665, 51.50764089155588],
          [-0.16507666666666665, 51.50769470844412]
        ]
      }
    },
    {
      "type": "Feature",
      "properties": {
        "connection_type": "stairs",
        "feature_type": "vertical_detail",
        "level_id": 2,
        "vertical_connection_id": "science-stairs"
      },
      "geometry": {
        "type": "LineString",
        "coordinates": [
          [-0.16506705, 51.50764089155588],
          [-0.16506705, 51.50769470844412]
        ]
      }
    },
    {
      "type": "Feature",
      "properties": {
        "connection_type": "stairs",
        "feature_type": "vertical_detail",
        "level_id": 2,
        "vertical_connection_id": "science-stairs"
      },
      "geometry": {
        "type": "LineString",
        "coordinates": [
          [-0.16505743333333334, 51.50764089155588],
          [-0.16505743333333334, 51.50769470844412]
        ]
      }
    },
    {
      "type": "Feature",
      "properties": {
        "connection_type": "stairs",
        "feature_type": "vertical_detail",
        "level_id": 2,
        "vertical_connection_id": "science-stairs"
      },
      "geometry": {
        "type": "LineString",
        "coordinates": [
          [-0.16504781666666665, 51.50764089155588],
          [-0.16504781666666665, 51.50769470844412]
        ]
      }
    },
    {
      "type": "Feature",
      "id": "science-stairs-l3",
      "properties": {
        "feature_type": "vertical_connection",
        "level_id": 3,
        "name": "Science Stairs",
        "connection_type": "stairs",
        "vertical_connection_id": "science-stairs",
        "building_id": "science"
      },
      "geometry": {
        "type": "Polygon",
        "coordinates": [
          [
            [-0.1650959, 51.5076364],
            [-0.1650382, 51.5076364],
            [-0.1650382, 51.5076992],
            [-0.1650959, 51.5076992],
            [-0.1650959, 51.5076364]
          ]
        ]
      }
    },
    {
      "type": "Feature",
      "properties": {
        "connection_type": "stairs",
        "feature_type": "vertical_detail",
        "level_id": 3,
        "vertical_connection_id": "science-stairs"
      },
      "geometry": {
        "type": "LineString",
        "coordinates": [
          [-0.16508628333333333, 51.50764089155588],
          [-0.16508628333333333, 51.50769470844412]
        ]
      }
    },
    {
      "type": "Feature",
      "properties": {
        "connection_type": "stairs",
        "feature_type": "vertical_detail",
        "level_id": 3,
        "vertical_connection_id": "science-stairs"
      },
      "geometry": {
        "type": "LineString",
        "coordinates": [
          [-0.16507666666666665, 51.50764089155588],
          [-0.16507666666666665, 51.50769470844412]
        ]
      }
    },
    {
      "type": "Feature",
      "properties": {
        "connection_type": "stairs",
        "feature_type": "vertical_detail",
        "level_id": 3,
        "vertical_connection_id": "science-stairs"
      },
      "geometry": {
        "type": "LineString",
        "coordinates": [
          [-0.16506705, 51.50764089155588],
          [-0.16506705, 51.50769470844412]
        ]
      }
    },
    {
      "type": "Feature",
      "properties": {
        "connection_type": "stairs",
        "feature_type": "vertical_detail",
        "level_id": 3,
        "vertical_connection_id": "science-stairs"
      },
      "geometry": {
        "type": "LineString",
        "coordinates": [
          [-0.16505743333333334, 51.50764089155588],
          [-0.16505743333333334, 51.50769470844412]
        ]
      }
    },
    {
      "type": "Feature",
      "properties": {
        "connection_type": "stairs",
        "feature_type": "vertical_detail",
        "level_id": 3,
        "vertical_connection_id": "science-stairs"
      },
      "geometry": {
        "type": "LineString",
        "coordinates": [
          [-0.16504781666666665, 51.50764089155588],
          [-0.16504781666666665, 51.50769470844412]
        ]
      }
    },
    {
      "type": "Feature",
      "id": "science-elevator-l0",
      "properties": {
        "feature_type": "vertical_connection",
        "level_id": 0,
        "name": "Science Elevator",
        "connection_type": "elevator",
        "vertical_connection_id": "science-elevator",
        "building_id": "science"
      },
      "geometry": {
        "type": "Polygon",
        "coordinates": [
          [
            [-0.1642588, 51.5076364],
            [-0.1642011, 51.5076364],
            [-0.1642011, 51.5076992],
            [-0.1642588, 51.5076992],
            [-0.1642588, 51.5076364]
          ]
        ]
      }
    },
    {
      "type": "Feature",
      "properties": {
        "connection_type": "elevator",
        "feature_type": "vertical_detail",
        "level_id": 0,
        "vertical_connection_id": "science-elevator"
      },
      "geometry": {
        "type": "LineString",
        "coordinates": [
          [-0.16425302688372467, 51.5076399932447],
          [-0.16420687311627535, 51.5076956067553]
        ]
      }
    },
    {
      "type": "Feature",
      "properties": {
        "connection_type": "elevator",
        "feature_type": "vertical_detail",
        "level_id": 0,
        "vertical_connection_id": "science-elevator"
      },
      "geometry": {
        "type": "LineString",
        "coordinates": [
          [-0.16425302688372467, 51.5076956067553],
          [-0.16420687311627535, 51.5076399932447]
        ]
      }
    },
    {
      "type": "Feature",
      "id": "science-elevator-l1",
      "properties": {
        "feature_type": "vertical_connection",
        "level_id": 1,
        "name": "Science Elevator",
        "connection_type": "elevator",
        "vertical_connection_id": "science-elevator",
        "building_id": "science"
      },
      "geometry": {
        "type": "Polygon",
        "coordinates": [
          [
            [-0.1642588, 51.5076364],
            [-0.1642011, 51.5076364],
            [-0.1642011, 51.5076992],
            [-0.1642588, 51.5076992],
            [-0.1642588, 51.5076364]
          ]
        ]
      }
    },
    {
      "type": "Feature",
      "properties": {
        "connection_type": "elevator",
        "feature_type": "vertical_detail",
        "level_id": 1,
        "vertical_connection_id": "science-elevator"
      },
      "geometry": {
        "type": "LineString",
        "coordinates": [
          [-0.16425302688372467, 51.5076399932447],
          [-0.16420687311627535, 51.5076956067553]
        ]
      }
    },
    {
      "type": "Feature",
      "properties": {
        "connection_type": "elevator",
        "feature_type": "vertical_detail",
        "level_id": 1,
        "vertical_connection_id": "science-elevator"
      },
      "geometry": {
        "type": "LineString",
        "coordinates": [
          [-0.16425302688372467, 51.5076956067553],
          [-0.16420687311627535, 51.5076399932447]
        ]
      }
    },
    {
      "type": "Feature",
      "id": "science-elevator-l2",
      "properties": {
        "feature_type": "vertical_connection",
        "level_id": 2,
        "name": "Science Elevator",
        "connection_type": "elevator",
        "vertical_connection_id": "science-elevator",
        "building_id": "science"
      },
      "geometry": {
        "type": "Polygon",
        "coordinates": [
          [
            [-0.1642588, 51.5076364],
            [-0.1642011, 51.5076364],
            [-0.1642011, 51.5076992],
            [-0.1642588, 51.5076992],
            [-0.1642588, 51.5076364]
          ]
        ]
      }
    },
    {
      "type": "Feature",
      "properties": {
        "connection_type": "elevator",
        "feature_type": "vertical_detail",
        "level_id": 2,
        "vertical_connection_id": "science-elevator"
      },
      "geometry": {
        "type": "LineString",
        "coordinates": [
          [-0.16425302688372467, 51.5076399932447],
          [-0.16420687311627535, 51.5076956067553]
        ]
      }
    },
    {
      "type": "Feature",
      "properties": {
        "connection_type": "elevator",
        "feature_type": "vertical_detail",
        "level_id": 2,
        "vertical_connection_id": "science-elevator"
      },
      "geometry": {
        "type": "LineString",
        "coordinates": [
          [-0.16425302688372467, 51.5076956067553],
          [-0.16420687311627535, 51.5076399932447]
        ]
      }
    },
    {
      "type": "Feature",
      "id": "science-elevator-l3",
      "properties": {
        "feature_type": "vertical_connection",
        "level_id": 3,
        "name": "Science Elevator",
        "connection_type": "elevator",
        "vertical_connection_id": "science-elevator",
        "building_id": "science"
      },
      "geometry": {
        "type": "Polygon",
        "coordinates": [
          [
            [-0.1642588, 51.5076364],
            [-0.1642011, 51.5076364],
            [-0.1642011, 51.5076992],
            [-0.1642588, 51.5076992],
            [-0.1642588, 51.5076364]
          ]
        ]
      }
    },
    {
      "type": "Feature",
      "properties": {
        "connection_type": "elevator",
        "feature_type": "vertical_detail",
        "level_id": 3,
        "vertical_connection_id": "science-elevator"
      },
      "geometry": {
        "type": "LineString",
        "coordinates": [
          [-0.16425302688372467, 51.5076399932447],
          [-0.16420687311627535, 51.5076956067553]
        ]
      }
    },
    {
      "type": "Feature",
      "properties": {
        "connection_type": "elevator",
        "feature_type": "vertical_detail",
        "level_id": 3,
        "vertical_connection_id": "science-elevator"
      },
      "geometry": {
        "type": "LineString",
        "coordinates": [
          [-0.16425302688372467, 51.5076956067553],
          [-0.16420687311627535, 51.5076399932447]
        ]
      }
    },
    {
      "type": "Feature",
      "id": "library-outline-0",
      "properties": {
        "feature_type": "floor_outline",
        "level_id": 0,
        "name": "Library outline",
        "building_id": "library"
      },
      "geometry": {
        "type": "Polygon",
        "coordinates": [
          [
            [-0.1629022, 51.5074881],
            [-0.1617476, 51.5074881],
            [-0.1617476, 51.5078475],
            [-0.1629022, 51.5078475],
            [-0.1629022, 51.5074881]
          ]
        ]
      }
    },
    {
      "type": "Feature",
      "id": "library-corridor-0",
      "properties": {
        "feature_type": "corridor",
        "level_id": 0,
        "name": "Library corridor",
        "building_id": "library"
      },
      "geometry": {
        "type": "Polygon",
        "coordinates": [
          [
            [-0.1628733, 51.5076319],
            [-0.1617764, 51.5076319],
            [-0.1617764, 51.5077037],
            [-0.1628733, 51.5077037],
            [-0.1628733, 51.5076319]
          ]
        ]
      }
    },
    {
      "type": "Feature",
      "id": 12,
      "properties": {
        "feature_type": "unit",
        "level_id": 0,
        "name": "Library Service Desk",
        "category": "information",
        "building_id": "library"
      },
      "geometry": {
        "type": "Polygon",
        "coordinates": [
          [
            [-0.1628733, 51.5077037],
            [-0.1623393, 51.5077037],
            [-0.1623393, 51.5078385],
            [-0.1628733, 51.5078385],
            [-0.1628733, 51.5077037]
          ]
        ]
      }
    },
    {
      "type": "Feature",
      "id": 13,
      "properties": {
        "feature_type": "unit",
        "level_id": 0,
        "name": "Print & Copy Centre",
        "category": "services",
        "building_id": "library"
      },
      "geometry": {
        "type": "Polygon",
        "coordinates": [
          [
            [-0.1623249, 51.5077037],
            [-0.1617909, 51.5077037],
            [-0.1617909, 51.5078385],
            [-0.1623249, 51.5078385],
            [-0.1623249, 51.5077037]
          ]
        ]
      }
    },
    {
      "type": "Feature",
      "id": 14,
      "properties": {
        "feature_type": "unit",
        "level_id": 0,
        "name": "Library Cafe",
        "category": "cafe",
        "building_id": "library"
      },
      "geometry": {
        "type": "Polygon",
        "coordinates": [
          [
            [-0.1628733, 51.5074971],
            [-0.1623826, 51.5074971],
            [-0.1623826, 51.5076319],
            [-0.1628733, 51.5076319],
            [-0.1628733, 51.5074971]
          ]
        ]
      }
    },
    {
      "type": "Feature",
      "id": "library-outline-1",
      "properties": {
        "feature_type": "floor_outline",
        "level_id": 1,
        "name": "Library outline",
        "building_id": "library"
      },
      "geometry": {
        "type": "Polygon",
        "coordinates": [
          [
            [-0.1629022, 51.5074881],
            [-0.1617476, 51.5074881],
            [-0.1617476, 51.5078475],
            [-0.1629022, 51.5078475],
            [-0.1629022, 51.5074881]
          ]
        ]
      }
    },
    {
      "type": "Feature",
      "id": "library-corridor-1",
      "properties": {
        "feature_type": "corridor",
        "level_id": 1,
        "name": "Library corridor",
        "building_id": "library"
      },
      "geometry": {
        "type": "Polygon",
        "coordinates": [
          [
            [-0.1628733, 51.5076319],
            [-0.1617764, 51.5076319],
            [-0.1617764, 51.5077037],
            [-0.1628733, 51.5077037],
            [-0.1628733, 51.5076319]
          ]
        ]
      }
    },
    {
      "type": "Feature",
      "id": 15,
      "properties": {
        "feature_type": "unit",
        "level_id": 1,
        "name": "Reading Room",
        "category": "study",
        "building_id": "library"
      },
      "geometry": {
        "type": "Polygon",
        "coordinates": [
          [
            [-0.1628733, 51.5077037],
            [-0.1623393, 51.5077037],
            [-0.1623393, 51.5078385],
            [-0.1628733, 51.5078385],
            [-0.1628733, 51.5077037]
          ]
        ]
      }
    },
    {
      "type": "Feature",
      "id": 16,
      "properties": {
        "feature_type": "unit",
        "level_id": 1,
        "name": "Library Restrooms (Level 2)",
        "category": "restrooms",
        "building_id": "library"
      },
      "geometry": {
        "type": "Polygon",
        "coordinates": [
          [
            [-0.1623249, 51.5077037],
            [-0.1617909, 51.5077037],
            [-0.1617909, 51.5078385],
            [-0.1623249, 51.5078385],
            [-0.1623249, 51.5077037]
          ]
        ]
      }
    },
    {
      "type": "Feature",
      "id": 17,
      "properties": {
        "feature_type": "unit",
        "level_id": 1,
        "name": "Group Study Rooms",
        "category": "study",
        "building_id": "library"
      },
      "geometry": {
        "type": "Polygon",
        "coordinates": [
          [
            [-0.1628733, 51.5074971],
            [-0.1617909, 51.5074971],
            [-0.1617909, 51.5076319],
            [-0.1628733, 51.5076319],
            [-0.1628733, 51.5074971]
          ]
        ]
      }
    },
    {
      "type": "Feature",
      "id": "library-outline-2",
      "properties": {
        "feature_type": "floor_outline",
        "level_id": 2,
        "name": "Library outline",
        "building_id": "library"
      },
      "geometry": {
        "type": "Polygon",
        "coordinates": [
          [
            [-0.1629022, 51.5074881],
            [-0.1617476, 51.5074881],
            [-0.1617476, 51.5078475],
            [-0.1629022, 51.5078475],
            [-0.1629022, 51.5074881]
          ]
        ]
      }
    },
    {
      "type": "Feature",
      "id": "library-corridor-2",
      "properties": {
        "feature_type": "corridor",
        "level_id": 2,
        "name": "Library corridor",
        "building_id": "library"
      },
      "geometry": {
        "type": "Polygon",
        "coordinates": [
          [
            [-0.1628733, 51.5076319],
            [-0.1617764, 51.5076319],
            [-0.1617764, 51.5077037],
            [-0.1628733, 51.5077037],
            [-0.1628733, 51.5076319]
          ]
        ]
      }
    },
    {
      "type": "Feature",
      "id": 18,
      "properties": {
        "feature_type": "unit",
        "level_id": 2,
        "name": "Special Collections",
        "category": "archive",
        "building_id": "library"
      },
      "geometry": {
        "type": "Polygon",
        "coordinates": [
          [
            [-0.1628733, 51.5077037],
            [-0.1617909, 51.5077037],
            [-0.1617909, 51.5078385],
            [-0.1628733, 51.5078385],
            [-0.1628733, 51.5077037]
          ]
        ]
      }
    },
    {
      "type": "Feature",
      "id": 19,
      "properties": {
        "feature_type": "unit",
        "level_id": 2,
        "name": "Quiet Study Floor",
        "category": "study",
        "building_id": "library"
      },
      "geometry": {
        "type": "Polygon",
        "coordinates": [
          [
            [-0.1628733, 51.5074971],
            [-0.1617909, 51.5074971],
            [-0.1617909, 51.5076319],
            [-0.1628733, 51.5076319],
            [-0.1628733, 51.5074971]
          ]
        ]
      }
    },
    {
      "type": "Feature",
      "id": "library-elevator-l0",
      "properties": {
        "feature_type": "vertical_connection",
        "level_id": 0,
        "name": "Library Elevator",
        "connection_type": "elevator",
        "vertical_connection_id": "library-elevator",
        "building_id": "library"
      },
      "geometry": {
        "type": "Polygon",
        "coordinates": [
          [
            [-0.1627578, 51.5076364],
            [-0.1627001, 51.5076364],
            [-0.1627001, 51.5076992],
            [-0.1627578, 51.5076992],
            [-0.1627578, 51.5076364]
          ]
        ]
      }
    },
    {
      "type": "Feature",
      "properties": {
        "connection_type": "elevator",
        "feature_type": "vertical_detail",
        "level_id": 0,
        "vertical_connection_id": "library-elevator"
      },
      "geometry": {
        "type": "LineString",
        "coordinates": [
          [-0.16275202688372464, 51.5076399932447],
          [-0.16270587311627532, 51.5076956067553]
        ]
      }
    },
    {
      "type": "Feature",
      "properties": {
        "connection_type": "elevator",
        "feature_type": "vertical_detail",
        "level_id": 0,
        "vertical_connection_id": "library-elevator"
      },
      "geometry": {
        "type": "LineString",
        "coordinates": [
          [-0.16275202688372464, 51.5076956067553],
          [-0.16270587311627532, 51.5076399932447]
        ]
      }
    },
    {
      "type": "Feature",
      "id": "library-elevator-l1",
      "properties": {
        "feature_type": "vertical_connection",
        "level_id": 1,
        "name": "Library Elevator",
        "connection_type": "elevator",
        "vertical_connection_id": "library-elevator",
        "building_id": "library"
      },
      "geometry": {
        "type": "Polygon",
        "coordinates": [
          [
            [-0.1627578, 51.5076364],
            [-0.1627001, 51.5076364],
            [-0.1627001, 51.5076992],
            [-0.1627578, 51.5076992],
            [-0.1627578, 51.5076364]
          ]
        ]
      }
    },
    {
      "type": "Feature",
      "properties": {
        "connection_type": "elevator",
        "feature_type": "vertical_detail",
        "level_id": 1,
        "vertical_connection_id": "library-elevator"
      },
      "geometry": {
        "type": "LineString",
        "coordinates": [
          [-0.16275202688372464, 51.5076399932447],
          [-0.16270587311627532, 51.5076956067553]
        ]
      }
    },
    {
      "type": "Feature",
      "properties": {
        "connection_type": "elevator",
        "feature_type": "vertical_detail",
        "level_id": 1,
        "vertical_connection_id": "library-elevator"
      },
      "geometry": {
        "type": "LineString",
        "coordinates": [
          [-0.16275202688372464, 51.5076956067553],
          [-0.16270587311627532, 51.5076399932447]
        ]
      }
    },
    {
      "type": "Feature",
      "id": "library-elevator-l2",
      "properties": {
        "feature_type": "vertical_connection",
        "level_id": 2,
        "name": "Library Elevator",
        "connection_type": "elevator",
        "vertical_connection_id": "library-elevator",
        "building_id": "library"
      },
      "geometry": {
        "type": "Polygon",
        "coordinates": [
          [
            [-0.1627578, 51.5076364],
            [-0.1627001, 51.5076364],
            [-0.1627001, 51.5076992],
            [-0.1627578, 51.5076992],
            [-0.1627578, 51.5076364]
          ]
        ]
      }
    },
    {
      "type": "Feature",
      "properties": {
        "connection_type": "elevator",
        "feature_type": "vertical_detail",
        "level_id": 2,
        "vertical_connection_id": "library-elevator"
      },
      "geometry": {
        "type": "LineString",
        "coordinates": [
          [-0.16275202688372464, 51.5076399932447],
          [-0.16270587311627532, 51.5076956067553]
        ]
      }
    },
    {
      "type": "Feature",
      "properties": {
        "connection_type": "elevator",
        "feature_type": "vertical_detail",
        "level_id": 2,
        "vertical_connection_id": "library-elevator"
      },
      "geometry": {
        "type": "LineString",
        "coordinates": [
          [-0.16275202688372464, 51.5076956067553],
          [-0.16270587311627532, 51.5076399932447]
        ]
      }
    },
    {
      "type": "Feature",
      "id": "library-stairs-l0",
      "properties": {
        "feature_type": "vertical_connection",
        "level_id": 0,
        "name": "Library Stairs",
        "connection_type": "stairs",
        "vertical_connection_id": "library-stairs",
        "building_id": "library"
      },
      "geometry": {
        "type": "Polygon",
        "coordinates": [
          [
            [-0.1619208, 51.5076364],
            [-0.161863, 51.5076364],
            [-0.161863, 51.5076992],
            [-0.1619208, 51.5076992],
            [-0.1619208, 51.5076364]
          ]
        ]
      }
    },
    {
      "type": "Feature",
      "properties": {
        "connection_type": "stairs",
        "feature_type": "vertical_detail",
        "level_id": 0,
        "vertical_connection_id": "library-stairs"
      },
      "geometry": {
        "type": "LineString",
        "coordinates": [
          [-0.16191116666666666, 51.50764089155588],
          [-0.16191116666666666, 51.50769470844412]
        ]
      }
    },
    {
      "type": "Feature",
      "properties": {
        "connection_type": "stairs",
        "feature_type": "vertical_detail",
        "level_id": 0,
        "vertical_connection_id": "library-stairs"
      },
      "geometry": {
        "type": "LineString",
        "coordinates": [
          [-0.16190153333333335, 51.50764089155588],
          [-0.16190153333333335, 51.50769470844412]
        ]
      }
    },
    {
      "type": "Feature",
      "properties": {
        "connection_type": "stairs",
        "feature_type": "vertical_detail",
        "level_id": 0,
        "vertical_connection_id": "library-stairs"
      },
      "geometry": {
        "type": "LineString",
        "coordinates": [
          [-0.1618919, 51.50764089155588],
          [-0.1618919, 51.50769470844412]
        ]
      }
    },
    {
      "type": "Feature",
      "properties": {
        "connection_type": "stairs",
        "feature_type": "vertical_detail",
        "level_id": 0,
        "vertical_connection_id": "library-stairs"
      },
      "geometry": {
        "type": "LineString",
        "coordinates": [
          [-0.16188226666666666, 51.50764089155588],
          [-0.16188226666666666, 51.50769470844412]
        ]
      }
    },
    {
      "type": "Feature",
      "properties": {
        "connection_type": "stairs",
        "feature_type": "vertical_detail",
        "level_id": 0,
        "vertical_connection_id": "library-stairs"
      },
      "geometry": {
        "type": "LineString",
        "coordinates": [
          [-0.16187263333333335, 51.50764089155588],
          [-0.16187263333333335, 51.50769470844412]
        ]
      }
    },
    {
      "type": "Feature",
      "id": "library-stairs-l1",
      "properties": {
        "feature_type": "vertical_connection",
        "level_id": 1,
        "name": "Library Stairs",
        "connection_type": "stairs",
        "vertical_connection_id": "library-stairs",
        "building_id": "library"
      },
      "geometry": {
        "type": "Polygon",
        "coordinates": [
          [
            [-0.1619208, 51.5076364],
            [-0.161863, 51.5076364],
            [-0.161863, 51.5076992],
            [-0.1619208, 51.5076992],
            [-0.1619208, 51.5076364]
          ]
        ]
      }
    },
    {
      "type": "Feature",
      "properties": {
        "connection_type": "stairs",
        "feature_type": "vertical_detail",
        "level_id": 1,
        "vertical_connection_id": "library-stairs"
      },
      "geometry": {
        "type": "LineString",
        "coordinates": [
          [-0.16191116666666666, 51.50764089155588],
          [-0.16191116666666666, 51.50769470844412]
        ]
      }
    },
    {
      "type": "Feature",
      "properties": {
        "connection_type": "stairs",
        "feature_type": "vertical_detail",
        "level_id": 1,
        "vertical_connection_id": "library-stairs"
      },
      "geometry": {
        "type": "LineString",
        "coordinates": [
          [-0.16190153333333335, 51.50764089155588],
          [-0.16190153333333335, 51.50769470844412]
        ]
      }
    },
    {
      "type": "Feature",
      "properties": {
        "connection_type": "stairs",
        "feature_type": "vertical_detail",
        "level_id": 1,
        "vertical_connection_id": "library-stairs"
      },
      "geometry": {
        "type": "LineString",
        "coordinates": [
          [-0.1618919, 51.50764089155588],
          [-0.1618919, 51.50769470844412]
        ]
      }
    },
    {
      "type": "Feature",
      "properties": {
        "connection_type": "stairs",
        "feature_type": "vertical_detail",
        "level_id": 1,
        "vertical_connection_id": "library-stairs"
      },
      "geometry": {
        "type": "LineString",
        "coordinates": [
          [-0.16188226666666666, 51.50764089155588],
          [-0.16188226666666666, 51.50769470844412]
        ]
      }
    },
    {
      "type": "Feature",
      "properties": {
        "connection_type": "stairs",
        "feature_type": "vertical_detail",
        "level_id": 1,
        "vertical_connection_id": "library-stairs"
      },
      "geometry": {
        "type": "LineString",
        "coordinates": [
          [-0.16187263333333335, 51.50764089155588],
          [-0.16187263333333335, 51.50769470844412]
        ]
      }
    },
    {
      "type": "Feature",
      "id": "library-stairs-l2",
      "properties": {
        "feature_type": "vertical_connection",
        "level_id": 2,
        "name": "Library Stairs",
        "connection_type": "stairs",
        "vertical_connection_id": "library-stairs",
        "building_id": "library"
      },
      "geometry": {
        "type": "Polygon",
        "coordinates": [
          [
            [-0.1619208, 51.5076364],
            [-0.161863, 51.5076364],
            [-0.161863, 51.5076992],
            [-0.1619208, 51.5076992],
            [-0.1619208, 51.5076364]
          ]
        ]
      }
    },
    {
      "type": "Feature",
      "properties": {
        "connection_type": "stairs",
        "feature_type": "vertical_detail",
        "level_id": 2,
        "vertical_connection_id": "library-stairs"
      },
      "geometry": {
        "type": "LineString",
        "coordinates": [
          [-0.16191116666666666, 51.50764089155588],
          [-0.16191116666666666, 51.50769470844412]
        ]
      }
    },
    {
      "type": "Feature",
      "properties": {
        "connection_type": "stairs",
        "feature_type": "vertical_detail",
        "level_id": 2,
        "vertical_connection_id": "library-stairs"
      },
      "geometry": {
        "type": "LineString",
        "coordinates": [
          [-0.16190153333333335, 51.50764089155588],
          [-0.16190153333333335, 51.50769470844412]
        ]
      }
    },
    {
      "type": "Feature",
      "properties": {
        "connection_type": "stairs",
        "feature_type": "vertical_detail",
        "level_id": 2,
        "vertical_connection_id": "library-stairs"
      },
      "geometry": {
        "type": "LineString",
        "coordinates": [
          [-0.1618919, 51.50764089155588],
          [-0.1618919, 51.50769470844412]
        ]
      }
    },
    {
      "type": "Feature",
      "properties": {
        "connection_type": "stairs",
        "feature_type": "vertical_detail",
        "level_id": 2,
        "vertical_connection_id": "library-stairs"
      },
      "geometry": {
        "type": "LineString",
        "coordinates": [
          [-0.16188226666666666, 51.50764089155588],
          [-0.16188226666666666, 51.50769470844412]
        ]
      }
    },
    {
      "type": "Feature",
      "properties": {
        "connection_type": "stairs",
        "feature_type": "vertical_detail",
        "level_id": 2,
        "vertical_connection_id": "library-stairs"
      },
      "geometry": {
        "type": "LineString",
        "coordinates": [
          [-0.16187263333333335, 51.50764089155588],
          [-0.16187263333333335, 51.50769470844412]
        ]
      }
    },
    {
      "type": "Feature",
      "id": "union-outline-0",
      "properties": {
        "feature_type": "floor_outline",
        "level_id": 0,
        "name": "Student Union outline",
        "building_id": "union"
      },
      "geometry": {
        "type": "Polygon",
        "coordinates": [
          [
            [-0.1642011, 51.5066797],
            [-0.1627578, 51.5066797],
            [-0.1627578, 51.507039],
            [-0.1642011, 51.507039],
            [-0.1642011, 51.5066797]
          ]
        ]
      }
    },
    {
      "type": "Feature",
      "id": "union-corridor-0",
      "properties": {
        "feature_type": "corridor",
        "level_id": 0,
        "name": "Student Union corridor",
        "building_id": "union"
      },
      "geometry": {
        "type": "Polygon",
        "coordinates": [
          [
            [-0.1641722, 51.5068234],
            [-0.1627867, 51.5068234],
            [-0.1627867, 51.5068953],
            [-0.1641722, 51.5068953],
            [-0.1641722, 51.5068234]
          ]
        ]
      }
    },
    {
      "type": "Feature",
      "id": 20,
      "properties": {
        "feature_type": "unit",
        "level_id": 0,
        "name": "Student Services",
        "category": "services",
        "building_id": "union"
      },
      "geometry": {
        "type": "Polygon",
        "coordinates": [
          [
            [-0.1641722, 51.5068953],
            [-0.1634939, 51.5068953],
            [-0.1634939, 51.50703],
            [-0.1641722, 51.50703],
            [-0.1641722, 51.5068953]
          ]
        ]
      }
    },
    {
      "type": "Feature",
      "id": 21,
      "properties": {
        "feature_type": "unit",
        "level_id": 0,
        "name": "Union Restrooms",
        "category": "restrooms",
        "building_id": "union"
      },
      "geometry": {
        "type": "Polygon",
        "coordinates": [
          [
            [-0.1634217, 51.5068953],
            [-0.1628011, 51.5068953],
            [-0.1628011, 51.50703],
            [-0.1634217, 51.50703],
            [-0.1634217, 51.5068953]
          ]
        ]
      }
    },
    {
      "type": "Feature",
      "id": 22,
      "properties": {
        "feature_type": "unit",
        "level_id": 0,
        "name": "Campus Bookstore",
        "category": "books",
        "building_id": "union"
      },
      "geometry": {
        "type": "Polygon",
        "coordinates": [
          [
            [-0.1641722, 51.5066886],
            [-0.1634939, 51.5066886],
            [-0.1634939, 51.5068234],
            [-0.1641722, 51.5068234],
            [-0.1641722, 51.5066886]
          ]
        ]
      }
    },
    {
      "type": "Feature",
      "id": 23,
      "properties": {
        "feature_type": "unit",
        "level_id": 0,
        "name": "Food Court",
        "category": "food-court",
        "building_id": "union"
      },
      "geometry": {
        "type": "Polygon",
        "coordinates": [
          [
            [-0.1634795, 51.5066886],
            [-0.1628011, 51.5066886],
            [-0.1628011, 51.5068234],
            [-0.1634795, 51.5068234],
            [-0.1634795, 51.5066886]
          ]
        ]
      }
    },
    {
      "type": "Feature",
      "id": "union-outline-1",
      "properties": {
        "feature_type": "floor_outline",
        "level_id": 1,
        "name": "Student Union outline",
        "building_id": "union"
      },
      "geometry": {
        "type": "Polygon",
        "coordinates": [
          [
            [-0.1642011, 51.5066797],
            [-0.1627578, 51.5066797],
            [-0.1627578, 51.507039],
            [-0.1642011, 51.507039],
            [-0.1642011, 51.5066797]
          ]
        ]
      }
    },
    {
      "type": "Feature",
      "id": "union-corridor-1",
      "properties": {
        "feature_type": "corridor",
        "level_id": 1,
        "name": "Student Union corridor",
        "building_id": "union"
      },
      "geometry": {
        "type": "Polygon",
        "coordinates": [
          [
            [-0.1641722, 51.5068234],
            [-0.1627867, 51.5068234],
            [-0.1627867, 51.5068953],
            [-0.1641722, 51.5068953],
            [-0.1641722, 51.5068234]
          ]
        ]
      }
    },
    {
      "type": "Feature",
      "id": 24,
      "properties": {
        "feature_type": "unit",
        "level_id": 1,
        "name": "Health & Wellness Centre",
        "category": "clinic",
        "building_id": "union"
      },
      "geometry": {
        "type": "Polygon",
        "coordinates": [
          [
            [-0.1641722, 51.5068953],
            [-0.1634939, 51.5068953],
            [-0.1634939, 51.50703],
            [-0.1641722, 51.50703],
            [-0.1641722, 51.5068953]
          ]
        ]
      }
    },
    {
      "type": "Feature",
      "id": 25,
      "properties": {
        "feature_type": "unit",
        "level_id": 1,
        "name": "Clubs Lounge",
        "category": "lounge",
        "building_id": "union"
      },
      "geometry": {
        "type": "Polygon",
        "coordinates": [
          [
            [-0.1634795, 51.5068953],
            [-0.1628011, 51.5068953],
            [-0.1628011, 51.50703],
            [-0.1634795, 51.50703],
            [-0.1634795, 51.5068953]
          ]
        ]
      }
    },
    {
      "type": "Feature",
      "id": 26,
      "properties": {
        "feature_type": "unit",
        "level_id": 1,
        "name": "Fitness Centre",
        "category": "gym",
        "building_id": "union"
      },
      "geometry": {
        "type": "Polygon",
        "coordinates": [
          [
            [-0.1641722, 51.5066886],
            [-0.1628011, 51.5066886],
            [-0.1628011, 51.5068234],
            [-0.1641722, 51.5068234],
            [-0.1641722, 51.5066886]
          ]
        ]
      }
    },
    {
      "type": "Feature",
      "id": "union-stairs-l0",
      "properties": {
        "feature_type": "vertical_connection",
        "level_id": 0,
        "name": "Union Stairs",
        "connection_type": "stairs",
        "vertical_connection_id": "union-stairs",
        "building_id": "union"
      },
      "geometry": {
        "type": "Polygon",
        "coordinates": [
          [
            [-0.1640856, 51.5068279],
            [-0.1640279, 51.5068279],
            [-0.1640279, 51.5068908],
            [-0.1640856, 51.5068908],
            [-0.1640856, 51.5068279]
          ]
        ]
      }
    },
    {
      "type": "Feature",
      "properties": {
        "connection_type": "stairs",
        "feature_type": "vertical_detail",
        "level_id": 0,
        "vertical_connection_id": "union-stairs"
      },
      "geometry": {
        "type": "LineString",
        "coordinates": [
          [-0.16407598333333334, 51.506832391555875],
          [-0.16407598333333334, 51.50688630844412]
        ]
      }
    },
    {
      "type": "Feature",
      "properties": {
        "connection_type": "stairs",
        "feature_type": "vertical_detail",
        "level_id": 0,
        "vertical_connection_id": "union-stairs"
      },
      "geometry": {
        "type": "LineString",
        "coordinates": [
          [-0.16406636666666666, 51.506832391555875],
          [-0.16406636666666666, 51.50688630844412]
        ]
      }
    },
    {
      "type": "Feature",
      "properties": {
        "connection_type": "stairs",
        "feature_type": "vertical_detail",
        "level_id": 0,
        "vertical_connection_id": "union-stairs"
      },
      "geometry": {
        "type": "LineString",
        "coordinates": [
          [-0.16405675, 51.506832391555875],
          [-0.16405675, 51.50688630844412]
        ]
      }
    },
    {
      "type": "Feature",
      "properties": {
        "connection_type": "stairs",
        "feature_type": "vertical_detail",
        "level_id": 0,
        "vertical_connection_id": "union-stairs"
      },
      "geometry": {
        "type": "LineString",
        "coordinates": [
          [-0.16404713333333334, 51.506832391555875],
          [-0.16404713333333334, 51.50688630844412]
        ]
      }
    },
    {
      "type": "Feature",
      "properties": {
        "connection_type": "stairs",
        "feature_type": "vertical_detail",
        "level_id": 0,
        "vertical_connection_id": "union-stairs"
      },
      "geometry": {
        "type": "LineString",
        "coordinates": [
          [-0.16403751666666666, 51.506832391555875],
          [-0.16403751666666666, 51.50688630844412]
        ]
      }
    },
    {
      "type": "Feature",
      "id": "union-stairs-l1",
      "properties": {
        "feature_type": "vertical_connection",
        "level_id": 1,
        "name": "Union Stairs",
        "connection_type": "stairs",
        "vertical_connection_id": "union-stairs",
        "building_id": "union"
      },
      "geometry": {
        "type": "Polygon",
        "coordinates": [
          [
            [-0.1640856, 51.5068279],
            [-0.1640279, 51.5068279],
            [-0.1640279, 51.5068908],
            [-0.1640856, 51.5068908],
            [-0.1640856, 51.5068279]
          ]
        ]
      }
    },
    {
      "type": "Feature",
      "properties": {
        "connection_type": "stairs",
        "feature_type": "vertical_detail",
        "level_id": 1,
        "vertical_connection_id": "union-stairs"
      },
      "geometry": {
        "type": "LineString",
        "coordinates": [
          [-0.16407598333333334, 51.506832391555875],
          [-0.16407598333333334, 51.50688630844412]
        ]
      }
    },
    {
      "type": "Feature",
      "properties": {
        "connection_type": "stairs",
        "feature_type": "vertical_detail",
        "level_id": 1,
        "vertical_connection_id": "union-stairs"
      },
      "geometry": {
        "type": "LineString",
        "coordinates": [
          [-0.16406636666666666, 51.506832391555875],
          [-0.16406636666666666, 51.50688630844412]
        ]
      }
    },
    {
      "type": "Feature",
      "properties": {
        "connection_type": "stairs",
        "feature_type": "vertical_detail",
        "level_id": 1,
        "vertical_connection_id": "union-stairs"
      },
      "geometry": {
        "type": "LineString",
        "coordinates": [
          [-0.16405675, 51.506832391555875],
          [-0.16405675, 51.50688630844412]
        ]
      }
    },
    {
      "type": "Feature",
      "properties": {
        "connection_type": "stairs",
        "feature_type": "vertical_detail",
        "level_id": 1,
        "vertical_connection_id": "union-stairs"
      },
      "geometry": {
        "type": "LineString",
        "coordinates": [
          [-0.16404713333333334, 51.506832391555875],
          [-0.16404713333333334, 51.50688630844412]
        ]
      }
    },
    {
      "type": "Feature",
      "properties": {
        "connection_type": "stairs",
        "feature_type": "vertical_detail",
        "level_id": 1,
        "vertical_connection_id": "union-stairs"
      },
      "geometry": {
        "type": "LineString",
        "coordinates": [
          [-0.16403751666666666, 51.506832391555875],
          [-0.16403751666666666, 51.50688630844412]
        ]
      }
    },
    {
      "type": "Feature",
      "id": "union-escalator-l0",
      "properties": {
        "feature_type": "vertical_connection",
        "level_id": 0,
        "name": "Union Escalator",
        "connection_type": "escalator",
        "vertical_connection_id": "union-escalator",
        "building_id": "union"
      },
      "geometry": {
        "type": "Polygon",
        "coordinates": [
          [
            [-0.1637248, 51.5068279],
            [-0.1636671, 51.5068279],
            [-0.1636671, 51.5068908],
            [-0.1637248, 51.5068908],
            [-0.1637248, 51.5068279]
          ]
        ]
      }
    },
    {
      "type": "Feature",
      "properties": {
        "connection_type": "escalator",
        "feature_type": "vertical_detail",
        "level_id": 0,
        "vertical_connection_id": "union-escalator"
      },
      "geometry": {
        "type": "LineString",
        "coordinates": [
          [-0.1637190345207618, 51.506836883111745],
          [-0.1637046019861588, 51.50685935],
          [-0.1637190345207618, 51.50688181688825]
        ]
      }
    },
    {
      "type": "Feature",
      "properties": {
        "connection_type": "escalator",
        "feature_type": "vertical_detail",
        "level_id": 0,
        "vertical_connection_id": "union-escalator"
      },
      "geometry": {
        "type": "LineString",
        "coordinates": [
          [-0.1637046095207618, 51.506836883111745],
          [-0.16369017698615881, 51.50685935],
          [-0.1637046095207618, 51.50688181688825]
        ]
      }
    },
    {
      "type": "Feature",
      "properties": {
        "connection_type": "escalator",
        "feature_type": "vertical_detail",
        "level_id": 0,
        "vertical_connection_id": "union-escalator"
      },
      "geometry": {
        "type": "LineString",
        "coordinates": [
          [-0.1636901845207618, 51.506836883111745],
          [-0.1636757519861588, 51.50685935],
          [-0.1636901845207618, 51.50688181688825]
        ]
      }
    },
    {
      "type": "Feature",
      "id": "union-escalator-l1",
      "properties": {
        "feature_type": "vertical_connection",
        "level_id": 1,
        "name": "Union Escalator",
        "connection_type": "escalator",
        "vertical_connection_id": "union-escalator",
        "building_id": "union"
      },
      "geometry": {
        "type": "Polygon",
        "coordinates": [
          [
            [-0.1637248, 51.5068279],
            [-0.1636671, 51.5068279],
            [-0.1636671, 51.5068908],
            [-0.1637248, 51.5068908],
            [-0.1637248, 51.5068279]
          ]
        ]
      }
    },
    {
      "type": "Feature",
      "properties": {
        "connection_type": "escalator",
        "feature_type": "vertical_detail",
        "level_id": 1,
        "vertical_connection_id": "union-escalator"
      },
      "geometry": {
        "type": "LineString",
        "coordinates": [
          [-0.1637190345207618, 51.506836883111745],
          [-0.1637046019861588, 51.50685935],
          [-0.1637190345207618, 51.50688181688825]
        ]
      }
    },
    {
      "type": "Feature",
      "properties": {
        "connection_type": "escalator",
        "feature_type": "vertical_detail",
        "level_id": 1,
        "vertical_connection_id": "union-escalator"
      },
      "geometry": {
        "type": "LineString",
        "coordinates": [
          [-0.1637046095207618, 51.506836883111745],
          [-0.16369017698615881, 51.50685935],
          [-0.1637046095207618, 51.50688181688825]
        ]
      }
    },
    {
      "type": "Feature",
      "properties": {
        "connection_type": "escalator",
        "feature_type": "vertical_detail",
        "level_id": 1,
        "vertical_connection_id": "union-escalator"
      },
      "geometry": {
        "type": "LineString",
        "coordinates": [
          [-0.1636901845207618, 51.506836883111745],
          [-0.1636757519861588, 51.50685935],
          [-0.1636901845207618, 51.50688181688825]
        ]
      }
    },
    {
      "type": "Feature",
      "id": "union-elevator-l0",
      "properties": {
        "feature_type": "vertical_connection",
        "level_id": 0,
        "name": "Union Elevator",
        "connection_type": "elevator",
        "vertical_connection_id": "union-elevator",
        "building_id": "union"
      },
      "geometry": {
        "type": "Polygon",
        "coordinates": [
          [
            [-0.162931, 51.5068279],
            [-0.1628733, 51.5068279],
            [-0.1628733, 51.5068908],
            [-0.162931, 51.5068908],
            [-0.162931, 51.5068279]
          ]
        ]
      }
    },
    {
      "type": "Feature",
      "properties": {
        "connection_type": "elevator",
        "feature_type": "vertical_detail",
        "level_id": 0,
        "vertical_connection_id": "union-elevator"
      },
      "geometry": {
        "type": "LineString",
        "coordinates": [
          [-0.1629252269861588, 51.5068314932447],
          [-0.1628790730138412, 51.5068872067553]
        ]
      }
    },
    {
      "type": "Feature",
      "properties": {
        "connection_type": "elevator",
        "feature_type": "vertical_detail",
        "level_id": 0,
        "vertical_connection_id": "union-elevator"
      },
      "geometry": {
        "type": "LineString",
        "coordinates": [
          [-0.1629252269861588, 51.5068872067553],
          [-0.1628790730138412, 51.5068314932447]
        ]
      }
    },
    {
      "type": "Feature",
      "id": "union-elevator-l1",
      "properties": {
        "feature_type": "vertical_connection",
        "level_id": 1,
        "name": "Union Elevator",
        "connection_type": "elevator",
        "vertical_connection_id": "union-elevator",
        "building_id": "union"
      },
      "geometry": {
        "type": "Polygon",
        "coordinates": [
          [
            [-0.162931, 51.5068279],
            [-0.1628733, 51.5068279],
            [-0.1628733, 51.5068908],
            [-0.162931, 51.5068908],
            [-0.162931, 51.5068279]
          ]
        ]
      }
    },
    {
      "type": "Feature",
      "properties": {
        "connection_type": "elevator",
        "feature_type": "vertical_detail",
        "level_id": 1,
        "vertical_connection_id": "union-elevator"
      },
      "geometry": {
        "type": "LineString",
        "coordinates": [
          [-0.1629252269861588, 51.5068314932447],
          [-0.1628790730138412, 51.5068872067553]
        ]
      }
    },
    {
      "type": "Feature",
      "properties": {
        "connection_type": "elevator",
        "feature_type": "vertical_detail",
        "level_id": 1,
        "vertical_connection_id": "union-elevator"
      },
      "geometry": {
        "type": "LineString",
        "coordinates": [
          [-0.1629252269861588, 51.5068872067553],
          [-0.1628790730138412, 51.5068314932447]
        ]
      }
    },
    {
      "type": "Feature",
      "id": "skybridge",
      "properties": {
        "feature_type": "corridor",
        "level_id": 1,
        "name": "Science\u2013Library Skybridge",
        "fill": "#bfdbfe",
        "stroke": "#60a5fa"
      },
      "geometry": {
        "type": "Polygon",
        "coordinates": [
          [
            [-0.1640568, 51.5076409],
            [-0.1629022, 51.5076409],
            [-0.1629022, 51.5076948],
            [-0.1640568, 51.5076948],
            [-0.1640568, 51.5076409]
          ]
        ]
      }
    }
  ]
}
