{
  "type": "FeatureCollection",
  "features": [
    {
      "type": "Feature",
      "id": 1,
      "properties": {
        "building_id": "science",
        "floor": 0,
        "id": 1,
        "metadata": {
          "category": "information",
          "building": "Science Hall",
          "keywords": ["science hall", "information"]
        },
        "name": "Science Lobby & Info Desk",
        "type": "room"
      },
      "geometry": {
        "type": "Point",
        "coordinates": [-0.1649155, 51.5077711]
      }
    },
    {
      "type": "Feature",
      "id": 2,
      "properties": {
        "building_id": "science",
        "floor": 0,
        "id": 2,
        "metadata": {
          "category": "laboratory",
          "building": "Science Hall",
          "keywords": ["science hall", "laboratory"]
        },
        "name": "Chemistry Lab S110",
        "type": "room"
      },
      "geometry": {
        "type": "Point",
        "coordinates": [-0.1643671, 51.5077711]
      }
    },
    {
      "type": "Feature",
      "id": 3,
      "properties": {
        "building_id": "science",
        "floor": 0,
        "id": 3,
        "metadata": {
          "category": "lecture-hall",
          "building": "Science Hall",
          "keywords": ["science hall", "lecture-hall"]
        },
        "name": "Lecture Theatre S100",
        "type": "room"
      },
      "geometry": {
        "type": "Point",
        "coordinates": [-0.1649371, 51.5075645]
      }
    },
    {
      "type": "Feature",
      "id": 4,
      "properties": {
        "building_id": "science",
        "floor": 1,
        "id": 4,
        "metadata": {
          "category": "laboratory",
          "building": "Science Hall",
          "keywords": ["science hall", "laboratory"]
        },
        "name": "Biology Lab S210",
        "type": "room"
      },
      "geometry": {
        "type": "Point",
        "coordinates": [-0.1649155, 51.5077711]
      }
    },
    {
      "type": "Feature",
      "id": 5,
      "properties": {
        "building_id": "science",
        "floor": 1,
        "id": 5,
        "metadata": {
          "category": "restrooms",
          "building": "Science Hall",
          "keywords": ["science hall", "restrooms"]
        },
        "name": "Science Restrooms (Level 2)",
        "type": "amenity"
      },
      "geometry": {
        "type": "Point",
        "coordinates": [-0.1643671, 51.5077711]
      }
    },
    {
      "type": "Feature",
      "id": 6,
      "properties": {
        "building_id": "science",
        "floor": 1,
        "id": 6,
        "metadata": {
          "category": "classroom",
          "building": "Science Hall",
          "keywords": ["science hall", "classroom"]
        },
        "name": "Seminar Room S220",
        "type": "room"
      },
      "geometry": {
        "type": "Point",
        "coordinates": [-0.1646413, 51.5075645]
      }
    },
    {
      "type": "Feature",
      "id": 7,
      "properties": {
        "building_id": "science",
        "floor": 2,
        "id": 7,
        "metadata": {
          "category": "laboratory",
          "building": "Science Hall",
          "keywords": ["science hall", "laboratory"]
        },
        "name": "Physics Lab S310",
        "type": "room"
      },
      "geometry": {
        "type": "Point",
        "coordinates": [-0.1649155, 51.5077711]
      }
    },
    {
      "type": "Feature",
      "id": 8,
      "properties": {
        "building_id": "science",
        "floor": 2,
        "id": 8,
        "metadata": {
          "category": "lounge",
          "building": "Science Hall",
          "keywords": ["science hall", "lounge"]
        },
        "name": "Graduate Lounge",
        "type": "room"
      },
      "geometry": {
        "type": "Point",
        "coordinates": [-0.1643671, 51.5077711]
      }
    },
    {
      "type": "Feature",
      "id": 9,
      "properties": {
        "building_id": "science",
        "floor": 2,
        "id": 9,
        "metadata": {
          "category": "classroom",
          "building": "Science Hall",
          "keywords": ["science hall", "classroom"]
        },
        "name": "Classroom S320",
        "type": "room"
      },
      "geometry": {
        "type": "Point",
        "coordinates": [-0.1646413, 51.5075645]
      }
    },
    {
      "type": "Feature",
      "id": 10,
      "properties": {
        "building_id": "science",
        "floor": 3,
        "id": 10,
        "metadata": {
          "category": "office",
          "building": "Science Hall",
          "keywords": ["science hall", "office"]
        },
        "name": "Dean of Science Office",
        "type": "room"
      },
      "geometry": {
        "type": "Point",
        "coordinates": [-0.1646413, 51.5077711]
      }
    },
    {
      "type": "Feature",
      "id": 11,
      "properties": {
        "building_id": "science",
        "floor": 3,
        "id": 11,
        "metadata": {
          "category": "observatory",
          "building": "Science Hall",
          "keywords": ["science hall", "observatory"]
        },
        "name": "Observatory Deck",
        "type": "room"
      },
      "geometry": {
        "type": "Point",
        "coordinates": [-0.1646413, 51.5075645]
      }
    },
    {
      "type": "Feature",
      "id": 12,
      "properties": {
        "building_id": "science",
        "floor": 0,
        "id": 12,
        "metadata": {
          "category": "entrance-exit",
          "building": "Science Hall",
          "keywords": ["science hall", "entrance", "door"]
        },
        "name": "Science Hall Main Entrance",
        "type": "entrance"
      },
      "geometry": {
        "type": "Point",
        "coordinates": [-0.1646341, 51.5074881]
      }
    },
    {
      "type": "Feature",
      "id": 13,
      "properties": {
        "building_id": "science",
        "floor": 0,
        "id": 13,
        "metadata": {
          "category": "stairs",
          "building": "Science Hall"
        },
        "name": "Science Stairs",
        "type": "amenity"
      },
      "geometry": {
        "type": "Point",
        "coordinates": [-0.165067, 51.5076678]
      }
    },
    {
      "type": "Feature",
      "id": 14,
      "properties": {
        "building_id": "science",
        "floor": 0,
        "id": 14,
        "metadata": {
          "category": "elevator",
          "building": "Science Hall"
        },
        "name": "Science Elevator",
        "type": "amenity"
      },
      "geometry": {
        "type": "Point",
        "coordinates": [-0.1642299, 51.5076678]
      }
    },
    {
      "type": "Feature",
      "id": 15,
      "properties": {
        "building_id": "library",
        "floor": 0,
        "id": 15,
        "metadata": {
          "category": "information",
          "building": "Library",
          "keywords": ["library", "information"]
        },
        "name": "Library Service Desk",
        "type": "room"
      },
      "geometry": {
        "type": "Point",
        "coordinates": [-0.1626063, 51.5077711]
      }
    },
    {
      "type": "Feature",
      "id": 16,
      "properties": {
        "building_id": "library",
        "floor": 0,
        "id": 16,
        "metadata": {
          "category": "services",
          "building": "Library",
          "keywords": ["library", "services"]
        },
        "name": "Print & Copy Centre",
        "type": "room"
      },
      "geometry": {
        "type": "Point",
        "coordinates": [-0.1620579, 51.5077711]
      }
    },
    {
      "type": "Feature",
      "id": 17,
      "properties": {
        "building_id": "library",
        "floor": 0,
        "id": 17,
        "metadata": {
          "category": "cafe",
          "building": "Library",
          "keywords": ["library", "cafe"]
        },
        "name": "Library Cafe",
        "type": "restaurant"
      },
      "geometry": {
        "type": "Point",
        "coordinates": [-0.1626279, 51.5075645]
      }
    },
    {
      "type": "Feature",
      "id": 18,
      "properties": {
        "building_id": "library",
        "floor": 1,
        "id": 18,
        "metadata": {
          "category": "study",
          "building": "Library",
          "keywords": ["library", "study"]
        },
        "name": "Reading Room",
        "type": "room"
      },
      "geometry": {
        "type": "Point",
        "coordinates": [-0.1626063, 51.5077711]
      }
    },
    {
      "type": "Feature",
      "id": 19,
      "properties": {
        "building_id": "library",
        "floor": 1,
        "id": 19,
        "metadata": {
          "category": "restrooms",
          "building": "Library",
          "keywords": ["library", "restrooms"]
        },
        "name": "Library Restrooms (Level 2)",
        "type": "amenity"
      },
      "geometry": {
        "type": "Point",
        "coordinates": [-0.1620579, 51.5077711]
      }
    },
    {
      "type": "Feature",
      "id": 20,
      "properties": {
        "building_id": "library",
        "floor": 1,
        "id": 20,
        "metadata": {
          "category": "study",
          "building": "Library",
          "keywords": ["library", "study"]
        },
        "name": "Group Study Rooms",
        "type": "room"
      },
      "geometry": {
        "type": "Point",
        "coordinates": [-0.1623321, 51.5075645]
      }
    },
    {
      "type": "Feature",
      "id": 21,
      "properties": {
        "building_id": "library",
        "floor": 2,
        "id": 21,
        "metadata": {
          "category": "archive",
          "building": "Library",
          "keywords": ["library", "archive"]
        },
        "name": "Special Collections",
        "type": "room"
      },
      "geometry": {
        "type": "Point",
        "coordinates": [-0.1623321, 51.5077711]
      }
    },
    {
      "type": "Feature",
      "id": 22,
      "properties": {
        "building_id": "library",
        "floor": 2,
        "id": 22,
        "metadata": {
          "category": "study",
          "building": "Library",
          "keywords": ["library", "study"]
        },
        "name": "Quiet Study Floor",
        "type": "room"
      },
      "geometry": {
        "type": "Point",
        "coordinates": [-0.1623321, 51.5075645]
      }
    },
    {
      "type": "Feature",
      "id": 23,
      "properties": {
        "building_id": "library",
        "floor": 0,
        "id": 23,
        "metadata": {
          "category": "entrance-exit",
          "building": "Library",
          "keywords": ["library", "entrance", "door"]
        },
        "name": "Library Main Entrance",
        "type": "entrance"
      },
      "geometry": {
        "type": "Point",
        "coordinates": [-0.1623249, 51.5074881]
      }
    },
    {
      "type": "Feature",
      "id": 24,
      "properties": {
        "building_id": "library",
        "floor": 0,
        "id": 24,
        "metadata": {
          "category": "elevator",
          "building": "Library"
        },
        "name": "Library Elevator",
        "type": "amenity"
      },
      "geometry": {
        "type": "Point",
        "coordinates": [-0.162729, 51.5076678]
      }
    },
    {
      "type": "Feature",
      "id": 25,
      "properties": {
        "building_id": "library",
        "floor": 0,
        "id": 25,
        "metadata": {
          "category": "stairs",
          "building": "Library"
        },
        "name": "Library Stairs",
        "type": "amenity"
      },
      "geometry": {
        "type": "Point",
        "coordinates": [-0.1618919, 51.5076678]
      }
    },
    {
      "type": "Feature",
      "id": 26,
      "properties": {
        "building_id": "union",
        "floor": 0,
        "id": 26,
        "metadata": {
          "category": "services",
          "building": "Student Union",
          "keywords": ["student union", "services"]
        },
        "name": "Student Services",
        "type": "room"
      },
      "geometry": {
        "type": "Point",
        "coordinates": [-0.1638331, 51.5069626]
      }
    },
    {
      "type": "Feature",
      "id": 27,
      "properties": {
        "building_id": "union",
        "floor": 0,
        "id": 27,
        "metadata": {
          "category": "restrooms",
          "building": "Student Union",
          "keywords": ["student union", "restrooms"]
        },
        "name": "Union Restrooms",
        "type": "amenity"
      },
      "geometry": {
        "type": "Point",
        "coordinates": [-0.1631114, 51.5069626]
      }
    },
    {
      "type": "Feature",
      "id": 28,
      "properties": {
        "building_id": "union",
        "floor": 0,
        "id": 28,
        "metadata": {
          "category": "books",
          "building": "Student Union",
          "keywords": ["student union", "books"]
        },
        "name": "Campus Bookstore",
        "type": "store"
      },
      "geometry": {
        "type": "Point",
        "coordinates": [-0.1638331, 51.506756]
      }
    },
    {
      "type": "Feature",
      "id": 29,
      "properties": {
        "building_id": "union",
        "floor": 0,
        "id": 29,
        "metadata": {
          "category": "food-court",
          "building": "Student Union",
          "keywords": ["student union", "food-court"]
        },
        "name": "Food Court",
        "type": "restaurant"
      },
      "geometry": {
        "type": "Point",
        "coordinates": [-0.1631403, 51.506756]
      }
    },
    {
      "type": "Feature",
      "id": 30,
      "properties": {
        "building_id": "union",
        "floor": 1,
        "id": 30,
        "metadata": {
          "category": "clinic",
          "building": "Student Union",
          "keywords": ["student union", "clinic"]
        },
        "name": "Health & Wellness Centre",
        "type": "room"
      },
      "geometry": {
        "type": "Point",
        "coordinates": [-0.1638331, 51.5069626]
      }
    },
    {
      "type": "Feature",
      "id": 31,
      "properties": {
        "building_id": "union",
        "floor": 1,
        "id": 31,
        "metadata": {
          "category": "lounge",
          "building": "Student Union",
          "keywords": ["student union", "lounge"]
        },
        "name": "Clubs Lounge",
        "type": "room"
      },
      "geometry": {
        "type": "Point",
        "coordinates": [-0.1631403, 51.5069626]
      }
    },
    {
      "type": "Feature",
      "id": 32,
      "properties": {
        "building_id": "union",
        "floor": 1,
        "id": 32,
        "metadata": {
          "category": "gym",
          "building": "Student Union",
          "keywords": ["student union", "gym"]
        },
        "name": "Fitness Centre",
        "type": "room"
      },
      "geometry": {
        "type": "Point",
        "coordinates": [-0.1634867, 51.506756]
      }
    },
    {
      "type": "Feature",
      "id": 33,
      "properties": {
        "building_id": "union",
        "floor": 0,
        "id": 33,
        "metadata": {
          "category": "entrance-exit",
          "building": "Student Union",
          "keywords": ["student union", "entrance", "door"]
        },
        "name": "Student Union Main Entrance",
        "type": "entrance"
      },
      "geometry": {
        "type": "Point",
        "coordinates": [-0.1634795, 51.507039]
      }
    },
    {
      "type": "Feature",
      "id": 34,
      "properties": {
        "building_id": "union",
        "floor": 0,
        "id": 34,
        "metadata": {
          "category": "stairs",
          "building": "Student Union"
        },
        "name": "Union Stairs",
        "type": "amenity"
      },
      "geometry": {
        "type": "Point",
        "coordinates": [-0.1640568, 51.5068593]
      }
    },
    {
      "type": "Feature",
      "id": 35,
      "properties": {
        "building_id": "union",
        "floor": 0,
        "id": 35,
        "metadata": {
          "category": "escalator",
          "building": "Student Union"
        },
        "name": "Union Escalator",
        "type": "amenity"
      },
      "geometry": {
        "type": "Point",
        "coordinates": [-0.1636959, 51.5068593]
      }
    },
    {
      "type": "Feature",
      "id": 36,
      "properties": {
        "building_id": "union",
        "floor": 0,
        "id": 36,
        "metadata": {
          "category": "elevator",
          "building": "Student Union"
        },
        "name": "Union Elevator",
        "type": "amenity"
      },
      "geometry": {
        "type": "Point",
        "coordinates": [-0.1629022, 51.5068593]
      }
    },
    {
      "type": "Feature",
      "id": 37,
      "properties": {
        "building_id": "campus",
        "floor": 0,
        "id": 37,
        "metadata": {
          "category": "landmark",
          "building": "Outdoors",
          "keywords": ["outdoor", "campus", "landmark"]
        },
        "name": "Main Quad",
        "type": "landmark"
      },
      "geometry": {
        "type": "Point",
        "coordinates": [-0.1634795, 51.5073534]
      }
    },
    {
      "type": "Feature",
      "id": 38,
      "properties": {
        "building_id": "campus",
        "floor": 0,
        "id": 38,
        "metadata": {
          "category": "transit",
          "building": "Outdoors",
          "keywords": ["outdoor", "campus", "transit"]
        },
        "name": "Campus Bus Loop",
        "type": "transit"
      },
      "geometry": {
        "type": "Point",
        "coordinates": [-0.1613146, 51.5072636]
      }
    },
    {
      "type": "Feature",
      "id": 39,
      "properties": {
        "building_id": "campus",
        "floor": 0,
        "id": 39,
        "metadata": {
          "category": "parking",
          "building": "Outdoors",
          "keywords": ["outdoor", "campus", "parking"]
        },
        "name": "Visitor Parking P1",
        "type": "parking"
      },
      "geometry": {
        "type": "Point",
        "coordinates": [-0.1655, 51.5072636]
      }
    }
  ]
}
