{
  "type": "FeatureCollection",
  "features": [
    {
      "type": "Feature",
      "id": 3951,
      "properties": {
        "feature_type": "reference_outline",
        "campus_id": "unbc-prince-george",
        "building_code": "11",
        "building_id": "unbc-11-efl",
        "building_name": "Enhanced Forestry Laboratory",
        "source_layer": "3_buildings",
        "source_entity": "CAMPUS_REFERENCE",
        "component_indexes": [
          11
        ]
      },
      "geometry": {
        "type": "Polygon",
        "coordinates": [
          [
            [
              -122.81631550400832,
              53.89166549475612
            ],
            [
              -122.816489613091,
              53.89170609403024
            ],
            [
              -122.81643987636323,
              53.89178192515322
            ],
            [
              -122.8165339445735,
              53.89180624076015
            ],
            [
              -122.81645832228553,
              53.89192203506229
            ],
            [
              -122.81640878284708,
              53.8919111707698
            ],
            [
              -122.81638345094188,
              53.89195179373648
            ],
            [
              -122.81643309273306,
              53.89196268393949
            ],
            [
              -122.81628569593173,
              53.89219137354408
            ],
            [
              -122.81626451915983,
              53.892187326270395
            ],
            [
              -122.81622495403344,
              53.89224871249473
            ],
            [
              -122.81627307742814,
              53.892257909767565
            ],
            [
              -122.81613357416015,
              53.892483159578006
            ],
            [
              -122.81611938196681,
              53.892480048344
            ],
            [
              -122.816103953388,
              53.89250464918184
            ],
            [
              -122.81591951664569,
              53.89246420137179
            ],
            [
              -122.81593494617177,
              53.89243959022193
            ],
            [
              -122.81592076942115,
              53.89243647854594
            ],
            [
              -122.81597876924342,
              53.89234397191215
            ],
            [
              -122.81601423428398,
              53.892351750439154
            ],
            [
              -122.81604879143943,
              53.89229664217593
            ],
            [
              -122.81601332639885,
              53.89228886364891
            ],
            [
              -122.81607504166152,
              53.892190449985556
            ],
            [
              -122.81611053758752,
              53.89219822762857
            ],
            [
              -122.81614139569245,
              53.89214901564087
            ],
            [
              -122.81608462597195,
              53.892136581016885
            ],
            [
              -122.81622657098139,
              53.89191023062238
            ],
            [
              -122.81625493992532,
              53.89191645353237
            ],
            [
              -122.8162858125257,
              53.89186725141471
            ],
            [
              -122.81625742813908,
              53.8918610289467
            ],
            [
              -122.81632367954741,
              53.89175483003387
            ],
            [
              -122.8162437107118,
              53.891736182662754
            ],
            [
              -122.81623422668986,
              53.891694689339616
            ],
            [
              -122.81614047182198,
              53.89171047540815
            ],
            [
              -122.81612015514816,
              53.89166637572521
            ],
            [
              -122.81617488624671,
              53.89165716032238
            ],
            [
              -122.8161563762694,
              53.89157617775238
            ],
            [
              -122.81616849456775,
              53.891559217120445
            ],
            [
              -122.81615190267034,
              53.89155487631373
            ],
            [
              -122.81617798571004,
              53.89151837078939
            ],
            [
              -122.81613532413382,
              53.89150720957909
            ],
            [
              -122.81620560756512,
              53.891408841691664
            ],
            [
              -122.81625591093409,
              53.8914220021637
            ],
            [
              -122.8162876033268,
              53.89137764585296
            ],
            [
              -122.81625407001414,
              53.89136887279795
            ],
            [
              -122.81641381255704,
              53.891144457734754
            ],
            [
              -122.81645720501393,
              53.891155575051336
            ],
            [
              -122.81649182814405,
              53.891107116914014
            ],
            [
              -122.81646869468707,
              53.89110106469087
            ],
            [
              -122.81653608163677,
              53.891006750686024
            ],
            [
              -122.816570977661,
              53.891015880256475
            ],
            [
              -122.81660608986917,
              53.8909667376111
            ],
            [
              -122.81657121764479,
              53.89095761426721
            ],
            [
              -122.81663453324026,
              53.89086899848323
            ],
            [
              -122.81664289854852,
              53.89087118703257
            ],
            [
              -122.8166600400216,
              53.8908471960227
            ],
            [
              -122.81683834443913,
              53.890893844395315
            ],
            [
              -122.81682120296605,
              53.89091783540518
            ],
            [
              -122.81682959207419,
              53.8909200301811
            ],
            [
              -122.81667081400748,
              53.891142254149116
            ],
            [
              -122.81662503669054,
              53.891130277792236
            ],
            [
              -122.8165833768738,
              53.89118858439578
            ],
            [
              -122.81660347754949,
              53.89119384317638
            ],
            [
              -122.81644308708542,
              53.89141832383733
            ],
            [
              -122.81639712344962,
              53.89140629873532
            ],
            [
              -122.81636543105691,
              53.89145065504605
            ],
            [
              -122.81641226644732,
              53.89146290821832
            ],
            [
              -122.81634198301602,
              53.89156127610574
            ],
            [
              -122.81630761738852,
              53.89155228529878
            ],
            [
              -122.81628314897827,
              53.891586531006176
            ],
            [
              -122.81628941003142,
              53.89161392359375
            ],
            [
              -122.81636960125269,
              53.89160042131766
            ],
            [
              -122.81637943546167,
              53.891643446736
            ],
            [
              -122.81632382348864,
              53.8916528104569
            ],
            [
              -122.81631550400832,
              53.89166549475612
            ]
          ]
        ]
      }
    },
    {
      "type": "Feature",
      "id": 3952,
      "properties": {
        "feature_type": "reference_outline",
        "campus_id": "unbc-prince-george",
        "building_code": "12",
        "building_id": "unbc-12-maintenance",
        "building_name": "Maintenance Building",
        "source_layer": "3_buildings",
        "source_entity": "CAMPUS_REFERENCE",
        "component_indexes": [
          14
        ]
      },
      "geometry": {
        "type": "Polygon",
        "coordinates": [
          [
            [
              -122.81762379642456,
              53.89056559404607
            ],
            [
              -122.81767935958574,
              53.89050876271444
            ],
            [
              -122.8176940909254,
              53.890514543141066
            ],
            [
              -122.81770996785045,
              53.890498303842
            ],
            [
              -122.81773278402474,
              53.89050725667483
            ],
            [
              -122.8177592409368,
              53.890480195911714
            ],
            [
              -122.81783908881454,
              53.890511527400186
            ],
            [
              -122.81779675497746,
              53.890554827462346
            ],
            [
              -122.817872166862,
              53.890584418312585
            ],
            [
              -122.81781792663321,
              53.89063989651726
            ],
            [
              -122.81782019393522,
              53.89064812769169
            ],
            [
              -122.81775648484377,
              53.890713290875844
            ],
            [
              -122.8177438424183,
              53.890715671626104
            ],
            [
              -122.81768563339229,
              53.89077520921163
            ],
            [
              -122.81768790069428,
              53.89078344038605
            ],
            [
              -122.81762419160283,
              53.8908486035702
            ],
            [
              -122.81761154917736,
              53.89085098432046
            ],
            [
              -122.8175159327262,
              53.890948783116094
            ],
            [
              -122.81738520041095,
              53.89097340188839
            ],
            [
              -122.81736198058427,
              53.890889105026346
            ],
            [
              -122.81736015632664,
              53.89088838920635
            ],
            [
              -122.81738617226122,
              53.890861779485554
            ],
            [
              -122.81736335608694,
              53.89085282665272
            ],
            [
              -122.81737923301198,
              53.89083658735365
            ],
            [
              -122.81736450167232,
              53.89083080692702
            ],
            [
              -122.81742006483351,
              53.89077397559539
            ],
            [
              -122.81743479617317,
              53.89077975602201
            ],
            [
              -122.81745067309821,
              53.890763516722934
            ],
            [
              -122.81747348927252,
              53.89077246955576
            ],
            [
              -122.81751846550216,
              53.89072646679121
            ],
            [
              -122.81749564932787,
              53.89071751395836
            ],
            [
              -122.81751152625291,
              53.89070127465929
            ],
            [
              -122.81749679491324,
              53.890695494232666
            ],
            [
              -122.81755235807444,
              53.89063866290103
            ],
            [
              -122.81756708941411,
              53.89064444332767
            ],
            [
              -122.81758296633915,
              53.89062820402858
            ],
            [
              -122.8176057800185,
              53.890637155882416
            ],
            [
              -122.81764546701345,
              53.890596566604614
            ],
            [
              -122.81762265083917,
              53.890587613771785
            ],
            [
              -122.81763852776422,
              53.8905713744727
            ],
            [
              -122.81762379642456,
              53.89056559404607
            ]
          ]
        ]
      }
    },
    {
      "type": "Feature",
      "id": 3953,
      "properties": {
        "feature_type": "reference_outline",
        "campus_id": "unbc-prince-george",
        "building_code": "19",
        "building_id": "unbc-19-bioenergy",
        "building_name": "Bioenergy Facility",
        "source_layer": "3_buildings",
        "source_entity": "CAMPUS_REFERENCE",
        "component_indexes": [
          7
        ]
      },
      "geometry": {
        "type": "Polygon",
        "coordinates": [
          [
            [
              -122.81703446402274,
              53.893212170815296
            ],
            [
              -122.81699661348713,
              53.893289187967305
            ],
            [
              -122.81663298235262,
              53.89323294508685
            ],
            [
              -122.8166220366627,
              53.89325521705345
            ],
            [
              -122.81648956248644,
              53.89323472725334
            ],
            [
              -122.81664241720829,
              53.8929237029795
            ],
            [
              -122.8169391100808,
              53.89297049715668
            ],
            [
              -122.81692857757743,
              53.89299192838349
            ],
            [
              -122.81699311986004,
              53.89300191114773
            ],
            [
              -122.81693899242079,
              53.89311204806263
            ],
            [
              -122.81698582924177,
              53.89311929232055
            ],
            [
              -122.8169449248387,
              53.89319832177668
            ],
            [
              -122.81703446402274,
              53.893212170815296
            ]
          ]
        ]
      }
    },
    {
      "type": "Feature",
      "id": 3954,
      "properties": {
        "feature_type": "reference_outline",
        "campus_id": "unbc-prince-george",
        "building_code": "02",
        "building_id": "unbc-02-plant",
        "building_name": "Plant",
        "source_layer": "3_buildings",
        "source_entity": "CAMPUS_REFERENCE",
        "component_indexes": [
          13
        ]
      },
      "geometry": {
        "type": "Polygon",
        "coordinates": [
          [
            [
              -122.81778696132972,
              53.89153972856241
            ],
            [
              -122.81772224965717,
              53.89161118332626
            ],
            [
              -122.81754718278306,
              53.891548844976775
            ],
            [
              -122.81744815693504,
              53.89159113842547
            ],
            [
              -122.81742238354843,
              53.891628512474504
            ],
            [
              -122.8174569977245,
              53.89163714923256
            ],
            [
              -122.81738879577816,
              53.891736049036695
            ],
            [
              -122.81734162165196,
              53.891724278382036
            ],
            [
              -122.81731086784805,
              53.89176887454607
            ],
            [
              -122.81735716391472,
              53.89178042611168
            ],
            [
              -122.81720152350817,
              53.89200612063443
            ],
            [
              -122.81715846982367,
              53.89199537809198
            ],
            [
              -122.81712487207784,
              53.892044098262936
            ],
            [
              -122.81714817284694,
              53.8920499121556
            ],
            [
              -122.81708278160121,
              53.89214473615617
            ],
            [
              -122.81704763319235,
              53.89213596609901
            ],
            [
              -122.81701356085279,
              53.89218537447941
            ],
            [
              -122.81704868528968,
              53.89219413855521
            ],
            [
              -122.81698724482266,
              53.892283233522186
            ],
            [
              -122.81697881901249,
              53.8922811311557
            ],
            [
              -122.81696218519419,
              53.8923052518951
            ],
            [
              -122.81678259119435,
              53.89226044048848
            ],
            [
              -122.81679922501266,
              53.89223631974907
            ],
            [
              -122.8167907752305,
              53.89223421140122
            ],
            [
              -122.81694485099177,
              53.892010785774296
            ],
            [
              -122.81699095939204,
              53.892022290514305
            ],
            [
              -122.81703138542893,
              53.89196366862231
            ],
            [
              -122.81701113937557,
              53.8919586169272
            ],
            [
              -122.81716677978211,
              53.891732922404465
            ],
            [
              -122.81720055562363,
              53.8917413499854
            ],
            [
              -122.81723130942756,
              53.89169675382136
            ],
            [
              -122.8171942281918,
              53.8916875014948
            ],
            [
              -122.81726243013807,
              53.891588601690636
            ],
            [
              -122.81729714225686,
              53.89159726288684
            ],
            [
              -122.81732245283206,
              53.891560559961704
            ],
            [
              -122.81733218719303,
              53.89156298883131
            ],
            [
              -122.8173488660642,
              53.89153880276068
            ],
            [
              -122.81745349393705,
              53.89149411671497
            ],
            [
              -122.81742530856356,
              53.8914613883875
            ],
            [
              -122.81750883779233,
              53.891425713468074
            ],
            [
              -122.8175626440321,
              53.8914881922653
            ],
            [
              -122.8175988290249,
              53.89147273783429
            ],
            [
              -122.81768026147225,
              53.891501893222994
            ],
            [
              -122.81777131212115,
              53.8913925015402
            ],
            [
              -122.81781803704841,
              53.89140742977749
            ],
            [
              -122.8178492790996,
              53.89136986730894
            ],
            [
              -122.81780257065695,
              53.89135492838257
            ],
            [
              -122.81799035160773,
              53.891129350104045
            ],
            [
              -122.81801036555072,
              53.89113574818747
            ],
            [
              -122.81805732034124,
              53.89107933537995
            ],
            [
              -122.81801726053449,
              53.8910665502766
            ],
            [
              -122.81820503938843,
              53.890840992627496
            ],
            [
              -122.81821839030776,
              53.89084522694756
            ],
            [
              -122.81823796241034,
              53.890821735145614
            ],
            [
              -122.81841146489153,
              53.890877214897884
            ],
            [
              -122.81839190927354,
              53.89090069601074
            ],
            [
              -122.81840525704762,
              53.890904961274884
            ],
            [
              -122.81832388882447,
              53.891002717607385
            ],
            [
              -122.81829047975049,
              53.89099206569773
            ],
            [
              -122.81825452026602,
              53.89103528850019
            ],
            [
              -122.81828788093462,
              53.89104596216244
            ],
            [
              -122.8182096676083,
              53.89113994812761
            ],
            [
              -122.81818295662403,
              53.89113141797373
            ],
            [
              -122.81814384224278,
              53.89117841114354
            ],
            [
              -122.81819058365465,
              53.89119332869173
            ],
            [
              -122.81800281814004,
              53.89141890659582
            ],
            [
              -122.81795609216435,
              53.89140398867325
            ],
            [
              -122.8179248027562,
              53.89144156257967
            ],
            [
              -122.81797151119888,
              53.89145650150604
            ],
            [
              -122.81787762229614,
              53.89156927517326
            ],
            [
              -122.81778696132972,
              53.89153972856241
            ]
          ]
        ]
      }
    },
    {
      "type": "Feature",
      "id": 3955,
      "properties": {
        "feature_type": "reference_outline",
        "campus_id": "unbc-prince-george",
        "building_code": "05",
        "building_id": "unbc-05-library",
        "building_name": "Geoffrey R. Weller Library",
        "source_layer": "3_buildings",
        "source_entity": "CAMPUS_REFERENCE",
        "component_indexes": [
          9
        ]
      },
      "geometry": {
        "type": "Polygon",
        "coordinates": [
          [
            [
              -122.81355092960638,
              53.89381594750256
            ],
            [
              -122.81352390757655,
              53.89375308009738
            ],
            [
              -122.81352200978662,
              53.893748664843244
            ],
            [
              -122.81352016183942,
              53.8937490821466
            ],
            [
              -122.81351736500976,
              53.89374142531484
            ],
            [
              -122.81352919714212,
              53.89373874938884
            ],
            [
              -122.81352962959629,
              53.89373993331111
            ],
            [
              -122.81359174833602,
              53.89372588468946
            ],
            [
              -122.81359131583694,
              53.893724700777334
            ],
            [
              -122.8136031479693,
              53.89372202485133
            ],
            [
              -122.81360358042348,
              53.8937232087736
            ],
            [
              -122.81366569916321,
              53.893709160151936
            ],
            [
              -122.81366526666413,
              53.893707976239824
            ],
            [
              -122.81367709879648,
              53.893705300313826
            ],
            [
              -122.81367753125066,
              53.89370648423611
            ],
            [
              -122.8137396499904,
              53.89369243561444
            ],
            [
              -122.8137392174913,
              53.893691251702315
            ],
            [
              -122.81375104962366,
              53.893688575776316
            ],
            [
              -122.81375148208345,
              53.893689759713915
            ],
            [
              -122.81381360077827,
              53.8936757111024
            ],
            [
              -122.81381316831849,
              53.8936745271648
            ],
            [
              -122.81382500045083,
              53.89367185123881
            ],
            [
              -122.81382587446011,
              53.89367424399873
            ],
            [
              -122.81384687649502,
              53.89366949423007
            ],
            [
              -122.81384180724127,
              53.89365561622252
            ],
            [
              -122.81383810969992,
              53.8936564524494
            ],
            [
              -122.81383531287027,
              53.89364879561766
            ],
            [
              -122.81383974696045,
              53.893647792814704
            ],
            [
              -122.81382506430538,
              53.89360759636188
            ],
            [
              -122.81382200865721,
              53.89360828741979
            ],
            [
              -122.81381921182755,
              53.89360063058803
            ],
            [
              -122.81382104580806,
              53.89360021581949
            ],
            [
              -122.81381705682978,
              53.89358929526322
            ],
            [
              -122.81381592834012,
              53.89358955047968
            ],
            [
              -122.81380911736073,
              53.89357090418012
            ],
            [
              -122.81381024585035,
              53.893570648963696
            ],
            [
              -122.81380634951704,
              53.89355998203997
            ],
            [
              -122.81380451849456,
              53.893560396139506
            ],
            [
              -122.8138017216649,
              53.89355273930776
            ],
            [
              -122.81380355118478,
              53.893552325548015
            ],
            [
              -122.8137888688671,
              53.893512130023105
            ],
            [
              -122.81378704564966,
              53.893512542388834
            ],
            [
              -122.8137842447872,
              53.89350488439743
            ],
            [
              -122.81378607430698,
              53.89350447063773
            ],
            [
              -122.81377139094064,
              53.89346427224194
            ],
            [
              -122.81376955847348,
              53.89346468669972
            ],
            [
              -122.81376676164382,
              53.89345702986796
            ],
            [
              -122.81376859116374,
              53.89345661610823
            ],
            [
              -122.81375390919554,
              53.89341642154007
            ],
            [
              -122.81375202792096,
              53.89341684703686
            ],
            [
              -122.81374923109132,
              53.89340919020511
            ],
            [
              -122.81375235732808,
              53.893408481303986
            ],
            [
              -122.81373764861472,
              53.893368284334194
            ],
            [
              -122.81373454563801,
              53.8933689860958
            ],
            [
              -122.81371590320823,
              53.89332257808942
            ],
            [
              -122.81369798601827,
              53.89327352651101
            ],
            [
              -122.81359245818787,
              53.893297392426035
            ],
            [
              -122.81359271689462,
              53.89329810068296
            ],
            [
              -122.81352574369231,
              53.89331324717797
            ],
            [
              -122.81353672474361,
              53.89334330981057
            ],
            [
              -122.81356312103597,
              53.8933436792362
            ],
            [
              -122.81356187970198,
              53.89335077573899
            ],
            [
              -122.8135552685631,
              53.89335071866608
            ],
            [
              -122.81354830467941,
              53.893390530046645
            ],
            [
              -122.81357196708746,
              53.89339699370659
            ],
            [
              -122.81356718691674,
              53.8934036310414
            ],
            [
              -122.81356296442826,
              53.89340251461424
            ],
            [
              -122.81351090934898,
              53.89347194371601
            ],
            [
              -122.81351500307761,
              53.89347562252278
            ],
            [
              -122.81350622825406,
              53.893480221694155
            ],
            [
              -122.81344990534669,
              53.8934290491999
            ],
            [
              -122.8134300237769,
              53.893469398493686
            ],
            [
              -122.81343632895728,
              53.893470377527
            ],
            [
              -122.81343291800708,
              53.89347729999009
            ],
            [
              -122.81342661282673,
              53.89347632095676
            ],
            [
              -122.81340565984685,
              53.89351884465825
            ],
            [
              -122.81341196502726,
              53.893519823691584
            ],
            [
              -122.81340855407706,
              53.89352674615461
            ],
            [
              -122.81340224889665,
              53.89352576712132
            ],
            [
              -122.81338180058817,
              53.893567266601266
            ],
            [
              -122.81338673536423,
              53.893567078974854
            ],
            [
              -122.81338623408334,
              53.89357416455356
            ],
            [
              -122.81338129930727,
              53.89357435217999
            ],
            [
              -122.81339597018433,
              53.89361451638416
            ],
            [
              -122.81340244827679,
              53.89361305131467
            ],
            [
              -122.81340629391757,
              53.89362357945833
            ],
            [
              -122.81339002473558,
              53.89362725885658
            ],
            [
              -122.81338849347136,
              53.893623066741235
            ],
            [
              -122.81327891043007,
              53.89364784977279
            ],
            [
              -122.8132804416943,
              53.893652041888146
            ],
            [
              -122.81327008857856,
              53.89365438332339
            ],
            [
              -122.8132504699949,
              53.89360067386933
            ],
            [
              -122.81319838485115,
              53.89359258637814
            ],
            [
              -122.81319966176144,
              53.893589987872375
            ],
            [
              -122.81319714184785,
              53.893589598181364
            ],
            [
              -122.81328321663182,
              53.893414436447166
            ],
            [
              -122.81324923379702,
              53.89340918118572
            ],
            [
              -122.81326262499742,
              53.893381930455725
            ],
            [
              -122.81329615582017,
              53.893374327190486
            ],
            [
              -122.81330837213669,
              53.89334946705042
            ],
            [
              -122.81331466473351,
              53.893350440166465
            ],
            [
              -122.8133294236221,
              53.893320405905556
            ],
            [
              -122.81331955823799,
              53.89329350261955
            ],
            [
              -122.81331781908659,
              53.893293170192635
            ],
            [
              -122.81331780192825,
              53.89329316691294
            ],
            [
              -122.81331768041524,
              53.89329341419128
            ],
            [
              -122.81323386072164,
              53.893280451929364
            ],
            [
              -122.81336661611587,
              53.89301029539794
            ],
            [
              -122.81311325629642,
              53.89297111467321
            ],
            [
              -122.81311940742002,
              53.89295859716889
            ],
            [
              -122.81310507904233,
              53.892940395029484
            ],
            [
              -122.81310567392478,
              53.89293918444677
            ],
            [
              -122.81309067371227,
              53.89293686474511
            ],
            [
              -122.81309570845669,
              53.89292664682046
            ],
            [
              -122.81308131796209,
              53.89292441234457
            ],
            [
              -122.81312116760604,
              53.892843538197845
            ],
            [
              -122.81313123948394,
              53.89284510210297
            ],
            [
              -122.81313514258552,
              53.892837180827414
            ],
            [
              -122.81314665889674,
              53.89283896901608
            ],
            [
              -122.81314275579516,
              53.89284689029166
            ],
            [
              -122.8131882538162,
              53.892853954971095
            ],
            [
              -122.81319220010396,
              53.89284604040124
            ],
            [
              -122.81320371641517,
              53.89284782858993
            ],
            [
              -122.81319971254587,
              53.892855734218834
            ],
            [
              -122.8132602739475,
              53.89286513785615
            ],
            [
              -122.8132641770491,
              53.89285721658059
            ],
            [
              -122.81327569336032,
              53.89285900476928
            ],
            [
              -122.81327179025874,
              53.89286692604484
            ],
            [
              -122.81331559477977,
              53.89287372776701
            ],
            [
              -122.81331629400579,
              53.892866941773
            ],
            [
              -122.81332843869211,
              53.892866480016686
            ],
            [
              -122.81332820136842,
              53.892873244226685
            ],
            [
              -122.81338851330976,
              53.8928596042261
            ],
            [
              -122.81338571298407,
              53.89285193782331
            ],
            [
              -122.81339754511642,
              53.892849261897304
            ],
            [
              -122.81340034544212,
              53.8928569283001
            ],
            [
              -122.81346246413695,
              53.89284287968859
            ],
            [
              -122.81345966381124,
              53.892835213285814
            ],
            [
              -122.8134714959436,
              53.892832537359794
            ],
            [
              -122.81347429626929,
              53.89284020376259
            ],
            [
              -122.81353641496413,
              53.8928261551511
            ],
            [
              -122.81353361463843,
              53.89281848874829
            ],
            [
              -122.81354544677079,
              53.8928158128223
            ],
            [
              -122.81354824709648,
              53.89282347922508
            ],
            [
              -122.81365130618141,
              53.89280017163547
            ],
            [
              -122.81365473628762,
              53.892799395891075
            ],
            [
              -122.81365193596193,
              53.89279172948827
            ],
            [
              -122.81365637301147,
              53.89279072601603
            ],
            [
              -122.81364243431177,
              53.892752566280784
            ],
            [
              -122.81377535352854,
              53.89272250559706
            ],
            [
              -122.81377430471743,
              53.89271963428515
            ],
            [
              -122.81378615163996,
              53.89271695501423
            ],
            [
              -122.81377146828426,
              53.892676756647546
            ],
            [
              -122.81375962136174,
              53.89267943591845
            ],
            [
              -122.81375682453208,
              53.892671779086704
            ],
            [
              -122.81376867145461,
              53.89266909981579
            ],
            [
              -122.81375398809891,
              53.89262890144911
            ],
            [
              -122.81374214117639,
              53.89263158072002
            ],
            [
              -122.81373934434674,
              53.892623923888266
            ],
            [
              -122.81375119126926,
              53.89262124461735
            ],
            [
              -122.81373650791357,
              53.89258104625066
            ],
            [
              -122.81372466099106,
              53.892583725521575
            ],
            [
              -122.8137243533398,
              53.89258288327008
            ],
            [
              -122.81365798986748,
              53.89259789187003
            ],
            [
              -122.81365829751874,
              53.892598734121535
            ],
            [
              -122.81364646538638,
              53.89260141004753
            ],
            [
              -122.81364366855674,
              53.89259375321578
            ],
            [
              -122.81364496041306,
              53.892593461052726
            ],
            [
              -122.81363027705737,
              53.89255326268603
            ],
            [
              -122.81362898520105,
              53.89255355484909
            ],
            [
              -122.81362618837139,
              53.892545898017325
            ],
            [
              -122.81362748022771,
              53.89254560585428
            ],
            [
              -122.81361279687202,
              53.892505407487576
            ],
            [
              -122.8136115050157,
              53.89250569965063
            ],
            [
              -122.81360870818605,
              53.89249804281888
            ],
            [
              -122.81362054031841,
              53.89249536689289
            ],
            [
              -122.81362084796967,
              53.89249620914439
            ],
            [
              -122.81368721144199,
              53.89248120054442
            ],
            [
              -122.81368690379072,
              53.892480358292936
            ],
            [
              -122.81369875071326,
              53.89247767902202
            ],
            [
              -122.81368406735754,
              53.892437480655325
            ],
            [
              -122.81367222043504,
              53.89244015992624
            ],
            [
              -122.81366942360538,
              53.89243250309448
            ],
            [
              -122.81368127052791,
              53.89242982382356
            ],
            [
              -122.81366738077149,
              53.89239179807978
            ],
            [
              -122.81366136236346,
              53.89239586778198
            ],
            [
              -122.81365319182828,
              53.892390460241536
            ],
            [
              -122.81365908051082,
              53.89238639186834
            ],
            [
              -122.81359011868685,
              53.89237554817859
            ],
            [
              -122.81358617056748,
              53.892383462405604
            ],
            [
              -122.81358476996758,
              53.8923832421726
            ],
            [
              -122.81336269836625,
              53.89234833179456
            ],
            [
              -122.81336130005258,
              53.89234810333355
            ],
            [
              -122.81336368790195,
              53.89234323793966
            ],
            [
              -122.81330557498866,
              53.89235638061345
            ],
            [
              -122.81330837531435,
              53.89236404701624
            ],
            [
              -122.813296543182,
              53.89236672294224
            ],
            [
              -122.81329374285632,
              53.89235905653946
            ],
            [
              -122.81323162416147,
              53.892373105150966
            ],
            [
              -122.81323442448718,
              53.892380771553746
            ],
            [
              -122.81322259235482,
              53.89238344747975
            ],
            [
              -122.81321979202913,
              53.89237578107697
            ],
            [
              -122.81312988176569,
              53.89239611496139
            ],
            [
              -122.81309844955324,
              53.892416187223475
            ],
            [
              -122.81311806888017,
              53.89246989871251
            ],
            [
              -122.81311991765081,
              53.8924694805991
            ],
            [
              -122.81312149086753,
              53.892473787566935
            ],
            [
              -122.81311964209685,
              53.89247420568039
            ],
            [
              -122.81313494080021,
              53.89251608867365
            ],
            [
              -122.81313678957089,
              53.892515670560215
            ],
            [
              -122.81313836278757,
              53.89251997752809
            ],
            [
              -122.81313170721313,
              53.89252148273646
            ],
            [
              -122.81313127013878,
              53.892520286165656
            ],
            [
              -122.81309724970208,
              53.89252798014409
            ],
            [
              -122.81309768677642,
              53.8925291767149
            ],
            [
              -122.81309103120198,
              53.892530681923276
            ],
            [
              -122.81309059412763,
              53.892529485352455
            ],
            [
              -122.8130554867682,
              53.89253742514668
            ],
            [
              -122.81305147164674,
              53.892554150500246
            ],
            [
              -122.81303946988146,
              53.89255369259086
            ],
            [
              -122.81304068491856,
              53.892548631243336
            ],
            [
              -122.81300260681752,
              53.89254717843038
            ],
            [
              -122.81300230304323,
              53.89254844382977
            ],
            [
              -122.81299555205027,
              53.89254818625573
            ],
            [
              -122.81299585582455,
              53.89254692085634
            ],
            [
              -122.81295333398157,
              53.89254529849908
            ],
            [
              -122.81294013608594,
              53.8925603927395
            ],
            [
              -122.8129297918477,
              53.89255687070726
            ],
            [
              -122.81293378488063,
              53.89255230428119
            ],
            [
              -122.81289500928396,
              53.89253910186855
            ],
            [
              -122.81289401105906,
              53.89254024343697
            ],
            [
              -122.81288819242505,
              53.892538262293826
            ],
            [
              -122.81288919064994,
              53.89253712072541
            ],
            [
              -122.81284617676612,
              53.89252247525014
            ],
            [
              -122.8128257311002,
              53.89253360366902
            ],
            [
              -122.8128186192055,
              53.892527553711425
            ],
            [
              -122.81282476186567,
              53.89252416006557
            ],
            [
              -122.81279369173333,
              53.89249772927729
            ],
            [
              -122.81279215116636,
              53.892498573267055
            ],
            [
              -122.8127881507256,
              53.8924951701659
            ],
            [
              -122.81278969129256,
              53.89249432617616
            ],
            [
              -122.81275537644306,
              53.892465135166816
            ],
            [
              -122.81274561407628,
              53.89246722359478
            ],
            [
              -122.81274281724663,
              53.89245956676302
            ],
            [
              -122.81276129312128,
              53.892455388304576
            ],
            [
              -122.81274857978137,
              53.89242058321565
            ],
            [
              -122.81274016713526,
              53.89242248579903
            ],
            [
              -122.81273928963108,
              53.89242008347116
            ],
            [
              -122.81268485590621,
              53.89243239406873
            ],
            [
              -122.81261808159822,
              53.89224958721067
            ],
            [
              -122.81269499045848,
              53.892232193691655
            ],
            [
              -122.81269726113456,
              53.89223841008194
            ],
            [
              -122.8127298068936,
              53.892231049612974
            ],
            [
              -122.81272753621752,
              53.892224833222706
            ],
            [
              -122.81283428426059,
              53.89220069134737
            ],
            [
              -122.8128249125412,
              53.892175034554704
            ],
            [
              -122.81303725366527,
              53.89212857773859
            ],
            [
              -122.8130464787907,
              53.892136961001114
            ],
            [
              -122.81313454719479,
              53.89211645046461
            ],
            [
              -122.81313107477588,
              53.89210791675296
            ],
            [
              -122.81319719625898,
              53.89209181330371
            ],
            [
              -122.8131796123673,
              53.89203669290301
            ],
            [
              -122.81328954618884,
              53.892010733452864
            ],
            [
              -122.81329765267054,
              53.89203161181792
            ],
            [
              -122.81372823074892,
              53.89209874064074
            ],
            [
              -122.81368980024892,
              53.892138955372744
            ],
            [
              -122.81373424561492,
              53.8921558995646
            ],
            [
              -122.81372866572488,
              53.892161837566725
            ],
            [
              -122.81377124550573,
              53.892177901252566
            ],
            [
              -122.81375137231387,
              53.89219904988715
            ],
            [
              -122.8137820885416,
              53.89221053742231
            ],
            [
              -122.81380865680646,
              53.89218279254091
            ],
            [
              -122.81384809976738,
              53.89214160278769
            ],
            [
              -122.81398258635443,
              53.89219192395215
            ],
            [
              -122.81406569064531,
              53.892247321487574
            ],
            [
              -122.81418391288497,
              53.892356603605116
            ],
            [
              -122.81420102810375,
              53.892403459640995
            ],
            [
              -122.8142313479429,
              53.89239660258062
            ],
            [
              -122.81424253526151,
              53.89242722990764
            ],
            [
              -122.81421221542237,
              53.892434086968
            ],
            [
              -122.81424520353744,
              53.8925193302675
            ],
            [
              -122.8141557019243,
              53.892743137312124
            ],
            [
              -122.81417502502413,
              53.89275723758101
            ],
            [
              -122.81412645186873,
              53.89276923069645
            ],
            [
              -122.81401702798,
              53.892773449254655
            ],
            [
              -122.81401700696637,
              53.89277375138381
            ],
            [
              -122.81399445525881,
              53.89277468289561
            ],
            [
              -122.81400240464652,
              53.89279644579561
            ],
            [
              -122.81396569545589,
              53.89280474785605
            ],
            [
              -122.81396793291961,
              53.89281087332145
            ],
            [
              -122.81398494160986,
              53.89280702667781
            ],
            [
              -122.81399144423882,
              53.89282482881163
            ],
            [
              -122.81398567607431,
              53.89282613332556
            ],
            [
              -122.81398655008357,
              53.89282852608549
            ],
            [
              -122.81398521896867,
              53.89282882712716
            ],
            [
              -122.81398937925279,
              53.89284021666439
            ],
            [
              -122.81399071036769,
              53.892839915622716
            ],
            [
              -122.81399158437695,
              53.89284230838265
            ],
            [
              -122.81399269363936,
              53.89284205751457
            ],
            [
              -122.81399902146644,
              53.89285938109641
            ],
            [
              -122.81398667167831,
              53.89286217409418
            ],
            [
              -122.81398908394388,
              53.892868778111556
            ],
            [
              -122.81400143373202,
              53.892865985113794
            ],
            [
              -122.81400776155911,
              53.89288330869564
            ],
            [
              -122.8140066522967,
              53.89288355956371
            ],
            [
              -122.81400752630599,
              53.892885952323624
            ],
            [
              -122.81400619519108,
              53.8928862533653
            ],
            [
              -122.81401035547519,
              53.892897642902525
            ],
            [
              -122.81401168659009,
              53.89289734186085
            ],
            [
              -122.81401256059935,
              53.89289973462078
            ],
            [
              -122.81401366986175,
              53.89289948375271
            ],
            [
              -122.81401999768886,
              53.892916807334544
            ],
            [
              -122.81400764790072,
              53.89291960033232
            ],
            [
              -122.8140100601663,
              53.892926204349685
            ],
            [
              -122.81402240995443,
              53.89292341135194
            ],
            [
              -122.81402873778153,
              53.89294073493376
            ],
            [
              -122.81402762851911,
              53.89294098580183
            ],
            [
              -122.81402850252839,
              53.89294337856175
            ],
            [
              -122.81402717141349,
              53.892943679603434
            ],
            [
              -122.8140313316976,
              53.892955069140655
            ],
            [
              -122.81403266281251,
              53.89295476809899
            ],
            [
              -122.81403353682177,
              53.8929571608589
            ],
            [
              -122.81403464608417,
              53.89295690999084
            ],
            [
              -122.81404097391126,
              53.89297423357268
            ],
            [
              -122.81402862412313,
              53.89297702657046
            ],
            [
              -122.8140310363887,
              53.892983630587835
            ],
            [
              -122.81404338617683,
              53.89298083759008
            ],
            [
              -122.81404971400394,
              53.89299816117191
            ],
            [
              -122.81404860474153,
              53.89299841203997
            ],
            [
              -122.8140494787508,
              53.89300080479989
            ],
            [
              -122.8140481476359,
              53.89300110584156
            ],
            [
              -122.81405230792001,
              53.893012495378805
            ],
            [
              -122.8140536390349,
              53.89301219433712
            ],
            [
              -122.81405451304418,
              53.893014587097035
            ],
            [
              -122.81405562230658,
              53.89301433622899
            ],
            [
              -122.81406195013368,
              53.893031659810816
            ],
            [
              -122.81404960034553,
              53.89303445280858
            ],
            [
              -122.81405201261111,
              53.893041056825965
            ],
            [
              -122.81406436239925,
              53.89303826382821
            ],
            [
              -122.81407069022634,
              53.89305558741004
            ],
            [
              -122.81406958096393,
              53.89305583827811
            ],
            [
              -122.81407045497319,
              53.89305823103803
            ],
            [
              -122.8140691238583,
              53.8930585320797
            ],
            [
              -122.81407328414242,
              53.89306992161693
            ],
            [
              -122.81407461525731,
              53.89306962057525
            ],
            [
              -122.81407548926659,
              53.89307201333517
            ],
            [
              -122.81407659852898,
              53.89307176246711
            ],
            [
              -122.81408292635606,
              53.89308908604896
            ],
            [
              -122.81407057656793,
              53.89309187904672
            ],
            [
              -122.81407298883352,
              53.8930984830641
            ],
            [
              -122.81408533862165,
              53.893095690066346
            ],
            [
              -122.81409166644875,
              53.893113013648176
            ],
            [
              -122.81409055718635,
              53.893113264516245
            ],
            [
              -122.8140914311956,
              53.89311565727616
            ],
            [
              -122.81409010008072,
              53.89311595831783
            ],
            [
              -122.81409426036483,
              53.89312734785507
            ],
            [
              -122.81409559147971,
              53.89312704681339
            ],
            [
              -122.814096465489,
              53.89312943957332
            ],
            [
              -122.8140975747514,
              53.89312918870525
            ],
            [
              -122.8141039025785,
              53.89314651228708
            ],
            [
              -122.81409155279034,
              53.89314930528485
            ],
            [
              -122.81409396505593,
              53.89315590930224
            ],
            [
              -122.81409744074482,
              53.89315512324898
            ],
            [
              -122.8141078239749,
              53.89318354923686
            ],
            [
              -122.81411558881175,
              53.89318179316041
            ],
            [
              -122.81412165443606,
              53.893198398914265
            ],
            [
              -122.81412241278512,
              53.8931982274079
            ],
            [
              -122.81412557046464,
              53.89320583208096
            ],
            [
              -122.81411874646145,
              53.89320846796681
            ],
            [
              -122.81410219588675,
              53.89321682850042
            ],
            [
              -122.81409096638154,
              53.89322462808209
            ],
            [
              -122.81407540217683,
              53.893240726214536
            ],
            [
              -122.81406650859732,
              53.89325858806216
            ],
            [
              -122.81406506264354,
              53.89327780661535
            ],
            [
              -122.81407181671648,
              53.893295948842564
            ],
            [
              -122.81408330861751,
              53.89329429958468
            ],
            [
              -122.81408027360986,
              53.89328911030002
            ],
            [
              -122.81409450216492,
              53.89329095647073
            ],
            [
              -122.81408274942207,
              53.893317762106385
            ],
            [
              -122.81401719158809,
              53.89330925590509
            ],
            [
              -122.81401522849904,
              53.893313733315196
            ],
            [
              -122.81397994799691,
              53.893309155631094
            ],
            [
              -122.81400875733905,
              53.89339062693371
            ],
            [
              -122.8140087122962,
              53.89339067942919
            ],
            [
              -122.81401070503732,
              53.893396134921815
            ],
            [
              -122.81401026133236,
              53.893396235269044
            ],
            [
              -122.81401036621348,
              53.893396522400224
            ],
            [
              -122.8140060770655,
              53.8933974924234
            ],
            [
              -122.81400992270626,
              53.89340802056707
            ],
            [
              -122.81401421185424,
              53.893407050543885
            ],
            [
              -122.81401431673535,
              53.893407337675086
            ],
            [
              -122.81401476044032,
              53.89340723732785
            ],
            [
              -122.81401547712792,
              53.893409199391
            ],
            [
              -122.81401584688206,
              53.8934091157683
            ],
            [
              -122.81402993591145,
              53.893447687058256
            ],
            [
              -122.8140295661573,
              53.89344777068093
            ],
            [
              -122.81403028284491,
              53.893449732744074
            ],
            [
              -122.81402983913993,
              53.8934498330913
            ],
            [
              -122.81402994402104,
              53.89345012022249
            ],
            [
              -122.81402565487306,
              53.89345109024566
            ],
            [
              -122.81402950051385,
              53.893461618389324
            ],
            [
              -122.81403378966183,
              53.89346064836615
            ],
            [
              -122.81403389454293,
              53.89346093549733
            ],
            [
              -122.81403433824791,
              53.893460835150115
            ],
            [
              -122.8140350549355,
              53.89346279721325
            ],
            [
              -122.81403542468965,
              53.89346271359056
            ],
            [
              -122.81405126173756,
              53.893506070400356
            ],
            [
              -122.81405089198341,
              53.89350615402305
            ],
            [
              -122.81405160867102,
              53.89350811608618
            ],
            [
              -122.81405116496606,
              53.89350821643339
            ],
            [
              -122.81405126984716,
              53.89350850356459
            ],
            [
              -122.81404698069917,
              53.89350947358776
            ],
            [
              -122.81405082633997,
              53.89352000173143
            ],
            [
              -122.81405511548795,
              53.89351903170825
            ],
            [
              -122.81405522036906,
              53.89351931883944
            ],
            [
              -122.81405566407402,
              53.893519218492216
            ],
            [
              -122.81405638076161,
              53.89352118055535
            ],
            [
              -122.81405675051576,
              53.89352109693267
            ],
            [
              -122.81407258756367,
              53.89356445374246
            ],
            [
              -122.81407221780952,
              53.89356453736515
            ],
            [
              -122.81407293449713,
              53.89356649942829
            ],
            [
              -122.81407249079217,
              53.893566599775504
            ],
            [
              -122.81407259567328,
              53.8935668869067
            ],
            [
              -122.8140683065253,
              53.893567856929884
            ],
            [
              -122.81407180256237,
              53.893577427969575
            ],
            [
              -122.81407096069644,
              53.893577618363885
            ],
            [
              -122.8140282637981,
              53.893607273984465
            ],
            [
              -122.81405602143911,
              53.893683265594014
            ],
            [
              -122.8141121621744,
              53.893690549916364
            ],
            [
              -122.81412314715392,
              53.89372062330319
            ],
            [
              -122.8138719042421,
              53.893777443783264
            ],
            [
              -122.81386049481031,
              53.89374644807099
            ],
            [
              -122.81373636660578,
              53.89377491434538
            ],
            [
              -122.81373361633817,
              53.89376956800291
            ],
            [
              -122.81360926128414,
              53.89375333445712
            ],
            [
              -122.81360926061052,
              53.893753334609464
            ],
            [
              -122.81358872834397,
              53.893800159560016
            ],
            [
              -122.81359130177866,
              53.89380720480728
            ],
            [
              -122.8135540987758,
              53.893815616625275
            ],
            [
              -122.81355395165507,
              53.89381527775704
            ],
            [
              -122.81355093497861,
              53.89381596000118
            ],
            [
              -122.81355092960638,
              53.89381594750256
            ]
          ]
        ]
      }
    },
    {
      "type": "Feature",
      "id": 3956,
      "properties": {
        "feature_type": "reference_outline",
        "campus_id": "unbc-prince-george",
        "building_code": "07",
        "building_id": "unbc-07-agora",
        "building_name": "Agora",
        "source_layer": "3_buildings",
        "source_entity": "CAMPUS_REFERENCE",
        "component_indexes": [
          4,
          8
        ]
      },
      "geometry": {
        "type": "Polygon",
        "coordinates": [
          [
            [
              -122.81532835637981,
              53.893623748149935
            ],
            [
              -122.8154469868427,
              53.89338219686065
            ],
            [
              -122.81593189190878,
              53.89345712014496
            ],
            [
              -122.81588324263363,
              53.89355617813432
            ],
            [
              -122.81593627935024,
              53.89356437290332
            ],
            [
              -122.8158877001271,
              53.89366328825519
            ],
            [
              -122.81574360635774,
              53.89364122054536
            ],
            [
              -122.81572229404463,
              53.89368461594804
            ],
            [
              -122.81532835637981,
              53.893623748149935
            ]
          ]
        ]
      }
    },
    {
      "type": "Feature",
      "id": 3957,
      "properties": {
        "feature_type": "reference_outline",
        "campus_id": "unbc-prince-george",
        "building_code": "07",
        "building_id": "unbc-07-agora",
        "building_name": "Agora",
        "source_layer": "3_buildings",
        "source_entity": "CAMPUS_REFERENCE",
        "component_indexes": [
          4,
          8
        ]
      },
      "geometry": {
        "type": "Polygon",
        "coordinates": [
          [
            [
              -122.8146996762533,
              53.89263734036359
            ],
            [
              -122.81468480356445,
              53.89259718501832
            ],
            [
              -122.81471908992621,
              53.892589358388335
            ],
            [
              -122.81471908965943,
              53.892589357668065
            ],
            [
              -122.8148917201188,
              53.89254994696609
            ],
            [
              -122.81494235808321,
              53.89268666635598
            ],
            [
              -122.81491575509631,
              53.89269273968969
            ],
            [
              -122.81499833700546,
              53.892915489377664
            ],
            [
              -122.81462230348768,
              53.89300185447848
            ],
            [
              -122.8145877786652,
              53.89290863958089
            ],
            [
              -122.81456634848114,
              53.89291353198865
            ],
            [
              -122.81456351558802,
              53.89290588335145
            ],
            [
              -122.81457001706266,
              53.89290439909612
            ],
            [
              -122.81456009981207,
              53.89287762312948
            ],
            [
              -122.81455359833745,
              53.89287910738479
            ],
            [
              -122.81455076544434,
              53.8928714587476
            ],
            [
              -122.81457216729946,
              53.89286648985346
            ],
            [
              -122.81453767080589,
              53.89277335144226
            ],
            [
              -122.81459770458233,
              53.89276016448121
            ],
            [
              -122.81458920590306,
              53.89273721856959
            ],
            [
              -122.81456851469095,
              53.89274194227361
            ],
            [
              -122.81454301865291,
              53.89267310453884
            ],
            [
              -122.81467159940449,
              53.89264375017287
            ],
            [
              -122.81467159964149,
              53.89264375081276
            ],
            [
              -122.8146996762533,
              53.89263734036359
            ]
          ]
        ]
      }
    }
  ]
}